park_id	park_name	park_reg_code	address	lat_lng	city	park_level	park_type	info_16_p_1	main_industry	brief_introduction
1	四川阿坝工业园区	S519038	阿坝藏族羌族自治州汶川县威州镇东街11号	103.593483,31.483584	阿坝州	省级园区	工业园区	新材料,农产品精深加工	铝冶炼、化学原料、非金属矿物制品产业	四川阿坝工业园区位于阿坝州汶川县、茂县和红原县，是阿坝州重要经济增长极，地处阿坝州南、北门户地带。1998年2月，四川省人民政府批准成立四川省能源高耗能工业经济开发区；2006年8月，国家发改委在对全国经济开发区进行清理整顿后，正式确认阿坝州工业经济园区为省级开发区，核准面积为553.03公顷,水磨镇小区（北区）：东至郭家坝村、南至茅坪子村，西至寨子坪村，北至老人树村：水磨镇小区（南区）:东至黑土坡村，南至白石村，西至白石村，北至白果坪村；邛溪镇小区：东至老油库，南至瑞庆西路，西至白龙村,北至达尔玛街。受“5.12”汶川特大地震影响，水磨镇南、北两区企业迁建至汶川漩口和茂县土门，2018年2月26日,园区核准面积161.56公顷，涵盖汶川漩口、茂县土门、红原邛溪三个工业集中区。汶川漩口集中区，区块1东至汶川县漩口镇紫坪铺水库，南至古溪河右羊山脚，西至瓦窑村，北至古溪河右岸。区块2东至汶川县漩口镇麻溪沟，南至古溪河左岸，西至瓦窑村，北至麻溪沟向北1.8公里。茂县土门集中区，区块1东至茂县富顺集中区公路外山坡，南至水厂后山脚，西至槽木沟外边坡，北至土门河边山崖。区块2东至茂县东兴集中区220千伏变电站，南至土门河，西至水晶湾沟，北至省道302线。红原邛溪集中区（原格牛园区），区块1东至红原县萨玛村，南至邛溪镇萨玛村国道248线，西至邛溪镇萨玛村，北至邛溪镇达格龙村；区块2东至红原县县城，南至邛溪镇萨玛村国道248线，西至邛溪镇萨玛村，北至邛溪镇达格龙村。园区按产镇一体化与城镇规划建设，配套建设220KV变电站4座（漩口1座，东兴1座，团结1座，槽木1座），污水处理厂3座（漩口1座，槽木1座，邛溪1座），以及各企业配套建设职工公寓等基础设施。截止2018年底，园区聚集工业企业28户，其中规上工业企业24户，2018年园区规上工业企业累计完成总产值75.89亿元，同比增长4.85%，营业收入67.42亿元，同比增长11.44%，上缴税金2.7亿元，同比增长12.5%。2011年被授予“四川省知识产权试点园区”，2013年被授予“51025重点产业园区”。
2	茂县工业园区	---	南新镇棉簇工业园区	103.748139,31.591502	阿坝州	其他重点园区	工业园区	新材料	有色金属冶炼和化工产业、新材料产业	茂县工业园区是“5.12”汶川特大地震后，根据州委、州政府“工业北移”战略部署，按照“科学规划、合理布局、用地节约、产业集聚、有效整合、强化协作、提升工业体系综合竞争力”的原则，于2008年7月正式设立。经过几年的建设和发展，目前园区共建成六个集中区。企业固定资产投资31亿余元，国家投入建设资金近10亿元。形成了56万吨电石（20万吨气烧石灰及配套）、22.7万吨氯酸盐、1.2万吨高氯酸钠、9.6万吨工业硅（12兆瓦余热发电及配套）、5万吨二甲醒（2亿方废气利用）的生产能力。截止目前企业用12145余人（高峰期可达2600余人），80%以上为本地务工人员。截止2018年底，园区聚集工业企业20户，其中规上工业企业11户，2018年园区规上工业企业工业产值26.88亿元，同比增长-12%，营业收入24.3亿元，同比增长7%，实现利润0.75亿元，同比增长77%。
3	汶川县工业园区	---	阿坝藏族羌族自治州汶川县威州镇东街11号	103.593483,31.483584	阿坝州	其他重点园区	工业园区	新材料,医药健康	新材料、制造业、医药制造产业	汶川县工业园区位于阿坝州汶川县漩口镇，是阿坝州改造传统产业和培育新兴产业的重要基地，阿坝州循环经济示范区，是以新兴工业产业为主的绿色百亿工业园区。成立于2009年9月，汶川县工业园区规划面积约6.16平方公里，建成区面积1.44平方公里。漩口新型工业集中区范围：北,031°01'27.08765"N；东,103°28'17.96294"E,南,030°59'15.90729"N,西,103°25'13.61804"E。配套建设有110KV变电站、污水处理厂等基础设施。截止2018年底，园区聚集工业企业29户，其中规上工业企业21户，2018年园区规上工业企业工业产值55.9亿元，同比增长4.7%，营业收入45.2063亿元，实现利润2.6亿元。
4	理县绿色产业园区	---	理县阿坝理县薛城古镇东大街6号筹边楼旁边	103.319944,31.558217	阿坝州	其他重点园区	工业园区	绿色化工	有色金属冶炼和压延加工业、化学原料和化学制品制造、深加工农产品产业	2009年11月，经《关于印发四川省产业园区（产业集中发展区）产业发展规划指导意见（2009-2012）的通知》（川办发[2009]55号）文件批准，理县工业集中区更名为理县绿色产业园区，列入四川省产业园区，下辖理县绿色经济集中区和下孟工业集中区，主要以沙棘等农畜产品深加工和硅业、盐化工等水电髙载能产业为主导，以发展关联产业为配套，是理县建设现代工业的重要基地。下孟工业集中区1998年，省人民政府批准建立阿坝州高耗能工业园区，并将其作为电冶结合、发展高载能工业的试点地区之一，下孟工业集中区是该工业园区的一部分；2003年9月9日，经《阿坝州人民政府对阿坝州工业经济园区建设协调领导小组办公室关于审批工业园区规划的请示的批复》（阿府函[2003]136号）批准同意下孟工业集中区总体规划；2008年12月15日,州人民政府在全州县长大会上将下孟工业集中区命名为湖南•下孟工业集中区。下孟工业集中区位于理县下孟乡四马、仔迭两行政村内，由回龙桥河坝（东区）和三家河坝（西区）组成，占地面积为84.77公顷，其中西区46.72公顷，东区38.05公顷，薛孟公路贯穿全境，基础设施齐备。东区以生产能源高耗产品为主的中心，主要安排为工业加工中心和工业服务中心；西区以乡域经济、政治、文化发展的中心，居住和服务综合区。理县绿色经济集中区2009年，根据《关于同意建设湖南•理县绿色经济集中区的批复》（理府函[2009]59号）文件精神，理县正式启动理县绿色经济集中区建设。理县绿色经济集中区起于杂谷脑镇维关上桥,止于县团结桥,全长2.6公里,规划总用地面积为280亩，主要发展以深加工沙棘、蔬菜等农产品为主绿色产业。园区内现道路通畅，供电、供水、排污、通讯便利，并已建成较为规范的下孟220KV变电站1座、110KV输变电1座，自来水厂2座、污水处理厂1座和等一批配套设施。截止2018年底，园区聚集工业企业6户，其中规上工业企业3户，2018年园区规模以上工业企业产值6.31亿元，同比下降43%，营业收入3.514093亿元，同比下降47%，实现利润0.08483亿元，同比下降73%。
5	四川青藏高原农畜产品集中加工区	---	四川省阿坝藏族羌族自治州松潘县G213(兰磨线)	103.618136,32.592001	阿坝州	其他重点园区	工业园区	农产品精深加工	农副食品加工产业	园区位于松潘县青云乡雄山村，松潘县位于阿坝藏族羌族自治州东北部，距省会成都335公里，距州府马尔康431公里，“九环线”西线沿岷江纵贯全县，距九黄机场仅17公里，距离成兰铁路青云火车站800米。园区于2010年2月7日成立，按“分步实施、有序开发”的原则进行开发。2012年完成了《四川青藏高原农畜产品加工集中区总体规划(2011-2025)》的编制和评审工作，四川青藏高原农畜产品加工集中区经国土部门审核面积为2.185平方公里。其四至范围为，青云组团：青云生态工业园位于青云镇东北，距离松潘县城5公里。四磨子沟组团：四磨子沟位于北定关四磨子沟，西临213国道，用地沿山谷向东呈带形布置，东西长约3.3公里，南北宽约150米。海子沟组团：海子沟位于镇江关海子沟热务河畔，用地界线为北抵热务河,西、南至山脚的区域，用地沿山谷向东呈不规则三角形布置，东西长约720米，南北宽约840米。镇江关-小平坝组团：镇江关工业园、小平坝位于镇江关乡集镇和五里村小平坝，岷江西侧，用地界线为北抵热务河，西、南至山脚的区域。截止2018年底，园区聚集工业企业2户，其中规上工业企业1户，2018年园区规上工业企业工业产值0.5亿元，同比增长22%，营业收入0.08亿元，同比增长100%，实现利润0.032亿元，同比增长100%。经四川经信委公示于2018年8月1日正式挂牌“四川特色产业基地”。
6	四川巴中经济开发区	S517033	四川省巴中市巴州区置信街18号	106.900775,31.849318	巴中市	省级园区	经开区	软件与信息服务,集成电路与新型显示	机械、电子、服装产业	四川巴中经济开发区位于巴中市巴州区，是巴中市重要经济增长极，地处成渝经济圈和关天经济圈。成立于2002年6月成立，于2003年6月获批省级开发区，2015年5月扩区移位至巴州区兴文镇，规划面积37.75平方公里，建成区面积18平方公里。四至范围（具体以界址点坐标控制）:东至巴州区兴文镇郑家山村、南巴州区兴文镇中营村，西至九寨山和渝巴汉高速，北至巴州区兴文镇观音桥村。经开区按产城一体与城市规划建设，配套建设有110KV变电站、污水处理厂、科技孵化器、人才公寓等基础设施。截止2018年底,园区聚集工业企业79户，其中规上工业企业30户，2018年园区规上工业企业工业产值58.9亿元，同比增长14.1%，营业收入53.3亿元，同比增长13.6%，实现利润2.4亿元，同比增长22.7%，园区被授予“四川省新型工业化产业示范基地”。
7	南江县工业园	---	巴中市南江县东榆铺街附近	106.819055,32.298126	巴中市	其他重点园区	工业园区	新材料,精制川茶	新材料、食品饮料产业	南江县工业园成立于2011年5月，辖东榆工业园核心区、乐坝中小企业集中区、坪河新材料产业区，总规划面积15.9平方公里，主导产业为绿色食品、生物医药、新能源新材料、矿产资源精深加工。其中东榆工业园区核心区位于巴中市南江县城南部东榆镇，东邻光雾山大道、南江河，西靠玉皇观山体，北临林家坝黄金村片区、香山观-寨梁山，南至巴陕高速南江南出入口，总用地面积10.22平方公里，以食品、医药，资源加工为主导产业。乐坝中小企业集中区位于南江县乐坝镇镇区东部，规划区西北至旺苍县，东南至向家坡村，西南至乐坝河，东北至侯家坡村，规划面积4.12平方公里，以矿产品加工为主导产业。坪河新材料产业区位于南江县坪河镇镇区南部，规划区北至后坝，东至钟槽沟，南达鸡爪沟，西至空木河，以石墨、霞石、钾长石等资源进行开采及加工为主导产业，规划面积1.56平方公里。工业园区按产城一体与城市规划建设，配套建设有220KV变电站、污水处理厂、中小企业孵化园、企业服务中心、医院、职业学校等基础设施。是南江县对外开放的南大门，是南江县重要经济增长极，地处成渝经济圈。截止2018年底，园区聚集工业企业25户，其中规上工业企业17户，2018年园区规上工业企业工业产值66亿元，同比增长30%，营业收入24.2亿元，同比增长28.7%，实现利润3亿元，同比增长25%。2018年8月，园区被四川省经济和信息化委员会授予：四川省新型工业化产业示范基地。
8	通江县工业园	---	巴中市通江县通达路	107.270654,31.890959	巴中市	其他重点园区	工业园区	集成电路与新型显示,精制川茶	机械、食品饮料产业	通江县工业园位于巴中市通江县，是通江县域经济增长极。成立于2011年11月，规划面积10平方公里，建成面积近2平方公里。统筹范围春在镇秦家岭村第一、二、三村民小组、向家营村第一、十村民小组，诺江镇城南村第二村民小组，广纳镇金堂村第一、二、三、四、五村民小组。目前入驻企业26家，其中规上企业10家，千方药业、锐嘉食品等企业已建成营运九州科技、芊菇公司等企业建设如火如荼；爱吃兔、青花椒等一批企业陆续入园；巴山牧业已成功上市，成为我市首家上市企业。已形成入驻企业不断增多、建设项目不断提速、建成企业不断发展状大的良好态势。园区突出“绿色”“有机”产业发展特色，不断加快园区发展，到2020年力争建成区面积达3平方公里，人口2万人，实现园区投资总额超过100亿元，入园企业超过100家，园区总产值占全县工业总产值50%以上，实现利税5亿余元，解决就业岗位2万个。努力将工业园打造成“一园四基地”，即国内一流的有机农副产品加工园、国际知名的通江银耳（食用菌）深加工基地、国内知名的有机肉食品深加工基地、川东北地区有机果蔬深加工基地、秦巴山区重要的中药材生产加工基地。2018年园区总产值38亿元，同比增长5.6%，规上工业企业产值32亿元，同比增长8.9%，实现利润3.5亿元，同比增长4.6%。园区被县委组织部授予“人才引进示范单位”、省经信委授予“四川特色产业基地”。
9	四川平昌经济开发区	S517123	巴中市平昌县(星光工业园)	107.149033,31.529802	巴中市	省级园区	经开区	智能装备,清洁能源,农产品精深加工	机械、食品饮料、能源产业	四川平昌经济开发区位于巴中市平昌县，是巴中市工业重要经济增长极，成立于2003年10月，2018年2月，该园区纳入《中国开发区审核公告目录》(2018年版)，于2018年10月获批省级开发区，规划建设面积0.4974平方公里，建成面积0.48平方公里。四至范围：北至胡豆坝，南至梅垭村，西至星白路，东至河家山。园区位于县城主城区巴河下游2公里，紧邻达广国道G542公路，距巴达高速公路平昌东互通4公里，距巴达铁路平昌火车站6公里。园区按产城一体与城市规划建设，配套建有110KV变电站、污水处理厂、中小企业孵化园、创新创业服饰产业园等基础设施。截止2018年底，园区聚集工业企业32户，其中规上工业企业21户，2018年园区规上工业企业工业产值144.19亿元，同比增长11.48%，营业收入134.59亿元,同比增长9.23%，实现利润2.25亿元，同比增长24.2%。2011年10月被列为《四川省“十二五”开发区发展规划》重点培育园区，2016年9月成功创建“四川省新型工业化示范基地”，2018年2月成功纳入《中国开发区审核公告目录》。
10	成都龙潭新经济产业功能区	S519040	四川省成都市成华区航天路50号国机西南大厦12楼	104.181225,30.69444	成都市	省级园区	经开区	智能装备,新一代网络技术	“数字通信、机器人、检验测验”两主导一特色的新经济产业	成都龙潭新经济产业功能区（成都龙潭都市工业集中发展区），位于成都市成华区，成立于2005年9月，规划总面积约11平方公里，建成区面积约9平方公里，核心区（成都龙潭都市工业集中发展区）8.13平方公里,是成都市重要经济增长极，是串联成渝经济区、成德绵经济带、川南经济腹地的重要经济纽带节点。四至范围：东至绕城高速，南至成南高速，西至三环路，北至成渝铁路。按照国内一流、国际知名的“新经济-生态城”定位，加快构建功能复合、职住平衡、服务完善、宜业宜居发展导向的新经济产业生态圈创新生态链。已建成八横九纵市政骨干路网25.52公里，可无缝对接成绵、成南等四条高速公路以及成都东客站。配套建设有日供水量30万吨，双回路供电能力45万干伏安，日供气量50万立方，干兆光纤网络实现全覆盖，大学生创业园等基础设施，标准厂房和人才公寓正在加快建设中。截止2018年底，园区聚集企业2000户，其中规上工业企业17户，2018年功能区规上工业企业工业产值57.25亿元，同比下降0.9%,营业收入60.86亿元，同比增长1.7%,实现利润5.36亿元，同比增长14.8%。功能区先后荣获四川省“1525工程”培育园区、“成渝经济区投资价值榜最具投资价值产业园区前十强”、“一带一路·四川最具投资价值产业园区”、“中国总部经济研究实践基地”，2018年纳入四川省省级开发区系列管理。
11	华西坝大健康（金融）产业功能区	---	四川省成都市一环路南三段80号B座4楼	104.059115,30.640144	成都市	其他重点园区	经开区	医药健康	医疗医美、大健康金融产业	华西坝大健康（金融）产业功能区位于成都市武侯区，是成都双流国际机场进入市区的机场门户、城市“会客厅“和“形象展示带“，是成都经济发展门户和文化展示国际窗口。规划面积12.66平方公里，空间边界东至锦江高攀段，西至浆洗街，北至锦江区行政边界，南至成昆铁路。
12	成都环保应急产业功能区	---	四川省成都市金堂县广东路	104.596015,30.701308	成都市	省级园区	工业园区	新能源与智能汽车,医药健康	节能环保、应急、电力、食品、医药产业	成都环保应急产业功能区位于成都市金堂县，包含成阿工业园区、金堂工业区两个省级工业开发区（金堂工业园区成立于1994年5月，于1994年5月获批省级开发区。成阿工业区成立于2010年7月，于2010年7月获批省级开发区）。规划面积36.8平方公里，建成区面积20.6平方公里。东至金简仁快速路，西至淮白路，北至金堂大道，南至成南高速；涵盖节能环保产业园、应急产业园、物流园区、竹篙园区等产业社区。截止2018年底，园区聚集工业企业500余户，其中规上工业企业181户，2018年园区规上工业企业工业产值191.5亿元，同比增长16.8%。实现主营业务收入167.8亿元，同比增长11.6%,实现利润5亿元，同比增长50%。荣获国家新型工业化产业示范基地、国家环保装备制造基地、全国民族团结进步创建活动示范单位、四川省新型工业化产业示范基地、四川省环保产业示范园、四川最具投资价值产业园区20强、成渝经济区最具投资潜力产业园区等荣誉称号。
13	成都天府国际空港新城	---	四川省成都市简阳市	104.255566,30.282823	成都市	其他重点园区	经开区	航空与燃机	航空制造业、航空现代服务业、航空新经济产业三大主导产业及航空物流、航空研发制造、商务贸易、文体旅游等重点领域	成都天府国际空港新城（简称空港新城）位于成都市东南部、简阳市西部，距成都中心城区约50公里，总规划面积约483平方公里（含成都天府国际机场）,西临龙泉山城市森林公园，北连简州新城、东临简阳城区、南接仁寿县，区域南北最长25.6公里，东西最宽34公里。空港新城内在建成都天府国际机场，预计2021年上半年建成运营，天府奥体城规划建设于园区内。新城内规划建设有再生水厂、变电站、孵化园、人才公寓、国际会议中心、地铁TOD、城市公园、滨湖绿道等基础设施、产业配套和公服配套。空港新城总人口为31.7万人，流动人口6.18万人，2018年实现地区生产总值64.2亿元。2018年，辖区内规模以上工业企业3家,工业产值1.4亿元；限额以上住宿餐饮业3家，实现营业额5341.9万元；资质以上建筑业企业1家，建筑业产值为1.3亿元。
14	成都中德国际精工产业功能区	---	四川省成都市蒲江县寿安街道迎宾大道88号	103.645197,30.263793	成都市	省级园区	高新区	农产品精深加工	精工产业、生态食品及其细分领域	成都中德国际精工产业功能区（中德（蒲江）中小企业合作区）前身是蒲江工业集中发展区。2005年，《成都市人民政府关于切实做好工业集中发展区和工业布局落实工作的通知》（成府发[2005]52号），批复我县设立蒲江工业集中发展区、蒲江寿安工业点；2014年11月，获工业和信息化部中小企业发展促进中心、中国中小企业国际合作协会授牌为“中德（蒲江）中小企业合作园”；2016年7月27日,获工业和信息化部批复同意设立中德（蒲江）中小企业合作区。合作区总规划面积33平方公里，是成都市委、市政府确定的66个产业功能区中重点建设的10个智能制造功能区之一，也是全市重点打造的5个国别合作园区之一。四至范围:北至新蒲路、蒲回路；南至成雅高速；西至清江大道；东至规划道路新园七路。中德（蒲江）中小企业合作区按产城一体与城市规划建设，配套建设有110KV变电站、人才公寓等基础设施。近年来，通过不懈的努力与发展，先后获评“中国包装印刷产业基地”、“全省‘两化互动'示范区”、“全省新型工业化重点培育基地”、“省级开发区”、“四川省国际科技合作基地”和“四川省特色产业（包装和五金）基地”。
15	成都航空经济功能区	S517010	成都市双流区成都机场高速四川航空大厦东侧约130米	103.976261,30.576405	成都市	省级园区	经开区	智能装备	电子信息、新能源、装备制造产业	双流经济开发区（天府空港高技术产业园）成立于1992年5月，是内陆地区最早设立并经国务院核准的省级重点经济开发区。西南航空港经济开发区位于成都市中心城区西南面,地处天府新区、双流东升、西航港三大城市组团之间，紧邻中国第五大国际机场——双流国际机场，产业用地规划面积43.7平方公里,现已开发建设35.7平方公里,是天府新区产业核心承载区。园区规划完善、配套到位，产城一体、宜业宜居，其区域环境在全市、全省乃至中西部地区独具优势。四至范围：A区：东至外环高速路，西街办桂花堰社区一、二组，机场路社区二组，南至成乐大件路，西至川齿路，北至西街办长乐社区九、十组，近都社区一、四组；B区：东至双黄路、南至正公路西沿线、西至黄甲大道及西航港大道南延线、北至双中路以南规划道路。产业园现已形成日供水25万立方，供气200万立方，污水处理30万立方的能力，园区内已建成110干伏以上变电站11座，装机容量达115万千伏安，建成骨架道路248公里，各类管网、通讯、光纤均实现了全覆盖。截至2018年底，园区聚集工业企业419户，其中规上工业企业186户，2018年园区规上工业企业工业产值870亿元，同比增长24%,主营业务收入826亿元、增长22%,工业税收首次突破20亿元、增长17%,经济总量稳居省级产业园区第一。园区获得国家科技兴贸创新基地、国家新能源产业高技术产业基地、国家新能源装备高新技术产业化基地、中国产学研合作创新示范基地、中国新能源产业创新园区、四川省新型工业化产业示范基地、省级人才优先发展试验区、四川省信息安全产业示范园区等荣誉称号。
16	成都医学城	---	成都市温江区杨柳西路与温泉大道三段交叉口南100米	103.850339,30.670415	成都市	省级园区	高新区	医药健康	医药、食品饮料、电子信息产业	成都医学城位于成都市温江区，是成都市66个产业功能区之一，是成都市重要经济增长极。园区成立于1993年12月，于1998年5月获批省级开发区，规划面积35.57平方公里，建成区面积27.12平方公里。四至范围：A区东至杨柳河、南至温江双流界、西至温江与崇州界、北至成温邛高速，B区东至绕城高速、南至土龙路、西至五环路、北至物流大道。成都医学城按产城一体与城市规划建设，配套建设有110KV变电站3座、220KV变电站1座、污水处理厂1座及科技孵化器、人才公寓等基础设施。截止2018年底，园区聚集工业企业1500余户，其中规上工业企业193户。2018年园区规上工业企业工业产值408亿元，同比增长12.7%,营业收入386.87亿元，同比增长7.97%,实现利润27.78亿元，同比增长13.4%。授牌情况：先后获得"四川省生产性服务业功能示范区”、“知识产权试点园区”、“电子商务示范基地”、“模范劳动关系和谐工业园区”、“中国生物医药最具特色园区”、“中国最佳医疗健康产业园区”、“天府新坐标”、“全市先进基层党组织”等多项称号。
17	成都新经济活力区	---	成都市高新区天华二路219号天府软件园C区成都当代美术馆	104.078037,30.547806	成都市	其他重点园区	经开区	智能装备,新一代网络技术,医药健康	数字文创、5G和人工智能	《成都市城市总体规划（2016—2035年）》明确将成都高新区南部园区打造成为成都新经济活力区，致力于打造具有全球影响力的新经济策源地和活力区。成都新经济活力区规划面积87平方公里，东至锦江和成自泸高速路；南与天府新区成都直管区及双流交界（天府大道以东区域以海昌北路为界，天府大道以西区域以天府软件园为界）；西与双流、武侯交界（绕城内至庆安片区，绕城外以成昆铁路为界）；北至一环路南三段及火车南站，涵盖瞪羚谷、骑龙湾、AI创新中心、中国一欧洲中心、新川创新科技园、天府软件园等产业社区。2018年12月17日，成都高新区发布《成都新经济活力区高质量发展三年行动方案（2018-2020）》。2018年,成都新经济活力区培育种子期雏鹰企业520家、瞪羚企业60家'独角兽企业3家（潜在独角兽企业30余家）、平台生态型龙头企业1家。
18	成都电子信息产业功能区	---	成都市金牛区天目路2号	103.98221,30.734211	成都市	其他重点园区	高新区	集成电路与新型显示	集成电路、新型显示产业	成都电子信息产业功能区（成都髙新区）东至金牛区交界线、天辰路，南至西源大道，西至绕城路生态圈，北至西区大道。区内有合作、西园2个街道办事处，现有常住人口约30.6万人。区内设立成都高新综合保税区，面积4.68平方公里。保税区现有企业36家，从业人员8万余人。园区已汇聚了众多世界500强企业，入驻的英特尔、格罗方德、德州仪器、富士康、京东方、深天马、戴尔、联想、华为、西门子等一大批国际国内知名公司已成为最具代表性和活力的企业。现有19所高等院校，主要高校均设有电子信息产业相关院系，在校学生约25万人，占成都市高校学生总人数33%；有各类实验室、工程中心、技术中心等科研机构249个, 其中国家级29个，具有强大的研发、设计、实验能力，已形成了建设具有国际影响力的创新基础。现有公共 配套变电站11个（不含重大企业专用变电站）,幼儿园27所，小学4所，初高中7所。2018年，成都电子信息产业功能区（成都高新区）123家规模以上电子信息制造业企业累计实现产值 3000.5亿元，同比增长20.41%,产值总额占成都髙新区工业产值规模的84%；实现二业增加值552.05亿元， 同比增长10.08%。电子信息产业固定资产投资额超过225亿元。实现进岀口总额3115亿元（不含双流园区）,同比增长31%,占全省外贸进出口总额的52%。
19	成都轨道航空产业功能区	S519001	四川省成都市新都区	104.240073,30.714617	成都市	省级园区	高新区	轨道交通	轨道交通、航空产业	成都轨道航空产业功能区的前身是成都新都工业园区，成立于1992年，是四川省人民政府批准成立的省级重点开发区，四川省成长型特色产业园区（即“51025”工程）中的500亿园区之一。功能区地处全市“中优”、“北改”、“东进”战略叠加区，总规划面积50.89平方公里，核心区面积27平方公里，其中石板滩社区四至范围东、南边界为新都区界，西至成南E线，北至三木路北侧规划道路，主城社区四至范围西至宝光大道，东、北至青白江-新都行政边界，南至锦水河东路、锦水河西路。功能区拥有雄厚的科研及技术支撑，良好的“校院企地”合作对接机制，已有74家企业与高校、院所共建科研项目，拥有4个国家级重点实验室，6个国家级技术中心，1个博士后工作站，9个院士工作站，46个省市级研发机构。截至2018年底，园区共有企业392家,其中世界500强企业9家，中国500强企业12家，民营500强企业1家，上市公司31家，国家认证的高新技术企业47家。完成固定资产投资89.56亿元；实现全口径税收20.18亿元，同比增长10.22%。其中，园区160家规模工业企业，实现工业总产值350.34亿元，同比增长16.6%；工业增加值94.5亿元，同比增长13.55%O园区获得“全国模范劳动关系和谐工业园”、“四川省新型工业化产业示范基地”、“四川省知识产权试点园区”等称号，2018年成功创建省级高新技术产业园区、国家新型工业化产业示范基地、国家级绿色园区。
20	成都智能应用产业功能区	S517047	成都市崇州市崇阳大道中国五冶技工学校崇州校区西北侧约280米	103.703629,30.638126	成都市	省级园区	经开区	大数据	电子信息产业、智能家居产业及大数据和人工智能产业	成都智能应用产业功能区（成都崇州经济开发区）成立于2005年，2010年5月升格为省级经济开发区。规划面积20.4平方公里，已建成面积约16.8平方公里，四至范围：东至黑石河，西至世纪大道，南至西江河，北至成温邛高速路。园区配套设施完善，建有国家级产品质量监督检测中心2个（家具、鞋类），国家地方联合工程实验室2个，国家级企业技术中心1个，大数据人才公寓一处,青年（大学生）创业园一个，工业污水处理厂一座（日处理能力4万吨，一期日处理能力为2万吨，已投运；二期日处理能力是2万吨，正在建设中），110KV变电站4座，220KV变电站1座（在建）。截止2018年底，园区签约企业355户，其中规上工业企业109户，2018年园区规上工业企业实现工业总产值290.2亿元，同比增长19.4%；主营业务收入278.4亿元,同比增长19.4%；利润总额16.5亿元，同比增长13.7%。成都智能应用产业功能区（成都崇州经济开发区）先后荣膺“中国板式家具产业基地”、“四川省家居产业知名品牌示范区”、“四川省知识产权园区”、“四川省信息安全示范园区”、“国家新型工业化产业示范基地（大数据）”。
21	成都天府国际生物城	---	成都市双流区明德路凤凰家园	104.000512,30.434582	成都市	其他重点园区	经开区	医药健康	“生物医药、生物医学工程、生物服务、健康新经济”四大主攻方向的生物产业	2016年3月14日,成都市高新区管委会与双流区政府签订合作协议，双方共建成都天府国际生物城（以下简称国际生物城）。国际生物城总规划面积约44平方公里，起步区面积约9.1平方公里；东至锦江，西至区界西路,南至第二绕城高速绿化保护带（生物城辖区含生物城污水处理厂）、北至正公路、成花铁路绿化保护带。国际生物城以建设具有国际竞争力和区域带动力的现代生物产业体系为主攻方向，以加快建设生物产业功能区为抓手、以构建“4+1+1”生物产业生态圈为支撑、创新生态链为路径，全力推动建设。配套建设包含了创新产业载体、幼儿园、学校、社区综合体、标准厂房、人才公寓与园区配套住房、污水处理厂等，营造便捷 精致的10分钟生活圈,7x24小时健康生活方式。国际生物城目前正处于初期建设过程中，暂无工业企业进驻。在德勤与生物谷联合举办的中国生物医药园区评选中，获评中国生物医药最佳园区和最具潜力园区。先后取得了 “药品上市许可持有人制度试点示范区”、“药物及器械临床评价与研究专业委员会常设办公室”、“国家科技兴贸创新基地（生物医药）”、“促进科技和金融结合试点地区”、“国家自主创新示范区”、“新药专项成果转移转化试点示范基地（四川）”、“高新区新型人才工作站”等的挂牌。
22	成都科学城	---	四川省成都市天府新区	104.08779,30.408372	成都市	其他重点园区	工业园区	智能装备	新一代人工智能为特色的数字经济	成都科学城产业功能区位于天府新区成都直管区，规划面积125平方公里，涉及正兴街道、兴隆街道、永兴街道、煎茶街道、籍田街道、合江街道和白沙街道7个街道，四至范围为东至科信路，西至益州大道，南至科学城南路，北至鹿溪河生态区的城市建设区以及鹿溪智谷全流域的美丽乡村地区，其中73平方公里起步区域规划布局新经济和人工智能产业园、数字经济和5G产业园、重大科学基础设施园区、省级重大功能预留区（军民融合产业园）、高端商贸经济产业园和未来科技产业园等6个产业社区。
23	成都绿色食品产业功能区	S517046	四川省成都市邛崃市东二路与南江路交叉口西北角	103.523249,30.40313	成都市	省级园区	工业园区	农产品精深加工,优质白酒,精制川茶,医药健康	食品饮料、医药产业	成都绿色食品产业功能区位于成都市邛峡市，是邛峡市重要经济增长极，地处成都平原经济区。成立于2003年10月，已于2019年3月完成四川邛峡经济开发区设立的公示，待省政府正式批复，规划面积13.3平方公里，由9.2平方公里的A区（食品医药园区）和4.1平方公里的B区（名酒工业园）组成，建成区面积10.4平方公里。四至范围：其中A区东至成温邛快速路南延线，西至318国道，南至滨江路，北至新邛路；B区东至现状乡道，西至棠子沟村，南至卧龙镇镇区，北至川池酒业。功能区按产城一体和城市规划建设，配套建设有110KV变电站、污水处理厂、特勤消防站、标准厂房等设施。截止2018年底，园区聚集工业企业118户，其中规上工业企业52户，2018年园区规上工业企业工业产值122.12亿元，同比增长16.51%,主营业务收入112.96亿元，同比增长7.63%,实现全口径税收11.75亿元，同比增长22.97%。功能区获得国家农业产业化示范基地、中国食品工业协会品牌战略工作委员会理事单位、四川省生物医药高新技术产业化基地、四川省工业集中发展区专家服务（示范）基地、四川省重点工业园区信息系统建设和运行先进单位、成都市和谐劳动关系工业园区、AA级成都市模范劳动关系和谐单位、成都市三八红旗集体、2012年成都市工人先锋号、成都市2015年安全生产“先进集体”、全市第二批“蓉城先锋”基层示范党组织等称号。
24	天府新区新能源新材料产业功能区	---	成都市邛崃市界牌村11组104号	103.728227,30.403348	成都市	省级园区	工业园区	清洁能源,新材料	新能源、新材料产业	天府新区新能源新材料产业功能区位于邛峡市羊安镇，是邛峡市勇担“南拓”使命的主战场，是邛峡市重要经济增长极。前身邛峡市羊安工业园区成立于2009年，是成都市21个工业集中发展区及10个重点工业布局点之一，在成都市委市政府的大力支持下，经过10余年的努力，2016年12月6日，天府新区成都管委会与邛峡市人民政府签订共建园区协议，双方本着“资源共享、发展共荣”的原则，按“总部+基地”的模式,从规划同图、产业同链、交通同网、政策共享、招商一体和干部交流等方面开展深度合作。2017年1月，经成都市编办、成都市经信委批准，羊安工业园区正式更名为天府新区邛峡产业园区。2019年4月，按照成都市产业功能区及园区建设工作领导小组办公室《关于正式印发印发（优化调整后的成都市产业功能区名单〉的通知》（成产领办[2019]2号）文件精神，天府新区邛峡产业园区正式更名为天府新区新能源新材料产业功能区。总规划范围100平方公里，规划建设用地面积64平方公里，建成区面积19.5平方公里。四至范围（具体以界址点坐标控制）:东至邛峡与新津交界处，西至邛峡市高燻镇、牟礼镇兴贤社区，南至南河，北至天新邛快速路。功能区按产城一体与城市规划建设，配套建设有日处理2万吨的污水处理厂1座、110KV变电站2座、日供气10万m3和日供气100万m3的配气站各1座、标准化厂房和正在建设的人才公寓'创客中心等基础设施及功能配套。截止2018年底，园区聚集工业企业165户，其中规上工业企业57户，2018年园区规上工业企业工业产值80亿元，同比增长23%,营业收入75亿元，同比增长19%,实现利润5.6亿元，同比增长15%。
25	天府中药城	S519007	成都市彭州市成彭路与西河东路交叉路口往西约90米	103.961818,30.954178	成都市	省级园区	经开区	医药健康	现代中药及家纺服装产业	天府中药城位于成都彭州，是彭州市重要的经济增长极，地处成渝经济圈和成德绵高新技术产业带。按照四川省大健康产业发展规划和成都国家中心城市产业功能区定位，规划布局“一城三区”（一城：即天府中药城,三区：即全域中药材种植区、工业开发区医药制造贸易区、龙门山山地健康养生旅游区）。工业开发区医药制造贸易区作为天府中药城核心区，成立于1992年，于1998年经四川省计划委员会批准为省级开发区，现规划面积30平方公里（东至成新彭快速路、西至彭州市三环路西段，南至彭州市三环路南段，北至天府中路）。天府中药城按照产城一体与城市规划建设，配套建设有110KV变电站4座、污水处理厂2个、幸福科技园等基础设施。截止2018年底，园区正常生产经营的工业企业391家，其中规模以上工业企业70家。2018年园区实现规上工业产值107.53亿元，同比增长14.34%；实现规模以上工业主营业务收入111.56亿元，同比增长20.07%；实现规上工业增加值增速15.51%,同比增长3.62个百分点；实现税收11.19亿元，同比增长42.01%,亩平税收12.8万元。园区获得“2018年中国生物医药最具特色园区”、“2018年度最具投资价值医药园区”、“成都市2017年安全生产先进集体”等荣誉称号。
26	青城山旅游装备产业功能区	S517006	成都市都江堰市九鼎大道与蒲阳干道交叉路口北侧	103.672244,31.029393	成都市	省级园区	经开区	智能装备,医药健康	机械、医药、食品、旅游装备产业	青城山旅游装备产业功能区位于成都市都江堰市，始建于1990年，前身为青城桥工业区，于2001年3月获批省级开发区，2006年3月经省发改委正式批准核名为“四川都江堰经济开发区”。2010年1月，四川都江堰经济开发区和都江堰市工业集中发展区正式进行整合,将位于城区南部的四川都江堰经济开发区调整到位于蒲阳镇的都江堰市工业集中发展区。2018年12月，根据成都市产业功能区建设统一部署，“四川都江堰经济开发区”更名为“青城山旅游装备产业功能区”。功能区总体规划面积56平方公里，核心区规划面积16.3平方公里，建成区面积7.2平方公里。四至范围：核心区东至干河子，南至成都经济区环线高速公路，西至成汶铁路，北至蒲虹路。青城山旅游装备产业功能区按产城一体与城市规划建设，配套建设有110kV变电站、污水处理厂、科技孵化器、人才公寓、标准化厂房等基础配套设施。截止2018年底，园区聚集工业企业364户，其中规上企业77户，2018年园区规上工业企业工业产值133.1亿元，同比增长33.8%,营业收入124.4亿元，同比增长27.6%,实现利润13.69亿元，同比增长29.5%。青城山旅游装备产业功能区先后获得四川省知识产权试点园区、四川省模范劳动关系和谐工业园区、四川省食品医药类新型工业化产业示范基地、成都市“五一劳动奖状”、成都市科普惠农兴村先进单位、成都市星级示范开发区工会、成都市知识产权宣传培训工作先进单位、成都市淘汰落后和化解过剩产能工作先进单位、成都市燃煤锅炉淘汰及清洁能源改造工作先进单位、成都市“安全生产月”成绩突出单位、成都市厂务公开民生管理先进单位等荣誉称号。
27	成都中国川菜产业功能区	---	成都市郫都区永和路318号	103.815006,30.872288	成都市	其他重点园区	经开区	农产品精深加工	以郫县豆瓣为核心的复合调味品和休闲食品	成都中国川菜产业功能区位于成都市郫都区，属成都市绿色食品产业重点发展领域和重要经济增长极，地处成灌走廊腹心地带和“安唐乡村振兴示范区”核心区域。于2005年建园，2011年8月被农业部认定为第一批国家农业产业化示范基地，2018年7月获评第二批四川省特色产业基地。规划面积9.4平方公里，建成区面积5.4平方公里，四至范围：东至二绕500米控制带，南临成灌高速，西接安德黄家湾路，北以W2线为界。按照产业功能区产城一体规划建设理念，配套建设有污水处理厂、消防站、产业技术研究院、调味品检验检测中心、标准厂房等基础设施。截止2018年底，园区聚集工业企业92户，其中规上工业企业47户，2018年园区规上工业企业工业产值49.16亿元，同比增长13.94%,营业收入53.50亿元，同比增长5.35%,实现利润5.29亿元，同比增长1.14%。功能区先后荣获中国川菜产业化食品加工基地、全国农产品加工业示范基地、国家农业产业化示范基地、四川省特色产业基地等示范称号。
28	成都先进材料产业功能区	---	成都市青白江区复兴大道青龙国际建材装饰城北侧约120米	104.301303,30.858945	成都市	省级园区	高新区	新材料,智能装备	先进材料、智能制造产业	成都先进材料产业功能区是成都市66个产业功能区（集聚区）之一，位于成都市青白江区，地处成渝经济圈和成德绵高新技术产业带，起步区面积23平方公里，总规划面积43.1平方公里（产业区规划面积26.02平方公里，东至成金青快速通道，西至宝成铁路，南至金芙蓉大道二段和铁路北环线、青白江区行政边界，北至青白江区行政边界。2019年1月25日，园区正式获批成为省级经开区，核准面积为428.74公顷。功能区毗邻中国（四川）自由贸易试验区成都国际铁路港片区，拥有亚洲最大的集装箱中心站，物流配套基础设施完善,拥有西南地区电压等级最全的供电枢纽，建有500KV变电站1座,220KV变电站3座，各类大型公、专变电站25座，装接电总量355万KVA,建成10KV公用线路36.7公里；建有配气站11座，日供天然气能力1200万立方米，供气管线80公里（含工业氧％气干管8.0公里）。建有污水座，污处能力达15万吨/日，自来水管道46.4公里，日供水能力7万吨/日，通讯管线107公里，实现了管线基本覆盖。2018年，功能区实现规上工业总产值614亿元，占全区规上工业总产值总量的92%；实现工业投资98.7亿元，占全区工业投资总额的71%；实现全口径税收13.92亿元，占全区第二产业税收总额的82%。高性能纤维及复合材料国内市场占比约为60%左右；绿色建筑材料（建筑工业化部品部件）国内市场占比约为60%以上。对全市加快打造国家级高性能纤维复合材料产业基地、国内一流的先进功能材料产业高地等具有重要支撑意义。2018年园区共有企业900余家（规上企业219家）。园区先后获批全国唯一的国家新型工业化产业示范基地（绿色建材）、国家绿色建材高新技术产业化基地、国家高性能纤维高技术产业化基地、四川省特色产业（智能制造）示范基地、四川省知识产权试点园区，荣列2018中国建材园区20强名单（第一名），“国家新型工业化产业示范基地（绿色建材）”被国家工信部评为发展质量总体水平四星级示范基地，是国家循环经济试点示范单位、中国开发区协会会员单位。
29	成都军民融合产业功能区	---	成都市双流区安公路三段戛纳湾·印像东南侧约280米	104.062814,30.526603	成都市	其他重点园区	工业园区	航空与燃机	新一代信息技术、航空航天、核技术及应用产业	成都军民融合产业功能区位于成都市双流区，毗邻全国第五大国际机场（双流国际机场）和中国（四川）自由贸易试验区成都天府新区片区，是国家级天府新区、成都“中优”“南拓”战略重要承载地和双流“一港三心四组团”杨柳湖城市中心发展区，是全省唯一以军民融合为发展方向的产业功能区。功能区成立于2018年，总规划面积50.04km2,东至五环路、银河路，南至牧正路西延线,西至成新蒲快速路,北至草金路西延线，涉及双流区东升、黄水、彭镇、金桥、九江五个镇（街道）。功能区按产城一体和城市新中心规划建设，区间道路、雨污水管网、电力通道等市政设施配套齐全，已建成产业载体52万沖、空港中央公园4000余亩，体育中心、医院、棠湖中学等生活性配套成熟。2018年，园区共有规上工业企业4家，实现主营业务收入58亿元、同比增长13.7%；实现全口径税收3676万元、同比增长7.2%。2018年，中国电科（成都）网络信息安全产业园成功创建四川省特色产业基地；中物院成都科学技术发展中心军民科技协同创新平台获省科技厅授牌。
30	成都经济技术开发区	G511040	成都市龙泉驿区星光中路18号	104.246512,30.565018	成都市	国家级园区	经开区	软件与信息服务,新能源与智能汽车,新材料	电子信息,汽车及零部件,新材料	成都经济技术开发区（简称经开区）位于成都市东部，于1990年创办，2000年2月获批国家级经济技术开发区。2010年10月被国家工信部批准为国家汽车产业新型工业化示范基地创建单位，2014年被国家环保部、科技部、商务部批准为国家生态工业示范园区创建单位，是国别合作园区——成都中法生态园和中德汽车及智能制造产业园的主承载区，是四川省和成都市确定的以汽车及关键零部件为主导的先进制造业基地，四川省重点培育的“特色成长型千亿产业园区”，天府新区龙泉高端制造产业功能区。       按照“一区一主业”的产业布局，经开区围绕“世界级汽车产业城、国际化生活品质城”和“大车城”建设目标，大力发展以汽车整车、零部件和工程机械为重点的现代汽车产业。    近年来，成都经开区按照中央“四个全面”战略布局和“五大发展理念”，积极抢抓 “一带一路”、天府新区建设、“蓉欧+”等重大发展机遇，主动适应经济新常态，不断挖掘发展潜力，大力推进经济提质增效，确保了区域经济平稳发展。2015年，完成地区生产总值1002.1亿元、增长5%，规上工业增加值增长2.6%，固定资产投资483亿元、增长19%，其中工业投资144.9亿元、增长51.5%。实现汽车整车（机）产量92万辆，整车主营业务收入1219亿元。重点项目投资、工业投资、服务业投资和促进创新创业工作受到市政府表彰。区域经济综合实力连续3年位居全省“十强县”第一。    （一）汽车整车制造规模发展。成都经开区围绕“中国一流、世界知名”的成都国际汽车城建设目标，现已聚集一汽大众、一汽丰田、东风神龙、沃尔沃、吉利等11家整车企业，初步搭建年产155万台整车生产平台，成为西部地区第二大整车生产基地。2015年，成都经开区整车产量突破92万辆、增长1.7%，产量约占全省的87%，实现整车（机）主营业务收入1219亿元。预计2016年整车产量突破百万辆、增长11.4%。    （二）整车品牌体系不断健全。截至目前，经开区已聚集了一汽大众、一汽丰田、东风神龙、吉利、沃尔沃等11个整车企业，开创了同时聚集3家国内十大汽车集团的先例；生产车型主要包括轿车、SUV、商用车。在轿车领域，以新速腾、新捷达、沃尔沃S60L三款产品为主，2015年5月，中国首款出口美国豪华车型沃尔沃S60 Inscription成功下线投产，开启了“成都造”汽车出口先进发达国家的新篇章。SUV产品以丰田普拉多、沃尔沃XC60、神龙4008、全球鹰GX7为主，未来东风神龙成都基地也将生产一款高端SUV。商用车以丰田考斯特、大运卡车、一汽客车为主，其中丰田考斯特长期作为商用车标杆车型备受青睐。    （三）汽车配套产业聚链延伸。近年来，经开区根据国际汽车城全产业链搭建的思路，围绕一汽大众、一汽丰田、吉利、沃尔沃等主要整车企业和博世、德尔福、麦格纳等进入全球供货体系的独立零部件配套企业，大力发展汽车核心零部件配套体系，已经初步形成了围绕五大总成的配套体系。一汽大众年产60万台EA211发动机项目、吉利动力总成系统、德国博世底盘系统等重大主机项目和美国江森、加拿大麦格纳、法国彼欧、日本住友、德国汉高等200余个关键零部件项目聚集发展，变速器、底盘控制系统等总成和关键零部件本地配套率达30%，2015年实现汽车配套企业主营业务收入237.4亿元，为打造汽配千亿产业集群奠定了坚实基础。    （四）汽车产业高端要素加快聚集。成都经开区（龙泉驿区）连续4年荣获国家科技进步考核先进区称号，成功申报四川省知识产权示范园区、成都市创新驱动发展试点区。2015年，全社会研发投入27亿元。大力发展新能源汽车，聚集沃尔沃、吉利高原等新能源整车项目6个，产能达2万辆，2015年产量达1454辆、增长12.8倍。加快发展汽车研发设计，美国哈曼国际、德国汽车智创中心、成都瑞华特电动汽车检测中心以及宁波卡培亿电控研发中心、孔辉科技、汽车研究院等一批研发检测项目落户经开区，汽车产业自主创新能力得到提升。    （五）汽车服务业蓬勃发展。汽车贸易博览业快速发展，以成都国际汽车博览城为龙头，中国兵装万友汽车博览中心、吉利汽车超市城市综合体、九峰国际汽车博览城等一批汽车贸易博览重大项目加快建设，汽车贸易千亿产业集群加速形成；全球汽车论坛、全国超级卡车越野赛、成都汽车精英赛、汽车文化节等一批汽车文化娱乐项目提升了成都国际汽车城的知名度、美誉度。汽车物流业加快推进。基本实现了经开区骨干路网与高速路网、泸州港、重庆港等港口、货站的有效对接；嘉里物流、中国外运建成投运，成都公路口岸项目竣工，海关国检进驻龙泉物流中心开办业务，康华国际、意大利维龙项目加快建设，保税物流中心（B型）项目启动建设，正积极争取纳入成都自贸区申报范围。    （六）园区配套功能加快完善。按照成都卫星城的战略定位和“四态合一”理念，坚持“南北联动、两翼齐飞”，“一心两翼两带”的城市空间形态加快构建。近年来，累计完成基础设施投资362.5亿元，建成骨干路网173公里，城市“四路”被建设部评为示范样板；建成110-500KV各型变电站13座，区域供电能力达440万千伏安；天然气配站5座，日输配气能力310万立方米；民生物流、一汽物流等项目建成投运，大型商场、宾馆、教育、卫生、文化、体育等一大批城市生活配套设施日益完善，以天鹅湖片区、皇冠湖片区、东山国际片区为重点的45 km2生活配套服务区加速形成，产城互动发展的承载能力不断增强。    下一步，我们将坚持以“科学发展、领先发展”为指导，牢固树立和贯彻落实“五大发展理念”，充分对接“中国制造2025”及省市行动计划，积极抢抓国家“一带一路”和长江经济带建设重大机遇，全面落实中央“四个全面”战略布局、省委“三大发展战略”和市委“五大兴市战略”，深入落实全省“一带一区七园”汽车产业发展规划，主动融入成都“3+N”工业发展布局，围绕“两城”和“大车城”建设目标，以提高经济发展质量和效益为中心，以结构性改革为方向，大力推动汽车产业强基提质，积极发展装备制造、航空航天、节能环保等新兴高端产业，加快构建“一主五新”主业突出、多元共兴产业发展格局，努力推动汽车产业向全国第一方阵跨越，为成都打造西部经济核心增长极、建设国际化大都市贡献力量。    ——预计到2020年，整车产能达到247万辆，建成中国乘用车制造业新基地，进入中国汽车产业集群格局一级体系，成为成都打造“西部经济核心增长极”的重要支撑。    ——预计到2025年，整车产能达到260万辆，建成中西部最大的乘用车产业基地、领先的汽车电子产业基地、新型的新能源汽车产业基地、辐射力广的汽车服务业基地，建成“中国一流、世界知名”的成都国际汽车城，进入世界汽车产业集群体系。
31	成都汽车产业功能区	---	成都市龙泉驿区驿都西路与银杏大道交叉路口东南侧	104.168081,30.607408	成都市	其他重点园区	高新区	新能源与智能汽车	汽车产业、装备制造	成都汽车产业功能区是成都市实施“东进”战略的主战场，是成都市66个产业功能区的重要组成部分，位于成都经开区（龙泉驿区）境内，规划面积177.8平方公里，距离双流机场和天府国际机场22公里、距离成都铁路港35公里，现已形成了集整车制造、零部件生产、研发设计和贸易博览、文化娱乐等于一体的汽车全产业链格局，正围绕“核心在产业、关键在功能、支撑在园区、机制是保障”和“培育产业生态、完善创新生态、重构生活生态、构建政策生态”要求，加快建设成为生产空间集约高效、生活空间宜居适度、生态空间山清水秀的产城融合典范。功能区“产业生态”加快培育。整车制造蓬勃发展，聚集有一汽-大众、一汽丰田、沃尔沃等11家整车企业和德国博世底盘系统、美国江森等关键零部件项目300余个，搭建了220万辆整车产能生产平台。2018年，实现整车产量123.7万辆，汽车制造业产值1767亿元，汽车产业综合实力位列全国汽车产业基地第6位。智能网联汽车高点起步，成功申创全国第8家智能网联汽车试验基地，也是国内唯一的国际合作智能网联汽车基地一中德智能网联汽车示范基地，引进中国信通院智能网联汽车和车联网（四川）创新中心，全力打造"未来汽车、未来城市、未来生活“融合发展的“未来汽车城”。新能源汽车加力提速，聚集沃尔沃、中植一客、威马汽车总部及运营中心、吉利BMA等新能源整车项目9个，产能达5万辆，获评全国新能源汽车（动力总成及零配件）产业知名创建示范区。功能区“创新生态“加快构建。聚焦汽车研发检测，成功搭建汽车科技数据银行等创新服务平台、“三院一中心”等检测认证平台、孔辉汽车科技等公共技术平台，引进美国哈曼等一批研发检测项目，累计建成各类研发机构127家。聚焦校院企地合作，与上海大学、四川帝华汽车科技三方共同建设成都电驱动技术研究院，与清华大学合作建设启迪之星项目，与髙校院所、央企、省企签订合作协议13项。聚焦创新创业推进，引进洪泰智造中心、国际中医药医学转化中心等创新项目，汽车产教联盟作用发挥良好，“订单式”人才培养持续推进，汇聚汽车产业技能人才20余万人、基础性研发配套服务人才30余万人。2018年，实现高新技术产业产值495亿元、增长6.5%。功能区“生活生态”加快完善。城市品质稳步提升，龙泉山城市森林公园加快建设，龙泉山国际文化旅游度假区项目加速推进，万达广场、希尔顿逸林酒店等商业统合体、五星级酒店建成投运，红星美凯龙、苏宁易购等知名品牌入驻。生产服务配套齐全，已建成“一带一路”创新创业产业园等标准厂房20万平方米、专业楼宇39万平方米；危废物处理设施及变电站、配气站、污水处理厂等专用型生产设施应有尽有。夕卜联通道深入拓展，主动融入“蓉欧+“，全力建设“大通关”信息平台和公铁水联运通道，开通成都南向（公路）国际物流班车；建成投运“一关三检”功能的成都公路口岸，龙泉物流园区成为成都四大物流园区之一，成功获批设立公路口岸公共保税仓。功能区“政策生态”加快优化。政策体系不断完善，制定出台了《促进以汽车及智能装备为主导的先进制造业发展扶持政策》等7个产业扶持政策，进一步加大土地、财政、金融、科技等政策支持力度；确定工商银行龙泉驿支行作为产业功能区主办牵头银行，成立龙雏基金管理公司，组建50亿元产业投资基金、首期出资20亿元。政务水平不断提升，深化完善审批机制，大力推进企业投资项目承诺制改革，积极推广并联审批模式,认真落实外商投资新设企业商务备案与工商登记“单一窗口、单一表格”管理改革，获准“无行政区划企业名称”审查受理权限。管理机构优质高效。建立了“管委会+专业运营公司”的管理运营机制，大力实施区领导“1对1”联系服务重大项目、重点企业、重要产业制度，构建了开放透明、法治化、国际化、便利化的营商环境。
32	成都高新技术产业开发区	G512045	四川省成都市武侯区天韵路150号东80米	104.072422,30.598303	成都市	国家级园区	高新区	航空与燃机	航空与燃机	成都高新区筹建于1988年，1991年获批成为全国首批国家级高新区，2006年被科技部确定为全国创建“世界一流高科技园区”试点园区，2015年经国务院批准成为西部首个国家自主创新示范区，是四川省全面创新改革试验区和自由贸易试验区核心区。 一区四园：成都高新区现有托管区域面积613平方公里(不含与成都市双流区合作共建园区44平方公里)，围绕“一区四园”总体布局，依托空港新城、高新南区、高新西区、天府国际生物城，加快建设四大产业功能区。高新南区——面积87平方公里，重点发展新经济与现代服务业，打造承担区域性金融中心、创新创造中心、国际会展中心、国际合作中心的新经济活力区。成都高新自贸试验区，规划面积29.86平方公里，依托高新技术、自主创新、科技金融等产业和政策集聚优势，建设面向世界的自贸区开放高地。成都金融城，规划面积5平方公里，是成都建设西部金融中心的重要支撑、吸引金融总部聚集的重要载体、促进金融业发展的强大引擎。天府软件园，是中国11个国家软件产业基地之一，聚集企业600余家，员工总数逾6万人，世界500强34家，成为全国知名创新地标。新川创新科技园，规划面积10.34平方公里，由四川省与新加坡合作开发建设，正在建设成为产业、人文、生态高度融合的创新示范城。菁蓉国际广场，建筑面积25.6万平方米，是中韩创新创业园的主要承载地，设有中西部首个外籍人士创新创业之家。中国-欧洲中心，建筑面积21万平方米，是重要的对欧综合服务平台、欧洽会永久会址。高新西区——面积43平方公里，重点打造集成电路、光电显示、智能终端、网络通信产业生态圈和电子科技大学协同创新平台，建设具有全球竞争力的电子信息产业高地，构建生产、生活、生态融合的电子信息产业功能区。成都高新综保区，2010年经国务院批准设立，规划面积4.68平方公里。 2017年，实现进出口2381亿元(不含双流园区)，占全省外贸进出口总额的52%，进出口总额在全国综保区中位居第三。高新东区——面积 483平方公里，依托成都天府国际机场，规划建设成都天府国际空港新城，是成都“东进”主阵地和经济社会发展“第二主战场”，重点发展临空高端制造业、临空现代服务业、新一代信息技术三大主导产业。天府国际机场和国际空港新城建设是四川省委确定的四项重点工程之一，定位为“带动成都乃至全省发展的强劲引擎”。天府国际机场于2015年获国家批复，建成后将满足直达航线和中转航班旅客需求，远期年旅客吞吐量将达9000万人次，货邮吞吐量200万吨。成都天府国际生物城——面积44平方公里，由成都高新区与双流区合作共建，是成都市发展生物医药产业的核心集聚空间，围绕生物医药、生物医学工程、生物服务、健康新经济四大主攻方向，重点发展生物技术药物、新型化学药制剂、现代中(医)药、高性能医疗器械、智慧健康+精准医学和专业外包服务，致力于建成世界一流生物产业园区。主导产业：以电子信息、生物医药、新经济为重点，着力培育发展创新型产业集群，构建产业生态圈、创新生态链，打造具有全球竞争力的现代产业体系。2017年，成都高新区实现地区生产总值1665.8亿元，增长10%，占四川省的4.5%，占成都市的12%。截至2017年，聚集市场主体15.6万家。其中，企业11.5万余家，上市企业33家，新三板挂牌企业115家，经认定的高新技术企业1058家。电子信息：2017年，成都高新区规上电子信息工业企业实现总产值2515.7亿元，聚集英特尔、格罗方德、华为、京东方、戴尔、联想、德州仪器、富士康、奕斯伟、业成科技等一批国际知名企业，在全球电子信息产业版图占据重要一极。聚集软件和信息技术服务企业1300余家、全球软件10强企业6家，吸引世界500强中软件和信息技术服务企业12家、全国软件百强企业22家落户，从业人员超过12万人。生物产业：2017年，生物产业实现产值270亿元，聚集倍特、蓉生、地奥、迈克生物、奥泰医疗、美敦力等企业1541家，初步形成现代中药、化学药、生物制剂、医疗器械等重点产业集群，从业人员3.5万余人。设立总规模100亿元生物医药产业基金。已建成天府生命科技园、天河孵化园2个生物产业专业园区，总建筑面积27万平方米。 新经济：2017年，新经济实现产值3300亿元。培育出新潮传媒、极米科技、医云科技、数联铭品、天象互动、西加云杉、准星云学等30余家“独角兽”和“潜在独角兽”企业。在成都市新经济百家重点培育企业中，成都高新区企业有69家。 创新驱动：秉持“发展高科技、实现产业化”的国家使命，着力推动科技创新，打造从企业孵化到发展壮大的良性生态系统，构建起涵盖孵化载体、投融资、人才支撑、创新创业、知识产权、政务服务等全链条培育体系。孵化载体：建成各类创新创业孵化载体91家，总面积425万平方米，公共技术平台78家，总体规模和水平位居全国前列。科技金融：形成涵盖天使投资、创业投资、私募股权基金、产业投资基金等在内的股权投资服务体系。盈创动力科技金融服务模式成为国务院首批推广的全面创新改革试验举措之一。发行全国首单银行间市场“双创债”。人才支撑：出台“金熊猫”人才计划，设立21个海外人才离岸基地，打造全球人才活力区。建立人才服务一卡通制度，在落户、入学、医疗、住房、居留和出入境证件申请等方面提供一站式服务。聚集各类人才48.2万名，柔性引进诺贝尔奖获得者6人、两院院士19人，聚集国家“千人计划”人计划人、省“千人计划”人计划人，累计吸引3841名高层次创新创业人才创办企业1687家。创新创业：以“国际化、专业化、众创化、集群化”为主要方向，大力支持校地军民协同创新、国际合作创新、大企业大集团引领创新和街道社区基层创新创业。创新主体快速增长，聚集创新创业企业1.8万余家。知识产权：搭建了中国(四川)知识产权保护中心等全链条知识产权服务体系，成立四川省首个知识产权服务联盟，聚集各类知识产权服务机构100余家。2017年，发明专利申请量1.5万余件，万人有效发明专利拥有量124件。政务服务：以推进“放管服”改革为重点，打造符合国际惯例的政务环境，建设法治化、国际化、便利化的一流营商环境，专业化服务能力在中西部保持领先。发展目标：当前，成都高新区正围绕“一区四园”总体布局，按照产业生态圈理念，加快建设四大产业功能区，勇担国家创新使命，深化改革再出发，凝心聚力建设高质量发展示范区和国际化产业新区。成都高新区确定了“三步走”发展目标：从现在到2020年，进一步巩固国内顶尖高科技园区地位，成为引领中西部高质量发展的样板示范区;从2020年到2035年，迈入世界一流高科技园区行列，成为国家创新网络的重要枢纽;从2035年到本世纪中叶，跻身世界一流高科技园区前列，成为全球科技与产业创新的主要策源地之一。
33	成都航空动力与新材料产业功能区	---	成都市彭州市丽蓉北路	103.878529,30.986192	成都市	省级园区	经开区	绿色化工,新材料,航空与燃机	油气化工、新材料、航空动力装备	成都航空动力与新材料产业功能区位于成都市彭州市，是成都市重要经济增长极，地处成渝经济圈和成德绵高新技术产业带。成立于2019年2月，是由原成都绿色化工产业园和原成都航空动力产业园整合而来。总规划面积64平方公里（核心区域面积32平方公里）,包括新材料产业园15平方公里和航空动力产业园17平方公里，北至小石河、西至彭州市三环路西延线西段、东至成彭快速路、南至青白江。功能区配套有科技孵化园、航空博览馆、石化铁路货运专线、500KV变电站1座、110KV变电站2座、35KV变电站1座、自来水厂、污水处理厂、净水厂、两台150t/h天然气锅炉及相关配套的天然气调压站等基础设施配套，截止2018年底，功能区集聚工业企业46家，其中规上工业企业8户，2018年功能区规上工业企业工业产值450亿元，营业收入425亿元，实现利润13.6亿元。功能区先后荣膺国家级再制造产业集聚区试点单位、四川省军民融合（航空动力与增材制造）特色产业基地等称号。
34	天府智能制造产业园	---	成都市新津区大件路与兴化10路交叉路口往北约140米	103.863404,30.360501	成都市	省级园区	工业园区	智能装备,农产品精深加工	智能制造、轨道交通、新能源交通、绿色食品产业	天府智能制造产业园位于成都市新津县，是成都市确立的重点产业功能区之一，是成都市“南拓”区域的重要组成部分。成立于1993年，于2006年获批省级开发区，规划面积75.6平方公里，东、南面至新津县域行政边界，西南面至岷江，西北面至杨柳河。产业园高举智能制造旗帜，主动融入全市先进制造业布局，大力发展“智能制造+”产峰群，强化智能制造场景应用，全力建设智能制造产业新城，着力打造西部领先的先进制造业高地。产业园重点发展以智能制造、绿色食品为主导的先进制造业，已集聚企业500余户，其中，规上企业129家，引进培育上市公司51家，世界500强企业14家，央企13家。2018年，实现规模工业增加值增幅12.5%；实现主营业务收入同比增长13.7%；税收达13.45亿元，同比增长14.8%。园区先后获得“四川省中小企业创业基地”、“四川省循环经济示范点园区”、“四川省知识产权试点园区”、“和谐中国-最佳投资环境开发区”、“四川省和谐工业园区”、“四川省新型工业化示范基地”等称号。
35	成都智能文旅装备产业园区	S517044	四川省成都市蒲江县利民路	103.654601,30.278746	成都市	省级园区	经开区	新能源与智能汽车	文化旅游产品与装备产业	成都智能文旅装备产业园区成立于2003年5月28日，2013年6月获批为省级经济开发区，呈“一园两区”功能布局（成都智能文旅装备产业园西区、东区），园区规划面积26.7平方公里，入驻企业436家。其中，西区位于大邑县城东南，规划面积8.3平方公里，入驻企业224家，东区位于大邑东部新区（沙渠镇），规划面积18.4平方公里，入驻企业212家。园区学习新思想，践行新理念，落实新要求，抢抓功能区深化调整战略机遇，按照“两化一责任”要求，以招商引资、项目促建和产业转型升级为抓手，构建产业生态圈、创新生态链，优化营商环境，推进园区建设，提升经济发展能级和水平。2018年，园区完成全口径工业总产值350.2亿元，同比增长16.66%;完成入库税金12.05亿元，同比增长16.04%:规上工业增加值增幅17%,位列成都市产业功能区第二；新培育天邑股份（代码300504）、西菱动力（代码300733）2家上市企业；天邑股份（1.43亿元）、冶金实验厂（1.09亿元）年税收分别突破亿元。园区目前有世界500强企业1家、中国驰名商标企业9家、四川省著名商标企业31家、国家高新技术企业28家；建成国家级技术研发中心、工程中心2个'省级企业技术中心11个。成都智能文旅装备产业园区先后荣获“四川省现代制造业示范区”、“四川省循环经济示范园区”、“四川省和谐劳动关系示范园区”、“四川省知识产权示范园区”、“四川省通用机械知名品牌示范区”、“成都市模范劳动关系和谐园区”、“成都市模范和谐劳动关系先进集体”、“四川省知名品牌创建示范区”、全国石油机械配套产业知名品牌创建示范区”等称号。
36	现代都市工业功能区	---	四川省成都市金牛区金科南二路77号	104.00844,30.719518	成都市	省级园区	经开区	轨道交通,大数据,集成电路与新型显示	轨道交通勘察设计，技术研发，检验检测，系统集成,工程管理,运营服务等;基于卫星导航北斗+技术的军民融合产业大数据、云数据、遥感、测绘等地理信息服务;信息安全、物联网、软件服务等一代信息技术研发与高端制造、生物医药研制、干细胞再生、精准检测技术应用	现代都市工业功能区位于成都市金牛区，地处成德绵高新技术产业带的起始位置。成立于2000年6月，规划面积5.35平方公里分为一区三园。_区——金牛高新技术产业园区西区；三园——人工智能产业园、智慧交通产业园和北斗产业园。其中金牛高新技术产业园区成立于2000年6月，2006年被认定为省级高新技术产业园区，2002年2月被国家科学技术部火炬高技术产业开发中，通予为"国家火炬计划成都电子信息产业基地”称号，四至边界为：东至迎宾大道、兴盛东路、科兴南路、金牛三斗渠，南至蜀汉西路，西至金周路、金科西路、金科北路，北至金泉路；人工智能产业园四至边界为：东至川陕路，西至宝成铁路，北至天丰路，南至川天路；智慧交通产业园和北斗产业园四至边界为：东至金凤凰大道，南至天佑路、天歌路，西至天龙南三路、天龙北二路，北至天宝路。园区配套建设有110KV变电站1座、10KV开关站1座、幼儿园及小学各1所、农贸市场1个、社区综合体2个等基础设施。截止2018年底，园区入驻企业2800余家，其中规上企业134家，规上企业实现营业收入452亿元。规上企业中工业企业33家，实现营业收入71亿元，工业总产值70.9亿元。
37	青羊总部经济功能区	---	成都市青羊区成飞大道中信银行成都成飞大道支行东北侧约260米	103.96618,30.68219	成都市	省级园区	工业园区	航空与燃机,医药健康	航空科技、创意设计、生命健康	青羊总部经济功能区作为成都市66个产业功能区之一，位于青羊区实施“双擎驱动“战略的青羊新城核心区域，规划面积5.75平方公里，其中，东区东至货运大道、南至光华八线、西至环城生态区、成飞机场、北至文光路；西区东至光耀三路、南至福运路、西至温江区界、北至乐平一路。按照“一个产业园区就是一个城市新区”的发展理念，以构建产业生态圈、创新产业链为中心，着力打造现代化国际化的"总部经济髙地”“生态宜居新城”。功能区规划了三个产业社区，即青羊总部基地、创意设计产业园、生命健康产业园。2018年功能区已入驻总部型企业530家，其中获批成都市首批总部企业认定8家，全年实现主营业务收入427亿元,同比增长7.8%;实现全口径税收10.72亿元，同比增长13.8%。
38	欧洲产业城	---	成都市青白江区清泉大道二段	104.385906,30.785148	成都市	其他重点园区	经开区	---	临港智造、供应链管理服务产业	欧洲产业城位于成都市青白江区，成立于2017年9月，于2019年4月正式成为成都市66个产业功能区之一，规划面积38平方公里，起步区面积23.77平方公里。四至范围：东至金堂县云绣乡，西至新都区石板滩镇，南至毗河引水工程，北至成德南高速。2018年，欧洲产业城启动了“三横三纵”6条道路及“一厂一房一河二站”5大公建配套设施项目建设（其中，“五路一河”已纳入市级重点项目）。欧洲产业城自成立以来，以构建产业生态圈的思维方式组织招商引资工作，深研“两图一表”，突出适铁适欧属性，坚持招大引强，至今已集聚重大项目13个，计划总投资为292亿元。
39	简州新能源智能网联汽车产业功能区	---	四川省成都市简阳市银定街	104.426114,30.480326	成都市	其他重点园区	工业园区	智能装备,新能源与智能汽车,新一代网络技术	新能源汽车、智能网联汽车产业及5G+、汽车+等新型产业	简州新能源智能网联汽车产业功能区位于成都市简州新城，地处成渝经济圈，是成都市“东进”战略中心区域。成立于2018年1月，为市级产业园区，规划面积46平方公里，建成区面积8.9平方公里。四至范围：东至养马河公园东侧、西至环山路、南至成渝高速、北至蜀都大道东延线。按照“产城一体、生态低碳、高端集约”的思路，配套建设有220KV变电站、污水处理厂、垃圾转运站、人才公寓等基础设施。截止2018年底，园区聚集工业企业80余户，其中规上工业企业21户，2018年园区规上工业企业工业产值44.78亿元、同比增长9.97%,营业收入56.91亿元、同比增长4.17%,实现利润1.45亿元、同比增长18.44%。
40	成都空天产业功能区	---	四川省成都市简阳市简新大道南路166号	104.577982,30.35894	成都市	省级园区	经开区	航空与燃机,智能装备	航天装备、智能制造装备	成都空天产业功能区位于成都简阳市，是成都市重要经济增长极，地处成都“东进”战略主战场和天府国际机场经济带，是成渝相向发展廊道上的重要城市，成都东部产业走廊上的重要基地，天府文化传承轴上的重要节点，沱江流域经济走廊上的特色城市。四川简阳经济开发区成立于1993年3月，2006年5月复核为省级开发区。四川简阳经济开发区管理委员会与简阳工业集中发展区管理委员会合署办公，设立中共四川简阳经济开发区（简阳工业集中发展区）工作委员会，实行党工委领导下的管委会主任负责制和“两块牌子、一套班子”的管理体制，管理成都空天产业功能区。成都空天产业功能区规划面积51平方公里。由东部片区规划面积29.8平方公里（其中核心区面积13.7平方公里）、城南片区规划面积12.4平方公里、贾家工业点（贾家中小企业园）规划面积6.8平方公里和平泉工业点（平泉精细化工产业园）规划面积2平方公里组成。四至范围：东部片区东至金简黄快速路，西面和南面至成都东西发展轴线，北至规划道路边界；城南片区东至沱江河，西至成渝高速，南至十里坝街办，北至南环线；贾家工业点东至民房村、劳动村、协和村，西至洗银村、壕水村、天宫山村，南至洗银村、兴隆寺村、协和村，北至天宫山村；平泉工业点西依空天产业功能区，北至铁佛村三、六、七社，东邻百合村，南距318国道约1公里。功能区按照“功能复合、职住平衡、服务完善、生态宜居”的规划理念和"主题鲜明、产业高端、错位协同、以产促城”的发展思路，道从“人城产”逻辑，配套建设有110KV变电站、污水处理厂、专业楼宇、人才公寓等基础设施。截止2018年底，园区聚集工业企业303户，其中规上工业企业107户，2018年园区规上工业企业工业产值308.9亿元，同比增长13.48%,主营业务收入315.6亿元，同比增长12.03%,实现利润20亿元，同比增长15.61%。功能区获得“四川省小微企业创业基地”、“四川省新型工业化（机电产业）示范基地”、“四川省高新技术产业化基地”、“四川省生产性服务业（机电加工）功能示范区”、“四川省51025重点发展园区”等称号。
41	成都高新综合保税区及双流园区	G513119	成都市双流区货运大道888号	103.985035,30.47133	成都市	国家级园区	海关特殊监管区	智能装备,集成电路与新型显示,医药健康	笔记本电脑、平板电脑制造，晶圆制造及芯片封装测试，电子元器件、精密机械加工以及生物制药产业	成都高新综合保税区于2010年10月18日经国务院批准设立，2011年2月25日通过国家验收。成都高新综合保税区由原成都出口加工区、成都保税物流中心整合扩展而成，位于四川省成都高新技术产业开发区西部园区，规划面积4.68平方公里，分为A、B、C三个区域。2012年1月4日，国务院办公厅批复同意成都高新综合保税区扩区设立双流园区。2012年7月3日，成都高新综合保税区双流园区通过国务院联合验收组验收。2012年，成都高新综合保税区累计实现进出口总额262.23亿美元，名列全国综合保税区第5位、中西部综合保税区第2位，其中出口总额155.71亿美元，进口总额106.52亿美元。2018年，成都高新综合保税区实现进出口总额3115亿元（不含双流园区），同比增长31%，进出口总额首次跃居全国综保区第一。
42	四川大竹经济开发区	S517114	达州市大竹县腾飞大道二段与永安路一段交叉路口往西南约210米	107.242659,30.74218	达州市	省级园区	经开区	清洁能源,新材料,集成电路与新型显示	建材、能源、电子产业	四川大竹经济开发区位于四川省达州市大竹县，是达州市重要经济增长极，地处成渝经济圈和川东北次级区域产业园区渝广达发展带。成立于2006年12月，其前身是大竹县苎麻工业园区；2011年2月经大竹县人民政府正式批复设立；2012年大竹县委、县政府研究决定，将大竹县工业园区按照省级经济开发区组织架构设立,批准成立了四川大竹经济开发区；2018年2月被纳入中国开发区审核公告目录，2019年1月成功创建省级经济开发区。四川大竹经济开发区近期总体规划面积16.92平方公里，核准开发建设面积4.62平方公里。四至范围为：东至环城东路，西至竹凤大道，北至北城大道，南至东湖大道。该范围与大竹县土地利用总体规划、城镇体系规划、县域村镇规划、城市总体规划所界定的城镇建设用地吻合。经开区基本形成经开区中部西区“三横三纵”和经开区中部东区“六横三纵”骨干路网，有国家电网的110KV的变电站一座，拥有年输转能力27亿立方米的天然气集输站一座，建有年供气能力1.3亿方（日供气35万方）天然气供气站，区内交通设施、水、电、气、给排水、环保、消防以及网络通讯等要素保障齐全。截止2018年底,园区聚集工业企业162户，其中规上工业企业63户，2018年园区规上工业企业工业产值134.16亿元，同比增长18.81%，营业收入130.17亿元，同比增长19.48%，实现利润13.82亿元，同比增长72.39%。园区先后被授予“1525”工程培育园区、“51025”重点产业园区、四川省特色产业园区、四川省中小企业创业基地、四川省知名品牌创建示范园区、省级优先开发区、省级开发区培育发展园区。
43	四川渠县经济开发区	S517115	达州市渠县沪聂线与和顺街交叉路口西南侧	107.000951,30.817673	达州市	省级园区	经开区	新能源与智能汽车,软件与信息服务,农产品精深加工	农产品加工、电子、汽摩配件产业	四川渠县经济开发区的前身是渠县工业园区，渠县工业园区于2007年6月经渠县人民政府正式批复设立，同时取得《渠县机构编制委员会关于建立渠县创业园管理委员会的批复》（渠编发[2007]27号）,2008年4月7日经县委、县政府同意更名为渠县工业园管理委员会（渠编发〔2008]06号）。2018年2月26日,《国家发展和改革委员会、科学技术部、国土资源部、住房城乡建设部、商务部、海关总署公告》（2018年第4号）将渠县经济开发区纳入《中国开发区审核公告目录（2018年版）》。渠县经济开发区位于渠县天星镇、李渡镇，规划面积1000公顷,分两期建设。其中一期位于渠县天星镇文昌村、中心村，与老城区隔渠江相望，核准面积241.22公顷，符合土地利用规划面积235.49公顷。四至范围为：东抵318国道，南至李渡镇新渡村，西至望石路，北起川东农药化工有限公司。该范围与渠县土地利用总体规划、城镇体系规划、县域村镇规划、城市总体规划所界定的城镇建设用地吻合。累计投入资金23亿元，建成主干道路12公里，区内路、水、电、气、排水、排污、环保、消防、网络通讯和有线电视等配套设施基本健全。配套建成110KV变电站1座、自来水厂2座、污水处理厂1座，中国农业银行、渠县农商银行等金融机构已入驻园区，配套服务健全，综合承载能力强。截止2018年底,园区聚集工业企业125户，其中规上工业企业101户，2018年园区规上工业企业工业产值213.4588亿元，同比增长14%，营业务收入212.4393亿元，同比增长14%，实现利润12.136亿元，同比增长128%。园区先后被授予“1525工程”培育园区，四川省小企业创业示范基地。
44	万源市工业园区	---	四川省达州市万源市包茂高速公路茶垭中心校北450米	108.072623,32.059757	达州市	其他重点园区	工业园区	绿色化工,精制川茶,医药健康	富硒农副产品加工（茶叶）、中药材产业、绿色建材产业	万源市工业园区于2013年完成规划编制，2016年由万源市人民政府批准成立，位于万源市境内，是万源市生态工业突破性发展的重要承载平台。依托包茂高速、210国道、万巴高速和襄渝铁路等交通梳理，主要分布在茶垭乡、官渡镇、白沙镇、青花镇和黄钟镇等乡镇，以富硒产品、道地中药材加工、石材生产加工、绿色建材、制造业为主的综合类工业园。2018年对工业园区进一步优化了规划布局和产业定位，现规划面积8.01平方公里，呈“一区四园”总体布局，“一区”即万源市工业园区，“四园”即茶垭工业园、官渡工业园、青花工业园和黄钟石材产业园。目前，已完成工业园区生产用水用电、通讯、污水处理厂、保障性住房、园区公交、金融服务网点等基础配套设施，正逐步优化入园道路、综合服务中心等配套设施，制定方案降低园区内工业企业水、电等基本要素保障生产成本。截止2018年底，园区聚集工业企业64户，其中规上工业企业23户，2018年园区全部企业总产值36亿元，其中规上工业企业产值31亿，规上工业企业营业收入26亿。万源市工业园区内万源市大面山酒业有限公司被授予“中国拐枣酒研发生产基地”、“产业精准扶贫示范点”；万源市太一蜂业有限公司被授予“百强科普教育示范基地”，“部级中蜂标准化示范场”；万源市源丰林业有限责任公司被授予“四川省林业产业联合会核桃产业创新联盟副主席单位”。
45	四川达州通川经济开发区	S517111	达州市通川区来凤路城市中心广场西侧约30米	107.507407,31.220957	达州市	省级园区	经开区	医药健康	金属冶炼加工、食品、建材产业	四川达州通川经济开发区位于四川省达州市通川区，是达州市、通川区“市区共建、以区为主”的园区、统筹城乡发展示范区、通川区经济发展第一增长极。其前身是达州市通川区工业集中区。2008年4月，经通川区人民政府批准成立；2015年10月，区政府批准将东岳、复兴片区一并纳入达州市通川区工业集中区建设管理。2018年2月被纳入中国开发区审核公告目录，2019年1月，四川省人民政府批准设立为省级经济开发区。四川达州通川经济开发区规划面积46.07平方公里，核准开发建设面积3.52平方公里。综合功能型开发区-复兴现代商贸物流区，规划用地范围为东至凤舞社区，西至两路口村，南至孙家坪社区，北至板桥村，用地面积194公顷；产业主导型开发区-东岳新型工业集聚区，规划用地范围为东至有力村，西至山桥村，南至兴盛社区，北至丘林村，用地面积42公顷；独立新区型开发区-魏兴产业新城核心区，规划用地范围为东至石庙村、西至友谊村、南至厂坝村、北至蒲家镇朱仙社区，用地面积116公顷。区内交通设施、水、电、气、给排水、环保、消防以及网络通讯等要素保障截止2018年底，园区聚集工业企业234户，其中规上工业企业29户，2018年园区规上工业企业工业产值229.5273亿元，同比增长5.63%，营业收入232.2146亿元，同比增长2.76%，实现利润9.6378亿元，同比增长4.87%。园区先后被授予“全国农产品加工业示范基地”、“四川省小企业创业示范基地”、“省级大学生创新创业园区（孵化基地）”“全省农产品加工业知名品牌创建示范园区”。
46	四川开江经济开发区	S517113	达州市开江县迎宾大道	107.836163,31.111406	达州市	省级园区	经开区	集成电路与新型显示,农产品精深加工	五金、农副产品加工、电子产业	开江县位于四川省东部，隶属于达州市，大巴山南麓，西接达川区，北依宣汉县，东、南与重庆市开州区、梁平区相连，地处川渝陕结合部，位于长江上游成渝经济圈，是川渝陕经济走廊“黄金分割点”和区域合作连接点，已列入国务院批准的成渝经济“一极一轴一区块”发展规划。开江交通便利，距成都500公里、重庆280公里、万州港口100公里、达州机场70公里，是西部四大名城——成都、重庆、西安、武汉交汇辐射地带和川东通江达海大通道上的桥头堡。达万铁路、达万高速、省道202线横贯开江县全境，已形成“1小时万州港、1小时达州机场、3小时重庆、4小时西安、3小时成都”对外交通网络。开江县普安工业集中发展区位于重庆、成都、西安、达州、万州等城市交汇地带，紧邻达万铁路、达万高速公路、省道S202线，交通区位优势明显，成立于2008年，规划面积4.48平方公里，截止2017年底，建成2.8平方公里。集中发展区四至范围为：北至总规中的娱乐康体用地分界24米城市次干道，南至达万高速公路以南，西至玉皇观郊野公园，东至普安中学、普灵路。园区生产要素齐备、配套设施完善，服务体系高效，是投资兴业的福地，创新创业的热土。配套建设有35KV园区变电站、创新创业基地、人才公寓等，正加快推进园区污水处理厂建设。截止2018年底，园区聚集工业企业40户，其中规上工业企业38户，2018年园区规上工业企业工业产值56.89亿元，同比增长3.39%，营业收入53.8亿元，同比增长12.6%，实现利润2.43亿元，同比增长232.87%。园区先后被授予“四川省五金工模具特色产业基地”、“四川省小微企业创业基地”“四川省健康家电特色产业基地”，同时被省经信委确定为“园保贷”试点园区。
47	达川工业园区	---	达州市达川区S218与汇通大道东段交叉路口往西南约140米	107.501123,31.14229	达州市	其他重点园区	工业园区	新材料,新一代网络技术,软件与信息服务,集成电路与新型显示	电子信息、现代机电、新材料产业	达川工业园区位于渝广达经济发展带核心区的达川区南部，覆盖马家镇、百节镇、赵家镇的21个村,5个社区。成立于2013年12月，总规划面积36.14平方公里，建成区面积0.85平方公里。四至范围（具体以界址点坐标控制）：东至铜钵河百节镇玉龙村，南至赵家镇字库村，西至马家镇川主村、赵家镇朝阳村，北至百节镇魁子岩、宝林村。园区发展理念：配套重庆、空港引领、三规合一、产城一体、三化互动、绿色发展。园区发展定位生态产业城、活力空港湾。建成一基地（秦巴地区生产性服务基地）、两区（四川省“三化”互动建设示范区，川东北旅游、养生度假区）,一门户（达州城市南部门户）；园区产业定位现代机电、绿色包装、现代（空港）物流及农产品物流、养生旅游；园区功能分区充分利用达渝高速百节出口的交通优势，把百节镇建成城市功能较为完善、生活配套服务的温泉度假风情小镇；充分利用工业园区中心区位，把马家镇建成未来园区CBD,即工业园区展示中心；充分利用赵家镇良好的地型和广阔的腹地，把赵家镇建成现代机电，绿色包装制造产业基地及现代物流中心；充分利用铜钵河及两岸山水资源优势，把铜钵河及两岸片区建成川东北养身、休闲基地。园区建设模式“两化”互动、产城一体、政府主导、企业主体、市场运作。截止2018年底，园区聚集工业企业12户，其中规上工业企业4户，2018年园区规上工业企业工业产值3.96亿元，同比增长13.5%，营业收入3.11亿元，同比增长15.8%，实现利润0.13亿元，同比增长12.9%。
48	四川达州普光经济开发区	S517112	四川省达州市宣汉县开平路四川达州普光开发区柳池工业园	107.694091,31.434736	达州市	省级园区	经开区	智能装备,绿色化工,新材料	天然气化工、建材、新材料产业	四川达州普光经济开发区位于达州市宣汉县，是达州市重要经济增长极，地处成都、重庆、西安、万州、达州等大中城市腹心地带。成立于2008年8月，于2018年2月审核通过“省级经济技术开发区公告目录”，8月获省级开发区公示；管辖面积29.34平方公里，规划面积18.01平方公里，四至范围：区块一东至张家河,南至高速路，西至园坦子，北至黄家湾、邱家湾；区块二东至新马一库，南至曾家山，西至宣双路西山，北至宣柳路南侧；区块三东至凉水井水库，南至范家山，西至柳池敬老院，北至新马二库。经开区按产城一体与城市规划建设，配套建设有110KV变电站、污水处理厂、科技孵化器、人才公寓等基础设施。截止2018年底,园区聚集工业企业69户，其中规上工业企业23户，2018年园区规上工业企业工业产值126.42亿元，同比增长16.87%，营业收入108.85亿元，同比增长16.24%，实现利润29.33亿元，同比增长44.66%。园区先后被授予全省“51025”重点产业园区500亿元量级培育园区，四川省生产性服务业功能示范园区和“园保贷”项目试点园区。
49	四川达州经济开发区	S517031	达州市达川区S218与汇通大道东段交叉路口往西南约140米	107.501123,31.14229	达州市	省级园区	经开区	智能装备,新能源与智能汽车,新材料,集成电路与新型显示	能源、化工、机械产业	达州经开区于2001年2月成立，2003年3月省计委确认为省级经济技术开发区。2013年，经四川省人民政府批复（批复文号：川府函[2013]114号）扩区调位，扩区调位后，核准四至范围为东至达渝高速，南至铜钵河，西至州河，北至火烽山、大尖子山，面积为30平方公里o管理面积143平方公里,辖2个乡，人口10万人，首期开发面积55平方公里，建成区面积20平方公里。达州经开区按照产城融合发展的规划，目前，已建成60公里园区道路；年吞吐量700万吨及5000个集装箱标箱的公路物流港、年运输能力1200万吨的铁路专用线；建成年输气能力30亿方的中石化达化专线、年输气能力5亿方的中石油清达线；建成10万吨工业供水厂、2万吨工业废水处理厂；2座220kV变电站、3座110kV变电站；建成特勤消防站和矿山（危化）救援大队；正在建设达州市第二生活污水处理厂、300MV集中供电供冷供热分布式能源系统和年输气能力30亿方的中石油北外环线；建成安置房（棚改）约25万平方米、标准厂房20万平方米，完成“三通一平”场平约10000亩；长田新区开发建设取得实质突破，堰坝新区建设已全面启动。已实现了水、电、气、路、通讯、网络、有线电视和场地平整等“八通一平”。截止2018年底，园区集聚工业企业310户，其中规上工业企业57户，2018年园区实现地区生产总值125亿元，规上工业总产值401亿元，税收32亿元。园区先后被授予国家新型工业化产业示范基地、国家低碳工业试点园区、国家循环化改造示范试点园区、国家节能标准化示范区、四川省“51025”园区发展计划干亿培育园区，且经开区已纳入国开区培育名录名单。
50	德阳高新技术产业开发区	G512142	德阳市广汉市长白山路1号	104.361661,31.133817	德阳市	国家级园区	高新区	智能装备,新一代网络技术	通用航空、医药、食品产业	德阳高新技术产业开发区（以下简称“德阳高新区”）位于德阳市广汉市，位于广汉南部，属“成渝经济圈”和“成绵德高新技术产业带”中心地段，成立于2015年9月，其前身是1991年成立的四川广汉经济开发区，2015年经国务院批复升级为国家高新技术产业开发区。距双流国际机场50公里、青白江国际物流7公里、成都主城区24公里、德阳市区19公里，拥有“南融成都、北接德阳”的得天独厚区位优势。德阳高新区规划面积68平方公里，其中建成区28平方公里，扩展区规划面积40平方公里。扩展区四至边界为东至旌江干线、南至德阳市界、西至成绵高速公路、北至鸭子河南岸；建成区四至范围为东至成绵高速，西至大件路，北至南昌路，南到青白江界。园区已建成道路总长66.7公里，形成“两环五横六纵”路网系统。拥有日处理污水能力5万吨的污水处理厂两座；建成日供水能力6万立方米的主管网；220kv变电站1座、110kv变电站4座；天然气配气站4座，日供气能力达25万立方米。园区致力于打造“产城一体”发展示范区，以现代物流及现代商贸为主的服务业聚集区。区内规划建设有1个综合管理服务中心、4个居住商务服务片区，商贸中心、物流中心、科研中心、酒店、学校、医院等配套设施齐全。截止2018年底，园区聚集工业企业412户，其中规上工业企业155户，2018年园区规上工业企业工业产值699.1亿元，同比增长11.33%,实现利润41.5亿元，同比增长49%。园区先后被授予“国家新型工业化产业示范基地”、“全国首批产业集群区域品牌试点地区”、“中国•广汉石油装备制造基地”、“四川省首批特色高新技术产业化基地”、“四川中药现代化科技产业示范基地”、“通用航空创新型产业集群”试点，是四川省“51025重点产业园区”，被确定为“海峡两岸产业合作区”德阳产业园承接主体，四川省科技成果转移转化示范园区。
51	德阳-阿坝生态经济产业园区	S519063	四川省德阳市绵竹市汉霞路5号	104.192775,31.437614	德阳市	省级园区	经开区	新能源与智能汽车,新材料	新材料、能源、磷化工产业	德阳阿坝生态经济产业园区位于德阳市绵竹市汉旺镇，是阿坝州重要经济增长极，也是绵竹市经济转型和高质量发展的主要支撑，地处成渝经济圈和成德绵同城化的重要节点，也是进入川藏高原的桥头堡。德阳阿坝生态经济产业园区成立于2015年5月，规划面积20平方公里，建成区面积3.92平方公里。四至范围：区块一东至官堰，南至绵远路，西起迎宾大道，北起兴邦路；区块二东至汉兴路，南至绵远路，西起汉凌路，北起兴邦路；区块三东至汉兴路，南至公园路，西起迎宾大道，北起绵远路；区块四东至绵拱路，南至绵远河，西起祥柳村、北起一支渠。园区有110千伏变电站2座、35千伏变电站1座，日供气3万方的供气站、日供水1万方的自来水厂、日处理2000吨的污水处理厂和日处理200吨的垃圾处理厂，天然气管线、道路管网等基础设施基本完备。园区连接国省干线、高速公路的货运通道已基本完成。截止2018年底，园区聚集工业企业38户，其中规上工业企业9户，2018年园区规上工业企业工业产值30.6亿元，实现利润0.1亿元。
52	成德工业园区（凯州新城）	---	德阳市中江县金汇路二段兴隆中学东南侧约200米	104.607548,30.87789	德阳市	其他重点园区	工业园区	新一代网络技术,软件与信息服务,医药健康	电子信息、生物医药、家居轻纺产业	成德工业园区（凯州新城）位于中江县兴隆镇、辑庆镇区域，与淮洲新城相邻，距离成都市区48公里、中江城区15公里，属于成德绵经济圈重要节点城市。成立于2013年9月，由成都市、德阳市合作共建。远期规划面积不低于85平方公里，中长期规划面积33平方公里，起步区10平方公里，建成区面积7平方公里。四至界限为：以成德南高速为轴线，北至辑庆镇永远村、中兴社区、响井社区；南至中江县与金堂县交界处；西至辑庆镇引泉社区、联丰社区，兴隆镇兴隆村、新湾村；东至兴隆镇磨子桥村、柑园村、辑庆镇飞龙社区、祝家庙社区。截至2018年底，园区累计投入基础设施建设资金12亿元，基本建成了"四纵四横”的园区骨干路网，以及水、电、气、排污管网，形成了“北上、南下、东进、西拓”的物流通道和园区要素保障体系。园区建成道路26公里、安置房24.5万平方米、雨污管网70余公里、容量为100MW的110KV变电站1座、容量为20MW的35KV变电站1座、供电线路33公里、给水管网22公里、供气管网20公里'日处理污水3000吨的污水处理厂1座、日处理污水4000吨的污水处理厂1座。截止2018年底，园区聚集工业企业91户，其中规上工业企业41户，2018年园区规上工业企业工业产值111.9亿元，同比增长50.2%，营业收入105.6亿元，同比46.3%,实现利润8.5亿元，同比增长80.9%。
53	四川绵竹高新技术产业园区	S517062	德阳市绵竹市常顺路1号	104.232652,31.306083	德阳市	省级园区	高新区	绿色化工,新材料,农产品精深加工,医药健康	新材料、建材、医药、装备制造产业	四川绵竹高新技术产业园区位于德阳市绵竹市，是绵竹市重要经济增长极，地处成渝经济圈和成德绵高新技术产业带。于2009年年初开始规划，2010年5月经省政府批准成立省级经济开发区，2018年［月3日由四川省人民政府批准转型的省级高新区。规划控制面积22平方公里，建成区面积约14平方公里。规划控制区四至范围：北毗邻绵竹市主城区，西临成青公路，南至成什绵高速公路和成兰铁路，东靠德天铁路为界。高新区按城市规划建设，配套建设有日处理2万吨工业污水处理厂1座；日处理5万吨城市污水处理厂1座；超磁应急污水处理站1处；日供生活用水6万立方米自来水厂1座；110KV变电站3座；10万立方米/天和20万立方米/天的燃气配气站各1座。截止2018年底，园区聚集工业企业165户，其中规上工业企业62户,2018年园区规上工业企业工业产值384.1亿元，同比增长10%,营业收入321.3亿元，同比增长9.7%,实现利润66.6亿元，同比增长57.9%。园区先后被授予“1525工程”成长型特色产业园区、“51025”工程培育园区、“工业强县示范（市）”、“四川扩权强县的试点县（市）”、“全国科技进步先进市”、“全国城乡一体化示范县（市）”。
54	四川德阳旌阳高新技术产业园区	---	德阳市旌阳区长白山路1号	104.362556,31.134607	德阳市	省级园区	高新区	新能源与智能汽车,新材料,新一代网络技术,软件与信息服务	新材料、新能源汽车、电子信息产业	四川德阳旌阳高新技术产业园区位于德阳市旌阳区，是德阳市重要经济增长极，地处成渝经济圈和成德绵高新技术产业带。旌阳高新区前身为德阳市中区经济开发区，1993年3月经四川省计委正式批准为省级经济开发区，2013年4月经四川省人民政府批准成立省级高新区。近期控规面积为24.3平方公里，远期规划面积37.1平方公里，建成区面积18.5平方公里。四至范围：（东至宝成铁路，西至成德大道（天星干道），南至石亭江，北至德天线（德阳市至绵竹天池铁路专线）。旌阳高新区已建成市政道路110公里，“四纵四横”的交通网络已形成；建有日供水能力3万吨的自来水厂1座，日处理2.5万吨污水处理厂1座，220KV变电站1座，110KV变电站2座，天然气配气站3座（日供气能力150万立方米），建成污水管网128公里，自来水管网71公里，燃气管道58公里，水、电、气等市政配套管线覆盖面积24.3平方公里。建成安置房79万平方米，生活市场2个，专业市场4个，中小学校4所，医院2所；建成电信分局1个，开通16000门程控电话，移动电话发射塔、宽带信息网络覆盖园区全部区域。截止2018年底，园区聚集工业企业517户，其中规上工业企业155户，2018年园区规上工业企业工业产值370.3亿元，同比增长16%,营业收入365.3亿元，同比增长17%,实现利润23.9亿元，同比增长20.2%。旌阳高新区先后被列为全国西部电线电缆生产基地、全国装备电缆及电气配套产业知名品牌创建示范区、省级“1525”工程百亿园区和“51025”工程五百亿重点产业园区、中小企业创业基地、知识产权试点园区、人才优先发展试验区产业示范点和外贸发展示范基地。
55	广汉工业集中发展区	---	四川省德阳市广汉市小汉镇G108	104.349857,31.066176	德阳市	其他重点园区	工业园区	新材料,新一代网络技术,软件与信息服务,医药健康	数字经济、新材料、医药食品产业	广汉工业集中发展区地处广汉市小汉镇，前身为小汉工业园区。2017年3月经德阳市编委、广汉市委编办批复正式成立。园区规划建设13平方公里，已建成6.2平方公里，下一步将扩区至26.7平方公里，分为配套区、工业发展区和物流仓储区的三大功能区。四至范围：北起柳林村，南至团结村，西起小南村，东至石亭江。区内配套有一级消防站1座、110kv变电站2座、天然气配气站2座、污水处理厂2座，日供水5万吨的自来水管网及配套设施。2018年工业集中区实施基建项目24个，总投资3.28亿元，其中14条道路将在2019年春节前全面竣工，届时园区内骨架路网将基本成形。截止2018年底，园区聚集工业企业268户，其中规上工业企业83户，2018年园区规上工业企业工业产值162.88亿元，同比增长10.26%,实现利润8.65亿元，同比增长25.19%。园区于2018年10月，在省级职业健康示范园区验收评审中以91.18的高分成为全省唯一个一次性通过的工业园区。
56	四川中江高新技术产业园区	S518059	四川省德阳市中江县经开区东西干道	104.661416,31.065228	德阳市	省级园区	高新区	医药健康	新材料、电子信息、医药产业	四川中江高新技术产业园区成立于2005年3月，位于德阳市中江县南华镇。2012年6月5B,省人民政府批准设立四川中江经济开发区；2015年7月7B,省人民政府将四川中江经济开发区认定为省级高新技术产业园区，定名为四川中江高新技术产业园区。园区规划面积14.3平方公里，建成区面积11平方公里。规划控制区四至范围是：东临凯江河，西临城市外环路，南接南渡村猫儿嘴，北部与杰兴大桥相接。园区累计完成基础设施投资18.9亿元，建成骨干路网47公里，供水管网31公里，雨污管网94.3公里、10KV供电线路54公里、供气管网39.4公里、日处理污水能力为10000吨污水处理厂一座。截止2018年底，园区聚集工业企业273户，其中规上工业企业126户，2018年园区规上工业企业工业产值347.7亿元，同比增长15%,营业收入329.3亿元，同比增长12.5%,实现利润25.2亿元，同比增长32.8%。2011年7月，被列入全省成长型特色产业园区（“1525工程“）；2013年通过了IS09000质量体系和ISO14000环境体系认证；2014年被列入“省级知识产权试点园区”；2017年被国家六部委列入电子信息产业集群发展“国家计划”，是“长江经济带电子信息产业集聚发展区”、“全国农产品加工业示范基地”、“省级知识产权试点园区”、“四川省招商引资承接产业转移的优秀园区”。
57	四川罗江经济开发区	S517060	德阳市罗江区红玉路与108国道交叉口东北150米	104.54192,31.380152	德阳市	省级园区	经开区	新材料	新材料、电子信息、机械产业	四川罗江经济开发区位于德阳市罗江区，是德阳市重要经济增长极，地处成渝经济圈和成德绵高新技术产业带。成立于2011年3月，于2012年12月获批省级开发区，规划面积30平方公里,建成区面积10平方公里。四至范围：东至成绵高速路，南至青红路，西至创新路，北至福山路北段。经开区按产城一体与城市规划建设，配套建设有110KV变电站、污水处理厂、科技孵化器、人才公寓等基础设施。截止2018年底，园区聚集工业企业243户，其中规上工业企业128户，2018年园区规上工业企业工业产值380.5亿元，同比增长20%,营业收入356.67亿元，同比增长21.46%，实现利润6.23亿元，同比增长27.4%。园区先后被授予“省级经济开发区”、“德阳金山军民融合产业园”、“德阳国家高新技术开发区北区”。
58	德阳经济技术开发区	G511191	德阳市旌阳区松花江北路银鑫·五洲广场	104.396688,31.108725	德阳市	国家级园区	经开区	智能装备	装备制造、新能源、新材料产业	德阳经济技术开发区（以下简称“德阳经开区”）成立于1992年8月，2010年6月升级为国家级经济技术开发区，幅员面积79.2平方公里，建成区面积42平方公里，常住人口35.5万人，位于成渝经济区核心和四丿11省成德绵阳经济带中部,距省会成都42公里,是德阳市重要的经济增长极。园区四至范围为：“河东片区”东至新沟村，南至乐安村、隆圣村，西至绵远河，北至岷江东路；“八角片区”东至柳沙村，南至梨园村、柳凤村，西至双榕村，北至双榕村、柳沙村、成绵高速路。德阳经开区按照产城一体与城市规划建设，配套建设有110kv变电站、污水处理厂、科技孵化器等基础设施，园区内“八横八纵”路网交织，通讯、光缆、供水、供电、供气、雨污管线等统筹规划、科学布置，当前正以“创新、协调、绿色、开放、共享”为发展理念，以打造德阳市全面创新改革的示范区、开放合作的先行区、高端产业集聚发展的引领区、宜业宜商宜居的现代化产业新城为目标，全力建设德阳经济发展的新高地和城市建设的未来版，到2020年建设成为引领创新发展干亿产业新城。截止2018年底，园区聚集工业企业493户，其中规上工业企业127户，2018年园区规上工业企业工业产值609.8亿元，同比增长15%,实现利润20.3亿元，同比增长37.6%。德阳经开区是联合国“清洁技术与新能源装备制造业国际示范城市”挂牌园区、全国首批“国家新型工业化产业示范基地”、全国首个“重大技术装备制造业基地”、“国家应急装备产业示范基地”、国家循环化改造示范试点园区、国家高端装备制造业标准化试点园区、四川省生态工业园区。
59	四川什邡经济开发区	S517061	德阳市什邡市蓝天大道附近	104.116748,31.195589	德阳市	省级园区	经开区	新材料	食品、化工、金属制品产业	四川什邡经济开发区位于四川省德阳市什邡市，是2010年5月18日经省人民政府批准设立的省级经济开发区，其规划控制区四至范围：东临石亭江、南至人民渠、西与北京大道交界、北至洛水镇南元村。目前建成了“九纵七横”道路共38.5公里，园区交通主干道基本形成；日供水量8万方的三水厂、110变电A站、日供气能力为30万立方米的天然气配气站一期工程以及日污水处理能力1万立方米的灵江污水处理厂，可为企业提供道路、给水、排水、供电、供气、通邮、通信、宽带、有线电视和土地平整等“九通一平”的配套服务。截至2018年底，经开区聚集工业企业181家，其中规上工业企业107家。2018年实现工业总产值268.91亿元（不含烟厂），同比增长13.87%,实现利润16.46亿元，同比增长18.16%。2012年12月，经开区被省科技厅确定为“四川省首批特色高新技术产业化基地”；2013年3月，被中关村授牌为“中关村科技产业基地”；2013年7月，被省人民政府列为“51025重点发展产业园区”，2016年8月被省经信委确定为“四川省第一批特色产业基地”。
60	康藏现代农牧产业加工贸易园区	---	四川省甘孜藏族自治州理塘县康藏现代农牧业加工贸易园区规划二路20号	100.261507,29.983886	甘孜州	其他重点园区	工业园区	农产品精深加工	农产品加工产业	康藏现代农牧产业加工贸易园区位于理塘县高城镇，总体概念规划9.03平方公里（13545亩），分三期建设：第一期康藏现代农牧产业加工贸易园区，规划面积为3.22平方公里；第二期商贸物流中心，为承接川藏铁路、川藏高速的建设，使理塘成为“一带一路”面向南亚开放合作的桥头堡，规划面积为2.9平方公里；第三期通航产业基地，规划面积为2.91平方公里。目前，建设重点为康藏现代农牧产业加工贸易园区起步区，面积为1083亩。建设内容包括：现代农牧产品加工区；中藏医药制造加工区；民族手工艺品制造加工区；大型汽修汽配中心；园区科研中心；康南地区面向南亚地区的物流集散中心。
61	康南乡城县特色农产品加工集中发展园区	---	巴姆南路2号	99.80475,28.936987	甘孜州	其他重点园区	工业园区	农产品精深加工,医药健康	农畜产品加工、医药产业	康南乡城县特色农产品加工集中发展园区位于甘孜州乡城县，2011年经甘孜州人民政府批准成立，以农产品精深加工为主的园区，分A、B两区。A区紧邻青德镇政府驻地，位于豆改村和仲德村村域范围内，规划面积约110亩。B区紧邻尼斯镇，与乡城县城隔河相望，规划面积约626.4亩。园区核心区完成供排水、电、道路建设，累计完成投资3600万元，园区共有正式入驻企业9户(A区核心区3家、B区6家)，其中规上企业1户。企业产品涵盖松茸野生食用菌系列、苹果醋、松茸虫草保健酒、蓝莓系列、葡萄酒、青裸茶、果茶、中藏药饮片等，2018年园区实现产值1.87亿元，同比增长37%。
62	成甘工业园区	---	成都市邛崃市泉水东街中国石油邛崃泉水加油站东侧约40米	103.686902,30.405221	甘孜州	省级园区	工业园区	智能装备,新能源与智能汽车,新材料	新能源、新材料、智能制造产业	2015年12月18日,成都市和甘孜州签署《共建成甘工业园区合作协议》，园区选址位于邛峡市羊安镇。规划面积10平方公里，重点发展新能源、新材料和智能制造产业，并积极承接广东省对口帮扶甘孜州的产业转移。目前，园区规划环评已通过审查，园区总体规划、控制性详细规划、产业发展规划、竖向及排水规划编制已完成。先后引进国民天成、云南城投、天津爱敏特、融捷锂盐等重大项目14个，总投资达425.1亿元，并投入20.36亿元实施14个关键基础设施项目,羊纵七线道路已全线竣工通车，正开展园区承载能力建设相关工作，2018年11月26日爱敏特项目投入生产。
63	邻水县高滩川渝合作示范园	---	广安市邻水县G210与平安路交叉路口往西北约240米	106.745345,30.04295	广安市	其他重点园区	高新区	新能源与智能汽车	新能源汽车产业	邻水县高滩川渝合作示范园位于广安市邻水县高滩镇，是广安市重要经济增长极，地处成渝经济圈产业带。成立于2012年12月，规划面积19.05平方公里，建成区面积5平方公里。四至范围：东至高滩镇宝竹寺村,西至高滩镇倒碑村，南临重庆渝北，北至高滩镇棉花村。园区按产城一体与城市规划建设，配套建设有污水处理厂、供水厂、廉租房等基础设施。截至2018年底，园区聚集工业企业63户，其中规上工业企业15户，2018年园区工业产值30.23亿元、同比增长45.6%，营业收入28.6亿元、同比增长39%，实现利润1.14亿元、同比增长23%。园区被授予重庆空港工业园区配套产业园。
64	四川岳池经济开发区	S517107	广安市岳池县银城大道广安益民职业技术学校北侧约120米	106.461559,30.525319	广安市	省级园区	经开区	农产品精深加工,医药健康	农副食品、医药、机械产业	四川岳池经济开发区位于广安市岳池县城南侧，是广安市重要经济增长极，地处成都两小时、重庆一小时经济圈。四川岳池经济开发区成立于2003年11月，规划建成面积30.2平方公里,建成拓展面积约15平方公里。2018年2月作为省级开发区纳入《中国开发区审核公告目录》（2018年版）；目前省政府已批复四川岳池经济开发区为省级开发区。四至范围为：区块一东至麻柳河，南至白塔村，西至白鹤桥村，北至银城大街；区块二东至火盆山村，南至白塔村，西至麻柳河，北至银城大街；区块三东至火盆山村、狮子坡村，南至长滩寺河，西至白塔村，北至白塔村。经开区按产城一体与城市规划建设，除“七通一平”硬件基础设施配套外，园区已完成规划环评、专业污水处理系统、天然气分布式能源、多电源双回路电网、生物医药孵化器、药物临床试验机构等专业配套建设，正在推进固危废处理站、药物研究院、药学院、第三方检测机构、医药产业发展基金等配套建设，园区软硬配套、承载能力在成渝地区保持领先地位。截至2018年底，园区聚集工业企业112户，其中规上工业企业61户，2018年园区规上工业企业工业产值201.2亿元、同比增长15.6%，营业收入197.2亿元、同比增长14.6%，实现利润14.1亿元、同比增长13.5%。近年来，园区增挂川渝合作（广安）医药产业示范园、省级经济开发区、省级（医药）特色产业基地、省级药品上市许可持有人制度试点示范区、省级生产性服务业功能示范区、省级专家服务基地示范点、川商产业园等荣誉，正在争取省级、国家级医药高新技术产业园，打造西部医药健康城。
65	四川武胜经济开发区	S517108	广安市武胜县创业路与富裕路交叉路口往东南约70米	106.322696,30.362466	广安市	省级园区	经开区	智能装备,农产品精深加工,医药健康	金属制品、农副食品加工、医药产业	四川武胜经济开发区位于广安市武胜县，地处川渝结合核心部，广安、合川、潼南、遂宁、南充五个城市几何中心。2018年2月，四川武胜经济开发区纳入《中国开发区审核公告目录》（2018年版）。开发区规划面积8.40平方公里，开发区涵盖广武路工业带及街子工业园区2个区块，着力构建“221”工业产业体系，加快发展农产品生产加工、装备制造2个百亿级产业，节能环保及新材料、生物医药2个新兴产业，积极发展数字经济新业态。街子工业园区四至范围为地块三东至小溪河沟、奶子山村，南至字库村，西至屏风村、柏树垭村，南渝高速（G75）,北至米市村；地块四东至街子镇山河片村、干坝子村，南至干坝子村，西至奶子山村、小溪河沟，北至米市村、山河片村，是四川省节能环保产业六大基地、四大园区之一，重点发展食品加工、机械电子、节能环保，着力打造产业特色鲜明、极具发展潜力的工业新城。广武路工业带四至范围为地块一东至沿口镇马颈寨村、跃进桥村、科研村、叶家山村、两路口村，南至沿口镇石板井村、旧县乡老水沟村，西至县看守所、人民北路，北至沿口镇武中村、两路口村、城郊村；地块二东至新跃水库、五一村，南至广武路，西至长滩寺河，北至长滩寺河，重点发展以火锅为特色的农产品加工业，努力构建从原料种植到底料及食材加工、从检验检测到产品研发、从仓储冷链物流到展示交易和消费体验的火锅产业生态圈，建设集基地建设、加工转化、技术研发、现代物流、营销平台为一体的火锅产业园。截至2018年底，园区聚集工业企业107户，其中规上工业企业69户，2018年园区规上工业企业工业产值274亿元，同比增长21.79%，营业收入274.2亿元、同比增长25.54%，实现利润9.5亿元、同比增长17.39%。园区先后成功创建为国家小型微型企业创业创新示范基地、四川省新型工业化产业示范基地、四川省生产性服务业功能示范区、四川省特色产业示范基地、四川省首批15个重点电子商务产业集聚区。
66	四川华蓥山经济开发区	S517110	广安市华蓥市广华大道三段华蓥市农产品综合批发市场南侧约80米	106.737292,30.389814	广安市	省级园区	经开区	智能装备,新材料,软件与信息服务	电子信息、机械、建材产业	四川华蓥山经济开发区位于广安华蓥市，是华蓥市重要经济增长极，地处成渝经济圈、重庆1小时经济圈。成立于2014年9月，于2018年2月纳入《中国开发区审核公告目录（2018年版）》，现已正式成立“四川华蓥山经济开发区”（四川华蓥山经济开发区管理委员会于2019年3月挂牌）,开发区设立核准面积4.2233平方公里，建成区面积4平方公里。四至范围为：工业发展区东至前进村，西至明月村、白鹤嘴村，南至鼎足村、长田坎村，北至广华大道社区；大宗货物加工园区东至视子沟村，西至花庙嘴村，南至谭家桥村，北至宋家垭村；对渝合作园区东至渔槽村，西至回龙桥村，南至觉庵村，北至渔槽村。经开区按产城一体与市域规划建设，配套建设有220KV变电站、污水处理厂、科技孵化器、人才公寓等基础设施。截至2018年底，园区聚集工业企业147户，其中规上工业企业95户，2018年园区规上工业企业工业产值281.34亿元、同比增长23.5%，营业收入271.25亿元、同比增长25.1%，实现利润29.82亿元、同比增长19.5%。园区先后被授予“四川省首批新型工业化产业示范基地、四川省首批小企业创业示范基地、四川省电子信息产品外贸出口示范基地和循环经济示范园区、四川省产业园区园保贷首批试点园区、四川省信息安全产业示范园区、电子信息行业重点推介产业园区”等称号。
67	川渝合作示范区广安枣山物流商贸园区	---	四川省广安市广安区站前大道163号	106.60909,30.450884	广安市	其他重点园区	经开区	节能环保,新一代网络技术,软件与信息服务	新一代信息技术、生产性服务产业	川渝合作示范区广安枣山物流商贸园区（以下简称枣山园区）位于广安市主城区西南部，东邻官盛新区，南邻遂广高速齐福收费站，西邻岳池县大石乡，北邻小平故里核心区，位于沪蓉、巴广渝和广武遂高速公路交汇区域，兰渝铁路广安支线纵贯园区,是广安“东进西出”的重要通道。枣山园区于2013年3月筹建，2013年8月正式成立，根据市委、市政府授权，代管广安区广门乡、枣山镇及万盛办事处长乐、马石梯社区；2016年4月代管广安区穿石乡及岳池县红庙办事处;2017年1月10日,市委决定将神龙山片区整体划转园区代管。枣山园区幅员面积101平方公里，辖穿石乡、广门乡、枣山镇、红庙办事处，共30个社区、13个村，现有人口10余万人。枣山园区规划用地面积36平方公里，核心区19.14平方公里，建成5纵8横骨架路网38公里。园区现规划并建成拥有广安南站、广安长途汽车客运枢纽站、广安公交总站和云轨基地，形成了立体式、无缝换乘大交通格局。园区以广安南站为中心，周边规划建成有枣彭路、广武路、广高路等快速大通道，形成了四通八达的城乡路网。截至2018年底，规上工业企业5户，2018年园区规上工业企业工业产值3.6亿元、同比增长32%，营业收入2.7亿元、同比增长1%，实现利润1500万元、同比增长10%。
68	广安经济技术开发区	G511197	广安市前锋区奎阁大道与朝阳大道3段交叉口东南150米	106.672136,30.479854	广安市	国家级园区	经开区	清洁能源,绿色化工,新一代网络技术,数字经济	电子机械、建材、医药产业	广安经济技术开发区位于广安东部，是广安市重要经济增长极，国家级承接产业转移示范区、四川省唯一的川渝合作示范区和四川省气盐结合的精细化工基地。设立于1995年7月，1996年1月经四川省人民政府批准为省级开发区，2006年1月经国家发改委、国土资源部和建设部审核保留为省级经济开发区，2010年6月经国务院批准为国家级经济技术开发区，位于广安市东部，现规划面积110平方公里，下辖新桥工业园区、奎阁工业园区和临港工业园区。经开区按产城一体与城市规划建设，配套建设有110KV变电站、污水处理厂、科技孵化器、人才公寓等基础设施。截至2018年底，园区规上工业企业49户，营业收入94.5亿元，同比增长33.2%，实现利润4.7亿元，同比增长76.2亿元。园区先后被四川省确定为川东北能源化工基地、气盐结合精细化工基地、新型工业化产业示范基地，并被授予“1525”特色园区（全省重点培育的千亿园区），全国循环化改造示范点园区。
69	四川广安临港经济开发区	S517106	四川省广安市广安区	106.689756,30.445849	广安市	省级园区	经开区	清洁能源,农产品精深加工	电力、农副食品、包装产业	四川广安临港经济开发区位于广安市广安区，是广安区重要经济增长极，地处川渝合作示范区（广安片区）滨江新区核心区块。成立于2014年2月，规划面积5.88平方公里，建成区面积4.74平方公里。开发区四至范围为：东至官盛镇官盛村、西至中桥外塔村和肖家村界、南至中桥与方坪交界、北至渠江。截至目前，基础设施较为完善，水、电、气供应充足，价格优惠，适宜企业发展，为企业落户提供了供水、排污、电力、天然气、通讯、光纤等功能齐备的配套设施。截至2018年底，园区聚集工业企业40户，其中规上工业企业20户，2018年园区规上工业企业工业产值26.98亿元、同比增长12%，营业收入26.77亿元、同比增长12%，实现利润3.48亿元、同比增长10%。
70	广安经济技术开发区前锋园区	---	四川省广安市前锋区S304	106.85938,30.478386	广安市	其他重点园区	高新区	智能装备,新能源与智能汽车,绿色化工	装备制造、新能源汽车、轻工产业	广安经济技术开发区前锋园区成立于2006年4月，当时命名为前锋工业集中区。2010年8月，经广安市委办公会议同意(广委纪［2010］30号)，更名为广安经济技术开发区前锋园区。2016年5月，实施“政区合一”区划调整和体制改革，将大佛寺街道与广安经开区前锋园区整合为一套人马两块牌子，下设6个办公室、4个中心。园区位于华蓥山中段西麓，地处广安市渠江以东，规划面积30平方公里，核心区规划面积16.713平方公里，截至2017年，建成区面积12.5平方公里。园区四至范围(80坐标体系)：东至(3375395.266,36392931.385)、南至(3370695.926,36389758.031)、西至(3372967.374,36386805.627),北至(3376426.145,36391040.523)。园区按产城一体与城市规划建设，配套建设有110KV变电站、污水处理厂、科技孵化器、文化体育等基础设施。截至2018年底，园区聚集工业企业124户，其中规上工业企业76户，2018年园区规上工业企业工业产值253.14亿元、同比增长16.87%，营业收入230.71亿元、同比增长45.05%，实现利润6.54亿元、同比增长78.6%。2012年11月，国家发改委批准的《川渝合作示范区(广安片区)建设总体方案》，将广安市与前锋工业园区一并列入川渝合作示范区；2013年3月，国家发改委正式批复《广安承接产业转移示范区实施方案》，广安市与前锋工业园区被一并列入全省首个承接产业转移示范区；2013年12月，广安市与前锋工业园区被国家发改委一并列入国家首批循环经济发展示范城市创建地区；2014年12月，工业园区被中国纺织工业联合会、纺织产业转移办公室列入全国纺织产业转移试点园区；2014年12月，工业园区被中国纺织服装杂志社列入中国纺织服装十大园区；2015年5月，工业园区列入四川省第四批小企业创业示范基地:2017年9月30日，广安前锋区列入“四川省第一批产融合作试点城市”；2018年3月21日，商务厅同意广安经济技术开发区前锋园区成为“四川省脱贫奔康轻纺专业岀口基地”。
71	四川旺苍经济开发区	S517071	广元市旺苍县G542公园1号东北侧约30米	106.262273,32.23374	广元市	省级园区	高新区	智能装备,清洁能源	煤资源综合利用、生物资源综合利用、机械产业	四川旺苍经济开发区位于广元市旺苍县，是全县工业经济发展的主要支撑和新的增长极，于2012年12月经省人民政府批准设立。是广元市成立的首个县域省级开发区，规划面积7.09平方公里，建成面积4.5平方公里。规划控制区四至范围：东临嘉川镇石桥村红旗坝，南临嘉川镇蔬菜村石坝，西临尚武镇胜利村瓦房沟，北临嘉川镇和平村尹家湾。园区按产城一体与城市规划建设，配套建设有供电设施、管网、集中办公等基础设施。截止2018年底，园区聚集工业企业55户，其中规上工业企业32户，2018年园区规上工业企业工业产值69.75亿元，同比增长16.37%，营业收入68.34亿元，同比增长15.43%，实现利润2.21亿元，同比增长8.78%。园区先后成功创建为“四川省循环经济示范园区”、“四川省新型工业化产业培育基地”、“高新技术产业化基地”。
72	四川苍溪经济开发区	S517074	广元市苍溪县猕都大道与兰渝线交叉路口往东北约100米	105.957506,31.705865	广元市	省级园区	经开区	智能装备,清洁能源,医药健康	农副产品加工、天然气加工、电子产业	四川苍溪经济开发区位于四川省广元市苍溪县，地处国家“一带一路”、天水经济带、兰渝经济带和成渝经济圈“三带一路一圈”联接部，成都、重庆、西安三大省会城市腹心地带，区位优势明显。四川苍溪经济开发区于2014年7月被四川省人民政府批准成立，规划控制面积5.15平方公里，规划区四至范围：东至云峰镇紫云村五皮嘴山脚，北至云峰镇石家坝村麻石垭山脚，西、南均以陵江镇古梁村嘉陵江为界。四川苍溪经济开发区按产城一体与城市规划，建成区面积3平方公里，配套建设有道路约6公里，建成45干千伏安和110千伏安变电站各一座、日处理能力1.9万吨污水处理厂一座、供水加压站一处。截止2018年底，园区聚集工业企业81户，其中规上工业企业30户，2018年园区规上工业企业工业产值63亿元，同比增长23.6%，营业收入62亿元，同比增长23%，实现利润10.5亿元，同比增长22.8%。园区先后被授予“四川省小企业创业基地”、“四川省农产品加工示范园区”。
73	广元经济技术开发区	G511193	广元市利州区京昆线(娃哈哈集团广元工业园区西南侧)	105.784586,32.428178	广元市	国家级园区	经开区	农产品精深加工,优质白酒,精制川茶,医药健康,新材料	电子机械、食品饮料、有色金属产业	广元经济技术开发区（以下称“广元经开区”）位于四川省广元市城西，是广元市重要经济增长极，地处川陕甘结合部，位于嘉陵江、白龙江、青竹江三江交汇处，区位优势显著、生态条件优越、工业企业集中、园区功能完善，距广元市中心城区仅1.5公里。全区现辖1镇3街道45个村（社区），直接建设管理面积109.04平方公里，总人口8.5万人。1992年建区，2012年升级为国家级经济技术开发区，四至范围上西片区东至则天南路居委会，南至皇泽寺居委会，西至吴家浩村，北至橄榄园居委会；利州片区1东至石马坝居委会，南至接官亭居委会，西至嘉陵江，北至南河；利州片区2东至活力村，南至嘉陵江，西至建设村，北至同心村；袁家坝片区东至群力村，南至嘉陵村，西至联合村，北至西陵村。目前，广元经开区围绕建设“改革开放的先行区、优势特色产业和战略性新兴产业的集聚区、城乡统筹发展和产城融合的试验区”的战略定位，正砥砺奋进、铿锵前行，力争2020年建成干亿产业园区和产城深度融合的城市新区。截止2018年底，园区聚集工业企业425户，其中规上工业企业98户，2018年园区规上工业企业实现工业产值338亿元，同比增长17.7%，营业收入332亿元，同比增长25%，实现利润16.2亿元，同比增长19.3%。园区先后被授予国家先进电子产品及配套材料高新技术产业化基地、国家新型工业化产业示范基地（军民结合•四川广元）、国家循环化改造示范园区、国家绿色产业园区、四川省知识产权试点园区、四川省（广元）军民融合高新技术产业化基地、高强铝合金及制品四川省知名品牌创建示范区和四川省“51025”重点培育园区。
74	广元市利州区工业集中发展区	---	广元市利州区兰渝线广元市利州区大石初级中学西北侧约90米	105.933982,32.401691	广元市	其他重点园区	工业园区	智能装备,绿色化工	机械电子、食品饮料产业	广元市利州区工业集中发展区成立于2012年，位于广元市利州区，总规划面积25平方公里，现建成投产面积5.17平方公里。按照“一区多园”和“一园一主业，园区有特色”的要求，规划布局了“一区五园”，批次规划建设了大石工业园、回龙河工业园、宝轮工业园、广元机电产业园和清江石羊工业园。四至范围：广元机电产业园北临北二环，西接电子路北延线，南至雪莲大道，东至水柜路；回龙河工业园东至上西片区，西至天台山森林公园，南至王家营和下西片区；宝轮工业园东与宝轮镇镇区相接，南临清江河，西至赤化外埠，北靠老108线；大石工业园（含大石食品工业园和荣山泉坝拓展园）大石食品工业园南至大石村三组，北至小稻村五组，西临小稻村二组，东靠小稻村一组；荣山泉坝拓展园南靠大石安乐村一组，北临荣山场镇，东至昭化区食品工业园，西临荣渔路；清江石羊工业园北临赤化场镇，西至宝成铁路，南靠剑阁县，冬至京昆高速。截止2018年底，园区聚集工业企业97户，其中规上工业企业61户，2018年园区规上工业企业工业产值118.45亿元，同比增长9.16%；营业收入117.89亿元，同比增长9.88%；实现利润14.00亿元，同比增长79.49%。园区先后创建为“国家新型工业化产业示范基地”、“第二批四川省特色产业基地”、“四川省小型微型企业创业创新示范基地”、“中国食品产业发展重点园区”、“第三批国家小型微型创业创新示范基地”。
75	四川剑阁经济开发区	S517073	广元市剑阁县京昆线剑门工业园区东侧约100米	105.54053,32.309744	广元市	省级园区	经开区	新能源与智能汽车,新材料,农产品精深加工	新能源、新材料、食品、建材产业	四川剑阁经济开发区位于广元市剑阁县，是剑阁县重要经济增长极，规划控制面积8.83平方公里，建成区面积3.87平方公里，重点发展新能源、新材料、食品医疗产业，配套发展电子机械、生物医药产业。四至范围：剑门片区（剑门园区）东至剑阁县污水处理厂，南至绵广高速，西至清江河，北至清江河；普安片区（普安园区）东至光荣村三、四组，南至剑坪村四组，西至中坪村五组，北至双剑村八、九组。四川剑阁经济开发区功能定位为工业园区、城市新区，按产城一体与城市规划建设，基础配套完善，要素保障齐全，能满足企业入驻要求。截止2018年底，园区聚集工业企业81户，其中规上工业企业45户，2018年园区规上工业企业工业产值81.09亿元，同比增长16.85%，营业收入76.02亿元，同比增长16.38%，实现利润1.94亿元，同比增长13%。园区先后被授予四川省新型工业化产业示范基地、四川省特色高新技术产业化基地、四川省高校毕业生创新创业示范基地、四川省“园保贷”试点园区和广元市知识产权试点园区。
76	四川青川经济开发区	S517072	广元市青川县金竹路与智慧大道交叉路口南侧	105.358102,32.251003	广元市	省级园区	经开区	节能环保,新材料	矿产品加工、节能环保、新材料产业	四川青川经济开发区位于广元市青川县，地处天水关中经济带与成渝经济区两大西部经济中心地带。规划面积6.48平方公里。四至范围：竹园镇镇区、马鹿乡砂石村、建峰乡建峰村，地理坐标在北纬32°17'09.44"至32°11'59.74",东经105°23'18.12"至105°18'38.95"之间，北至建峰乡开峰村，南邻竹园镇黄沙村，东接竹园镇东曹村，西与马鹿镇沙石村接壤。经开区按产城一体与城市规划建设，配套有110KV变电站、污水处理厂等基础设施。截止2018年底,园区聚集工业企业45户，其中规上工业企业33户，2018年园区规上工业企业实现工业产值36.1亿元，同比增长21.5%，营业收入34.3亿元，同比增长21.1%，实现利润1.9亿元，同比增长31.5%。
77	四川广元昭化经济开发区	S517069	四川省广元市昭化区G212(兰渝线)	105.972327,32.356342	广元市	省级园区	经开区	集成电路与新型显示,农产品精深加工	食品饮料、建材、电子产业	四川广元昭化经济开发区位于广元昭化区，是广元市重要经济增长极，规划面积为6.58平方公里。四至范围：区块一东至泉坝村，南至广旺铁路，西至南河，北至泉坝村；区块二东至广旺铁路，南至长坝村，西至长滩河，北至广旺铁路；区块三东至省道202,南至元坝村，西至长滩河，北至泉坝村；区块四东至宝昭路，南至绵广高速出口，西至鸭浮村，北至鸭浮村；区块五东至宝昭路，南至绵广高速，西至绵广高速出口，北至绵广高速出口；区块六东至宝昭路，南至鸭浮路，西至鸭浮路，北至绵广高速。截止2018年底，园区聚集工业企业45户，其中规上工业企业37户，2018年园区规上工业企业工业产值100亿元，同比增长19%，营业收入98亿元，同比增长20%，实现利润2.5亿元，同比增长30%。园区先后被授予“中国食品产业发展重点园区”、“四川省特色髙新技术产业化基地”、“省级小企业创业示范基地”，“四川省知识产权试点园区”。
78	四川广元朝天经济开发区	S517070	四川省广元市朝天区一零八线	106.036309,32.698189	广元市	省级园区	经开区	新材料,农产品精深加工	建材、农产品加工产业	四川广元朝天经济开发区位于广元市朝天区，地处川陕甘三省交界处。规划控制面积为8.34平方公里，规划空间布局为一区两片，即：大羊片区和七盘关片区。核准四至范围：七盘关片区东至转斗乡转南村，西至中子镇五里村，南至中子镇枣树村，北至二专线。大羊片区大巴口块，东至二专线，南至朝天镇楼房村2组，西至朝天镇楼房村1组，北至明月峡；大羊片区羊木块，东至羊木镇中心小学，南至兰渝铁路朝天火车站，西至羊木镇源溪村1组，北至羊木镇银岭村。经开区按产城一体化与城市规划建设，配套建设有园区道路、污水处理厂、孵化园等基础设施。截止2018年底，园区聚集工业企业35户，其中规上工业企业22户，2018年园区规上工业企业工业产值56.8亿元，同比增长29.9%；营业收入56.6亿元，同比增长30.01%；实现利润8.2亿元，同比增长31.35%。园区先后被授予“成广合作产业园”、“海峡科技产业园”、“成都石材产业转移承接地”、“路桥-朝天东西部扶贫协作共建产业园”。
79	峨边彝族自治县工业集中区	---	五渡镇工业园区	103.499983,29.278006	乐山市	其他重点园区	工业园区	农产品精深加工	黑色金属冶炼和压延加工业、稀土、工业硅、农产品加工产业	峨边彝族自治县工业集中区位于峨边彝族自治县大渡河南岸，是峨边彝族自治县重要经济增长极，距乐山市80公里、距峨眉山市60公里、距成都市230公里、距金口河区30公里，地处成渝经济圈辐射范围。现状主要交通为成昆铁路、S306线和大渡河南岸县道。成立于2008年7月，2008经乐山市经济委员会以乐市经[2018]225号文件同意将其设为市级工业集中区（后更名为工业园区），规划面积5.8平方公里，建成区面积1.85平方公里。规划结构可概况为“一心、三区”。"一心”指由上核桃坪、下核桃坪、马嘶溪、龙眼坝组成的核桃坪工业核心区，位于园区西南部。“三区”由新场工业片区、毛坪工业区、五渡工业片区构成,新场工业片区位于园区西北部，由长虹村、星星村、庞沟村组成；毛坪工业片区位于园区中部，由中心村、恒心村、建华村组成；五渡工业片区位于园区东部，由工农村、郭坝村、双凤村水函坝组成。工业园区按产城一体与城市规划建设，配套建设有110KV变电站、亮化设施、污水处理站等基础设施。截止2018年底，园区聚集工业企业29户，其中规上工业企业16户，2018年园区规上工业企业工业产值27亿元，同比增长5.75%，主营业务收入27.4亿元，同比增长0.26%，实现利润1.03亿元，同比增长10.7%。
80	马边磷化工特色工业集中区	---	乐山市马边彝族自治县G348川信希望小学东南侧约140米	103.557858,28.889605	乐山市	其他重点园区	工业园区	农产品精深加工	化学原料和化学制品制造业、农产品加工产业	马边磷化工特色工业集中区于2008年5月经乐山市经济委员会批复成立（乐市经[2008]153号），集中区规划总面积5.29平方公里，总体空间格局为“-区二园”，分为劳动工业主园区和雪口山工业辅助区。劳动工业主园区位于劳动乡先锋村，距县城3.5公里，占地700余亩，是以高纯磷酸及配套环保产业为主的磷化工循环经济产业园；园区有马边龙泰磷电有限责任公司（简称“龙泰磷电”）、马边无穷矿业有限公司（简称“无穷矿业”）、马边嘉能佳化工有限责任公司（简称“嘉能佳”）、马边天益镍铬材料有限公司4家企业。雪口山工业辅助区占地1.4平方公里，是以湿法净化磷酸及下游产业为主的精细磷化工产业园，由于川发展控股公司发展战略方向的转变，该园区建设工作已放弃。截止2018年底，园区聚集工业企业4户，其中规上工业企业3户，2018年园区规上工业企业工业产值5.3亿元，同比增长12.5%，营业收入5.3亿元，同比增长15.2%，实现利润-0.36亿元，同比增亏0.14亿元，增亏63.6%。 园区被授予为“乐山市劳动关系和谐工业园区”。
81	四川峨眉山经济开发区	S517084	乐山市峨眉山市兴喜路	103.587491,29.615426	乐山市	省级园区	经开区	智能装备,农产品精深加工	建材、食品饮料、机械产业	四川峨眉山经济开发区位于乐山市峨眉山市，是峨眉山市重要经济增长极，地处成渝经济圈南沿重要接点。成立于2006年8月，2013年3月将原“一区三园”规划建设调整为“一区两园”，即加工仓储物流园和乐九新型建材产业园，规划面积20平方公里，建成区面积6.87平方公里。四至范围：加工仓储物流园，规划面积约5.36平方公里，北至峨眉河，南至乐峨公路，东至符溪黑桥，西接胜利镇红星村；乐九新型建材产业园,规划面积约14.64平方公里，北面、东面至临江河，南接沙湾区，西至罗目镇阳光、高相。2016年4月，园区启动开发区审核公告目录修订工作。2018年2月，园区入选《中国开发区审核公告目录》（2018年版）。2018年4月，启动省级开发区设立申报工作。2018年10月11日，省发改委分别在四川日报和乐山日报上对设立四川峨眉山经济开发区进行公示。建园以来，园区已累计投入基础设施建设资金13.56亿元，建成大桥一座，污水处理厂一座，“创客梦工厂”双创孵化器平台一个，园区道路26条，通车27.7公里，雨水管网21公里，污水管网24.2公里，天然气主管网23.5公里，支线17.65公里，标准厂房38万平方米，完成电力、通讯等线路迁改和新建45.8公里，供水管网14.5公里，有35KV变电站3座、110KV变电站1座、220KV变电站2座，加油站8座，加气站3座和电动汽车充电站1座，园区路网发达，基础设施完善。四川峨眉山经济开发区，截止2018年底，园区聚集工业企业98户，其中规上工业企业46户，2018年园区规上工业企业工业产值254.8亿元，同比增长15.6%，营业收入241.4亿元，同比增长10.7%，实现利润42.6亿元,同比增长66%。园区先后被授予“1525工程”重点园区、四川省“51025”重点产业园区发展计划培育园区、成渝经济区最具投资价值产业园区前十强、全省首批十个生态园区建设试点单位、乐山市“双干双百”培育工程重点园区。
82	四川夹江经济开发区	S517025	四川省乐山市夹江县新华路261号	103.591625,29.74448	乐山市	省级园区	经开区	智能装备,新材料	陶瓷、新材料产业	四川夹江经济开发区位于乐山市夹江县，1999年12月经四川省计委批准成立，2006年8月经国家发改委和国土资源部重新审核通过、四川省政府批准设立。现拟规划面积13.5平方公里，建成区面积5.5平方公里。东邻成乐高速，南至肖坪村，西至省道103线，北至白云村，经开区按产城一体与城市规划建设，配套建设有220KV变电站1座、110KV变电站4座、35KV变电站6座，以及天然气配气站、污水处理厂、通讯网络、公租房等基础设施。截止2018年底，园区聚集规上工业企业55户，建成投产规上工业企业32户，在建规上企业23户。2018年园区规上工业企业工业产值130.9亿元，同比增长19.5%，主营业务收入121.5亿元,同比增长12.5%，实现利润2.95亿元，同比增长84%。园区先后被授予四川省“1525工程”重点园区、循环经济试点园区、乐山市五个省级开发区之一。2014年被评为四川省“最具投资价值产业园区”之一，2017年被命名为“全省陶瓷产业知名品牌创建示范区”。
83	乐山市工业集中区	---	乐山市市中区苏沙路	103.671513,29.548098	乐山市	其他重点园区	工业园区	新能源与智能汽车,新材料	新材料、汽车制造产业	乐山市工业集中区（水口-罗汉主园区）位于乐山市市中区，地处城市西南部，大渡河西侧，是乐山市市中区重要的经济增长极。园区成立于2008年10月，2010年10月经市经信委批准更名为乐山市工业集中区，是市级重点园区。园区规划面积为11.89平方公里，建成区面积为1平方公里。园区的四至范围为：西至老鹰岩山脚，东至大渡河、水口镇，南至罗汉镇，东至罗汉镇黎明村。建园以来，财政投入5亿元，建成日处理能力5000立方/天的污水处理厂一座，园区道路4条，通车3.7公里，雨水管网6.5公里，110kv变电站一座，园区基础设施完善，能满足入驻项目的需求。截止2018年底，园区聚集工业企业138户，其中规上工业企业43户，2018年园区规上工业企业工业产值97.06亿元，同比增长11.2%，营业收入88.24亿元，同比增长9.3%，实现利润1.14亿元，同比增长23.9%。园区先后被授予"四川省小企业创业基地”、“四川省农产品加工示范基地”、“全国农产品加工示范基地”、“四川省知识产权试点园区”。
84	沐川县工业集中区	---	四川省乐山市沐川县沐溪镇茨梨坝工业园区	103.881449,28.974031	乐山市	其他重点园区	工业园区	农产品精深加工	造纸及纸制品业、农产品加工、化学原料和化学制品制造业	沐川县工业集中区位于乐山市沐川县，2008年7月经乐山市经济委员会批准成立，2011年9月经乐山市工业集中区建设发展工作领导小组认定为市级重点园区，规划面积7平方公里，建成区面积2.88平方公里。四至范围（具体以界址点坐标控制）:龙船坝片区东至沐楠路，南至民爆公司，西至沐溪中学，北至县污水处理厂；茨梨坝片区东至213复线，南至骆家湾，西至茨梨坝，北至龙沱大桥；建和片区东至213国道，南至原三百步加油站，西至建和场镇，北至原垃圾处理场；舟坝片区东至103省道，南至老洋溪桥，西至夏寨村七组，北至前进变电站。工业集中区按产城一体与城市规划建设，配套建设有110KV变电站、截污干管等基础设施。截止2018年底，园区聚集工业企业21户，其中规上工业企业8户，2018年园区规上工业企业工业产值19.99116亿元，同比增长-1.8%，营业收入19.28683亿元，同比增长1.5%，实现利润0.09636亿元，同比增长-72%。
85	金河口工业集中区	---	乐山市金口河区一四三县道	103.143043,29.299007	乐山市	其他重点园区	工业园区	农产品精深加工	有色金属冶炼和压延加工业、农产品加工产业	金口河工业集中区于2008年5月经乐山市经济委员会以乐市经[2008]157号同意设立为市级工业集中区，规划面积0.8平方公里，由解放工业园区（A区）和三角石工业园区（B区）组成。其中，解放工业园区（A区）占地0.68平方公里，四至边界为：北起金口河观音庙附近的迎春村一组沟界，南至解放村一组边界，东临解放村山体脚下，西接大渡河解放村段流水水涯线；三角石工业园区（B区）占地0.12平方公里，四至边界为：北至吉星乡民政村一组地界，南至金口墩（聚龙硅钙厂宿舍），东至乐西公路山角，西至大渡河边。截止2018年底，园区聚集工业企业3户，其中规上工业企业1户，2018年园区规上工业企业工业产值5.8亿元，同比增长17%，营业收入4.9亿元，同比增长14%，实现利润-0.25亿元，同比减少亏损29%。
86	四川乐山沙湾经济开发区	S517081	乐山市沙湾区凤凰路嘉农中心小学西北侧约120米	103.623995,29.505759	乐山市	省级园区	经开区	智能装备,新材料	不锈钢、钒钛钢、机械产业	2009年5月成立乐山（沙湾）不锈钢产业园区，地址在乐山市沙湾区嘉农镇凤凰路1号。园区由不锈钢产业园、钒钛工业园构成。乐山（沙湾）不锈钢产业园区核准面积为611.17公顷。四至范围为区块一东至大渡河，南至嘉农新兴村，西至嘉农镇新兴村、加华村、王场村、齐安村，北至市中区罗汉镇和沙湾区嘉农镇燎原村；区块二东至大渡河，南至沙湾镇顺河村，西至省道103线和沙湾镇顺河村，北至沙湾镇余溪村。2017年，贯彻国务院办公厅印发《关于促进开发区改革和创新发展的若干意见》（国办发[2017]7号），乐山（沙湾）不锈钢产业园区申报建立四川乐山沙湾经济开发区，2018年2月，纳入《中国开发区审核公告目录》（2018年版），2019年1月25日,省政府批准设立为省级四川乐山沙湾经济开发区。截止2018年底，园区聚集工业企业59户，其中规上工业企业39户，2018年园区规上工业企业工业产值128.1亿元，同比增长19.94%,营业收入136.31亿元,同比增长25.17%,实现利税40.83亿元，同比增长7.2%。园区先后被授予“1525工程”培育园区、“51025重点产业园区”、“四川省新型工业化产业示范基地”、“国家新型工业化产业示范基地”、“四川特种钢高新技术产业产业化基地”、“四川不锈钢知名品牌示范区”、“四川知识产权试点园区”“四川生态工业园区试点单位”。
87	乐山（五通桥）盐磷化工循环产业园区	---	四川省乐山市五通桥区跃进街398号附近	103.820275,29.407483	乐山市	其他重点园区	工业园区	新一代网络技术	油气化工、新一代信息技术产业	乐山（五通桥）盐磷化工循环产业园区位于乐山市五通桥区，规划面积41.03平方公里（包括于2009年1月30日经乐山市经济委员会（乐市经[2009]70号）批准备案成立的五通桥区工业集中区（五通桥盐磷化工循环产业园区），规划面积10平方公里）。包括过渡保留区和新型工业基地建设区。过渡保留区包括竹根滩北部的和邦工业组团和竹根滩南部的永祥组团，面积4.96平方公里。新型工业基地建设区南抵涌澌江、岷江，北以在建五犍沐快速路为界，东至金栗镇刘家山村以西山脚，西至杨柳镇青龙村、瓦窑村边界，面积36.07平方公里。主要涉及桥沟镇的张家山村、共裕村、老龙坝村、平桥村、会云村、井房坳村，金粟镇的印盒山村、五一村、庙儿山村、金江村，杨柳镇的红豆村，辉山镇的六塘村、民安村和杏林村。园区按产城一体与城市规划建设，配套建设有220kv变电站、污水处理厂等技术设施。截止2018年底，园区聚集工业企业21户，其中公司工业企业17户，2018年园区规上工业企业工业产值167.64亿元，同比增长27.14%，主营业务收入164.97亿元，同比增长25.17%，实现利润总额18.87亿元，同比增长3.03%。园区先后被授予“1525工程”培育园区、“51025重点产业园区、四川省第二批新型工业产业化示范基地（循环经济类）、全省首批十家生态试点园区。
88	四川犍为经济开发区	S517082	乐山市犍为县文卫街茉莉花园东南侧约130米	103.947081,29.219474	乐山市	省级园区	经开区	智能装备	建材、竹浆纸、机械产业	四川犍为经济开发区位于乐山市犍为县，是乐山市重要经济增长极，地处成渝经济圈和成德绵高新技术产业带。成立于2006年11月，2017年纳入国家经开区目录，开发区公告目录面积为61.4公顷，最终核准面积为56.67公顷。四至范围（具体以界址点坐标控制）:区块一东至国道213线，南至石马村村道，西至石马村防洪河堤，北至岷江河；区块二东至下渡至孝姑公路,南至孝姑镇八一村,西至岷江,北至下渡至孝姑公路；区块三东至防洪沟，南至板桥村，西至板桥村与土坪村交界，北至防洪沟；区块四东至防洪沟，南至板桥村防洪堤，西至板桥村与土坪村交界，北至板桥村。经开区按产城一体与城市规划建设，配套建设有110KV变电站、污水处理厂、科技孵化园、人才公寓等基础设施。截止2018年底，园区聚集工业企业44户，其中规上工业企业27户，2018年园区规上工业企业工业产值97.8亿元，同比增长31.5%，营业收入92.3亿元，同比增长30%，实现利润4.3亿元，同比增长28.1%。园区2016年初授予四川特色产业基地。
89	乐山高新技术产业开发区	G512144	四川省乐山市市中区高新区迎宾大道20号	103.73209,29.544229	乐山市	国家级园区	经开区	软件与信息服务,医药健康	新能源装备、电子信息、生物医药产业	乐山高新技术产业开发区位于乐山市市中区，采用“一总部三基地”模式发展，下辖五通桥区基地、夹江县基地、犍为县基地，是乐山市重要经济增长极，地处成都平原经济区。成立于1992年7月，于1996年2月获批省级高新区，于2012年8月获批国家级高新区，规划面积163.36平方公里，建成区面积21.42平方公里。四至范围（具体以界址点坐标控制）：“总部经济区”东至车子镇白埝村，南至车子镇惠安村、渔龙村，西至车子镇茶山村、安谷镇龙口村，北至大渡河；“五通桥区基地”园区由和邦组团、永祥组团、福华组团、东汽组团和牛华组团构成，东至桥沟镇共裕村，西至西坝镇前丰村、高河村，南至金粟镇金江村，北至牛华镇塘叶村、沙板滩村、竹根镇易坝村；“夹江县基地”东邻成乐高速，南至肖坪村，西至省道〔03线，北至白云村；“犍为县基地”区块一东至国道213线，南至石马村村道，西至石马村防洪河堤，北至岷江河；区块二东至下渡至孝姑公路，南至孝姑镇八一村，西至岷江，北至下渡至孝姑公路；区块三东至防洪沟，南至板桥村，西至板桥村与土坪村交界，北至防洪沟；区块四东至防洪沟，南至板桥村防洪堤，西至板桥村与土坪村交界，北至板桥村。高新区纳入乐山市城市总体规划一体化发展，配套建设有220KV变电站2座、110KV变电站8座、35KV变电站6座、污水处理厂2座，以及天然气配气站、科技孵化器、人才公寓、公租房等基础设施。截止2018年底，总部经济区聚集工业企业11。户，其中规上工业企业37户，2018年园区规上工业企业工业产值89.63亿元，同比增长10.32%，营业收入82.06亿元，同比增长15.13%，实现利润3.12亿元，同比增长-2.34%。园区先后被授予四川省“51025”重点特色产业园区，国家硅材料开发与副产物利用产业化基地，中关村科技成果产业化基地、四川省“1525工程”重点园区、循环经济试点园区、最具投资价值产业园区、全省陶瓷产业知名品牌创建示范区、四川特色产业基地。
90	四川井研经济开发区	S517083	乐山市井研县顺河街井研县人民政府南侧约200米	104.075308,29.655393	乐山市	省级园区	经开区	农产品精深加工	农副食品、纺织产业	井研县工业集中区成立于2008年5月，于2018年更名为四川井研经济开发区。原规划面积11.18km2,2016年申报设立省级特色工业园区并纳入《中国开发区审核公告目录》（2018年版），公告目录公示面积2.55km2,最终核准面积2.26km2。其中A区域0.58km2,B区域0.82km2,C区域0.85km2。四川井研经济开发区位于乐山市井研县，根据《四川省主体功能区规划》（川府发〔2013〕16号），乐山市井研县属于国家层面点状开发区域。从地理位置看，井研地处四川盆地西南，是乐山市东部门户，位于乐山市以东29公里，成都市以南98公里，北连仁寿，东邻荣县，南界犍为县、五通桥区，西靠乐山市中区，西北接壤眉山市青神县，自古有“川南通衢“之称，是乐山连接四川东北部地区和东南地区的重要节点。从总体区位看，井研位于成都平原城市群和川南城市群结合部，是成都平原经济区、川南经济区、攀西经济区重要节点，地处成渝经济圈、成绵乐经济发展带和沿长江发展带交汇处，是乐山半小时经济圈、成都一小时时空圈和天府新区的影响腹地。县目前已通车里程1003.9公里，其中，高速公路2条55公里（乐自高速22公里、仁沐高速33公里）；铁路1条34.6公里（在建连乐铁路）；国道2条59公里（G213线42公里、G348线17公里）；省道3条61公里。为破解交通瓶颈，推动井研实现跨越式发展，根据县委、县政府发展战略部署，规划构建“三高三铁三干道”大交通格局。目前已基本完成乐自高速、仁沐新高速、连乐铁路（在建）、井乐快速通道在内的“两高一铁一干道”建设。截止2018年，井研县工业园区工业企业61户，其中规上企业35,2018年规上企业工业产值62.12亿元，同比增长14.65%，营业收入59.4299亿元，同比增长18.6%，实现利润2.13亿元，同比增长12.85%。2017年3月，乐山市井研县被中国纺织工业联合会和中国服装协会授予四川省“中国工装面料名城（基地）”。2017年4月，工业集中区管委会成功创建为“全省纺织服装产业知名品牌创建示范区”。井研县中国西部国际高端家居特色园区（一期）被省政府列入2018年全省重点项目。
91	宁南县茧丝绸工业集中发展区	---	凉山彝族自治州宁南县S212	102.747511,27.079996	凉山州	其他重点园区	工业园区	农产品精深加工	茧丝绸产业、纺织产业	宁南县茧丝绸工业集中发展区位于凉山州宁南县，是攀西地区唯一的茧丝绸产业集聚发展平台。成立于2012年8月，州政府批准为州级特色产业成长型工业园区，规划面积7.1平方公里，建成区面积0.43平方公里。四至范围：东起东经27.071202°,西至东经27.069368°,北达北纬102.734098°,南到北纬102.729292°。产业园区按照产城一体与城市规划建设，配套建设有10kV电缆工程、标准化厂房、17.2万立方米水库、办公楼、库房、智慧园区云平台、创新创业孵化中心等基础设施，正在推进污水集中处理厂等项目建设。截止2018年底，园区聚集工业企业7户，其中规上工业企业3户，2018年园区规上工业企业工业产值5.6亿元，同比增长14.7%，营业收入5.07亿元，同比增长2%，实现利润0.11亿元，同比减少21.4%。宁南县自然条件优越，蚕桑资源丰富，是国内优质蚕茧生丝生产的最佳适宜区之是四川省优质蚕桑基地建设的核心区域。茧丝及相关产业年产值达28亿元，蚕桑产业已成为群众脱贫奔康和县域经济发展的重要支撑产业。宁南县先后成为“中国蚕桑之乡”“中国优质茧丝基地”“国家级农业标准化优质桑蚕茧示范县”、商务部“东桑西移”工程项目县、“四川省精品蚕业标准化示范区”。“南丝路”茧丝荣获“中国驰名商标”“四川省名牌产品”“四川省著名商标”“四川省农产品知名品牌”“国家权威检测达标品牌——国家质量检测连续合格产品”“中国西部国际农业博览会金奖”“第十二届四川名牌”等荣誉称号。
92	四川西昌钒钛产业园区	S519126	四川省凉山彝族自治州西昌市经久乡明月饭店西北100米	102.223586,27.789751	凉山州	省级园区	工业园区	智能装备,新材料	钒钛钢铁、新材料、装备制造产业	四川西昌钒钛产业园区位于凉山彝族自治州西昌市，为引领凉山州、西昌市经济转型发展的强大引擎和核心区，地处川西高原的安宁河平原和攀西国家级战略资源创新开发试验区规划范围内。成立于2004年12月，2019年1月由省政府设立为省级开发区。总体规划面积42.4平方公里，核心区规划面积20平方公里，已建成区面积8.76平方公里，四至范围为：东至东干渠，南至赖家山，西至雅西高速公路，北至活龙村皮柳路。园区按产城一体与城市规划建设，配套建设有行政服务中心、220KV、110KV变电站、污水处理厂、供水厂、消防特勤中队等基础设施，现园区水、电、路、通信等基础设施配套完善，基本实现了五通一平。截止2018年底，园区聚集工业企业61户，其中规上工业企业27户，2018年园区工业企业总产值292.88亿元，同比增长26.98%，营业收入323.05亿元，同比增长18.23%，实现利润23.56亿元，同比增长853.87%。园区先后被授予“1525工程”培育园区、“51025重点产业园区”、“四川省循环产业示范园区”、“四川省新型工业化产业示范基地”。
93	越西县工业集中区	---	凉山彝族自治州越西县三岔口路丽苑首座西南侧约120米	102.517392,28.650315	凉山州	其他重点园区	工业园区	农产品精深加工	冶金、建材、物流业、农产品加工产业	越西县工业集中区管理委员会成立于2005年，规划总面积9平方公里，范围北至乃托镇，西至越城镇、新民镇马厂河坝，南至普雄镇，由乃托、普雄、新民和河东（县城）等4个工业组团组成。2013乃托组团区新增用地约0.09平方公里，调整后越西县工业集中发展区总面积为9.09平方公里。集中区规划的产业发展及重点以乃托工业集中区为核心，“四镇一乡”为补充，突岀特色产业，围绕“一区多点、一点一主业、点点有特色”，坚持产城一体化的发展思路,强化功能，产业定位，联动发展。乃托工业集中区：以水能、电冶、水泥产业发展为重点。新民马厂河坝园区组团：以农副产品深加工业、石材加工、白酒基地等发展为重点。县城河以东物流配送园区组团，以越西列入凉山北部中心城市发展机遇，打造凉山北部物资集散地。普雄物流集配送及农副产品深加工组团：以现代物流业发展为重点，拓展农副产品深加工,将其培育为覆盖东西县的重要物资集散地。截止2018年底，园区聚集工业企业14户，其中规上工业企业3户，2018年园区规上工业企业工业产值4.82亿元，同比增长-12%，营业收入4.68亿元，同比增长-12%，实现利润0.3亿元，同比增长6%。
94	四川会理有色产业经济开发区	S517128	凉山彝族自治州会理县京昆线与龙腾大街交叉路口往东约50米(龙腾大厦)	102.259318,26.671104	凉山州	省级园区	经开区	---	有色金属产业	四川会理有色产业经济开发区位于凉山州会理县，地处攀西经济圈，是凉山有色金属产业集群的核心载体、凉山最重要的工业基地之一。开发区于2006年12月经凉山州政府批准设立，原名为会理县工业集中区，2012年1月经州政府批准更名为会理有色产业园区，重点发展铜镍、铅锌、钒钛铁等有色金属产业。2018年2月在《中国开发区审核公告目录》中更名为四川会理有色产业经济开发区。2019年1月经省人民政府批准为省级综合类经济开发区。开发区是根据资源分布情况按“一园三区”进行布局的工业集中发展区，总体规划于2010年3月经凉山州政府批准实施，规划面积1307公顷，在2018年版《中国开发区审核公告目录》中核准面积为116.2公顷，申报设立省级开发区核实面积为100.39公顷。截止2018年底，园区聚集工业企业51户，其中规上工业企业25户，2018年园区规上工业企业工业产值90.3亿元，同比增长-57.1%，营业收入89.8亿元，同比增长-55.4%，实现利润-2.5亿元，同比增长-142.9%。2011年6月被省经信委评为四川省100亿级成长型特色产业园区（即“1525工程”园区），2012年11月被省发改委评为“十二五”第一批省级循环经济示范单位，2013年7月被省人民政府列入“51025”重点产业园区500亿级培育园区发展计划，2013年10月被省经信委评为四川省新型工业化产业示范基地（循环经济）。
95	雷波磷化工产业园区	---	四川省凉山彝族自治州雷波县	103.328022,28.123759	凉山州	其他重点园区	工业园区	绿色化工	磷化工产品、化工产业	按照雷波县列为长江上游生态保护功能县以及《凉山州环境保护局转发四川省环境保护厅关于做好四川省长江经济带生态环境保护情况审计整改落实工作的函》等要求，对国家最新出台行业政策规定及环保安全生产要求，结合雷波磷化工、新型建材、农产品加工、物流运输等现状和长远发展的要求，将水电制氢新型清洁能源产业、新型建材、砂石、农产品深加工、物流运输等相关产业纳入园区产业规划，将我县磷化工产业规划及园区总体规划进行调整。在规划中适量布局区域性磷矿产品交易中心、智慧园区平台、现代物流等内容等相关产业纳入园区规划，将我县园区规划进行调整，实现二三产业联动。2018年10月已确定调整园区规划设计单位，2019年2月28日完成雷波磷化工产业园区《雷波工业集中区总体规划》、《雷波工业集中区总体规划环境影响评估报告》、《雷波工业集中区总体规划安评报告》、《雷波工业集中区产业规划》、《雷波工业集中区地质灾害评估报告》的编制工作，在2019年4月底完成各项报告书文本的评审和审批工作，6月前完成调整规划的所有工作。截止2018年底，园区聚集工业企业3户，其中规上工业企业3户，2018年园区规上工业企业工业产值21.34亿元，同比增长18.9%，营业收入22.88亿元，同比增长25%，实现利润1.7亿元，同比增长66.9%。
96	甘洛工业集中区	---	凉山彝族自治州甘洛县G245	102.797983,28.995413	凉山州	其他重点园区	工业园区	新材料	新材料、铅酸蓄电池、再生资源综合加工利用产业	甘洛工业集中区总体规划于2012年5月完成首次编制工作，通过州环保局规划环评审查，同年10月获凉山州人民政府批复。规划年限到2020年。园区按“一园四区”布局，总占地面积6021亩。其中：海棠金属、非金属材料综合利用产业园区，规划面积3400亩；田坝有色金属冶炼产业园区，规划面积823亩；新市坝有色金属加工产业园区，规划面积300亩；黑马新型工业项目预留发展产业园区，规划面积1498亩。2016年，甘洛县工业园区纳入《四川省产业园区创新改革发展规划(2016-2020年)》，同年8月24日成功申报省级特色产业基地，即有色金属循环产业园区(川经信办园区函[2016]28号)，并于纳入《凉山州产业园区创新改革发展规划纲要(2017-2020年)》。《甘洛县工业集中区总体规划》修编工作于2017年启动，于2019年1月13日通过了四川省环保厅组织的《甘洛县工业集中区总体规划(修编)环境影响评价报告》专家审查。《甘洛工业集中区总体规划》于2019年3月8日通过专家组的评审。新规划调整为“一区两园”，即一区为：甘洛县工业集中区，两园为：西桥工业园区和正西工业园区，园区成片集中发展。控制总面积为6021亩。新规划定位调整为以铅酸蓄电池制造，再生资源综合利用，石墨、硅基绿色新材料加工，矿产品采选冶炼加工为主导产业。其中，西桥工业园区以发展金属冶炼加工，研发硅材料为主的新型有色金属材料，废弃资源综合利用为主导产业，兼顾发展非金属矿产品冶炼加工产业。正西工业园以发展铅酸蓄电池生产及配套产业，废旧铅酸蓄电池回收处置，碳素、石墨新材料加工、再生资源综合利用为主导产业，兼顾培育有色金属采选。本轮规划目标以建设“生态工业、循环工业、协调工业、特色工业”的理念为指导思想，工业园区用地布局尊重甘洛产业布局的现状，充分利用地形地貌与周边交通基础设施，确保土地资源的集约使用。完善各级、各项公共服务设施配套，注重园区环境建设，严格控制各产业的环境控制指标。产品包括铅酸蓄电池生产规模1300万干伏安时，再生铅30万吨/年。碳素、石墨等新材料产业，年产量10万吨以上。截止2018年底，园区聚集工业企业3户，其中规上工业企业3户，2018年园区规上工业企业工业产值4.7亿元，同比增长53.85%，营业收入3.85亿元，同比增长46.39%，实现利润0.48亿元，同比增长25%。
97	会东特色产业循环经济园区	---	会淌公路北100米会东县青年人才公寓附近	102.599088,26.626587	凉山州	其他重点园区	高新区	清洁能源	清洁能源开发利用、有色金属加工、现代物流产业	会东特色产业循环经济园区管理委员会位于凉山州会东县。于2008年经六届州委第34次常委会决定批准由“会东县城北轻工业集中区管理委员会”更名为“会东县工业集中区管理委员会”。2015年底，园区正式组建班子，园区现已初步形成了“一园八区”的产业布局雏形，即大桥铅锌硫磷化工产业园区、松坪金红石产业园区、淌塘铜矿产业园区、姜州综合产业园区、鲁南清洁能源产业园区、新东现代物流园区、小岔河农特产品加工园区和小尖山环保生态园区，园区规划面积11.01平方公里，建成区面积4.9平方公里。截止2018年底，园区聚集二业企业8户，其中规上工业企业8户，2018年园区规上工业企业工业产值17.08亿元，同比增长23.21%，营业收入16.13亿元，同比增长17.58%，实现利润6.47亿元，同比增长23.81%。园区已被四川省经济和信息化委员会确定为四川省特色产业基地（第二批）
98	成都·凉山工业园区	---	凉山彝族自治州马道街道G108	102.215953,27.930271	凉山州	其他重点园区	工业园区	农产品精深加工,医药健康	农副产品精深加工、生物医药为主导，大力发展教育产业、商贸物流	园区地处西昌市西北部，紧邻中心城区，规划总面积约21.98平方公里。通过几年的建设，园区已形成了以农副产品、食品、医药、烟草、金属结构加工及设备制造的产业格局。2011年，园区成功跨入四川省成长型特色产业园区行列，并被确定为省级重点培育产业园区。为构建区域合作、产业互补、项目建设平台和载体,按照成凉合作总体框架和战略部署，2009年7月以原西昌北工业集中发展区为起步区正式建立成都•凉山工业园区。园区用地范围东沿山脚、西以雅攀高速公路为界、南以北外环线为界、北以安宁大塘河为界。依据《西昌市城市总体规划(2010-2030)》,安宁组团的发展定位为：重点发展物流配送、新型制造、流通加工、金融服务等多种功能，构建综合型现代产业园区。产业发展定位为：以一类工业和二类工业为主，以农副产品精深加工业为主导产业，以医药制造业、食品饮料业为支柱产业。截止2018年底，园区聚集工业企业29户，其中规上工业企业21户，2018年园区规上工业企业产值84.91亿，同比下降4.02%，营业收入27.21亿，同比增长4.49%，实现利润1.3亿，同比增长25%。
99	四川冕宁稀土经济开发区	S517129	四川省凉山彝族自治州冕宁县·冕宁稀土工业园区(108国道东)	102.187918,28.422396	凉山州	省级园区	经开区	---	稀土、建材产业	四川冕宁稀土经济开发区位于凉山州冕宁县,北距省府成都340公里，南距州府西昌80公里，是攀西战略资源创新开发试验区核心区域，县域经济重要增长极。成立于2007年12月，2018年2月纳入《中国开发区审核公告目录》省级开发区名录，公告目录中开发区核准面积118.84公顷，2019年1月四川省人民政府正式批复为省级经济开发区。园区规划面积27.23平方公里，其中工业用地面积13.67平方公里。四至范围稀土及伴生矿标准化采选区，东至森荣乡牦牛坪村6组，西至牦牛坪村7组，南至牦牛坪村7组，北至牦牛坪村6组；稀土及伴生矿应用深加工区，东至木梳山脚、西至安宁河、南至石龙镇双桥村、北至复兴镇镇区；辅助产业及物流区，东至清泉村、南至卫星村三组和西河村、西至胜利村、北至阁里村。开发区按产城一体与城乡规划建设，开发区（核心区）要素保障完善，建成配套道路6公里、110KV和35KV变电站各一座、9000吨/天供水厂一座、3000吨/天污水处理厂一座、18万立方米LNG燃气储配站、酸碱储配站、稀土检测中心等配套要素。截止2018年底，园区聚集工业企业23户，其中规上工业企业11户，规上工业企业产值23.42亿元，同比增长13.79%,营业收入27.38亿元，同比增长23.7%,实现利润2.93亿元，同比增长57.5%。园区先后被授予“四川循环经济示范园区”、“四川省特色高新技产业化基地”。
100	四川德昌特色产业园区	S519127	凉山彝族自治州德昌县京昆高速与Y026交叉路口往西北约190米	102.226531,27.395255	凉山州	省级园区	工业园区	智能装备	装备制造、稀土、钒钛产业	四川德昌特色产业园区位于凉山州德昌县，是攀西国家级战略资源创新开发试验区的重要组成部分。园区成立于2005年7月，规划面积2369公顷。2018年初，园区核心建成区230.78公顷纳入2018年版《中国开发区审核公告目录》，目录中的名称为四川德昌特色产业园区。2019年1月25日，四川省人民政府正式发文（川府函[2019]20号）同意设立四川德昌特色产业园区为省级开发区。四川德昌特色产业园区核心区域面积142.3公顷，四至范围为：东至银厂村六社，南至新店子河沟，西至G5京昆高速公路，北至卡子房河沟。园区基础设施完善，配套建成日供水5000立方米净水厂一座，220变电站一座，110变电站一座，铺设供水管道27446米，建成道路4.6公里，建成标准化厂房8万平米，收储土地3000亩，基本实现雨污分流,电力、电信、有线电视全覆盖，园区道路通畅，实现七通一平。截止2018年底，园区聚集工业企业69户，其中规上工业企业26户,2018年园区规上工业企业工业产值27.89亿元,同比增长8%，营业收入30.57亿元，同比增长8%，实现利润3.22亿元，同比增长8%。
101	四川古蔺经济开发区	S517058	泸州市古蔺县金兰大道(雅兰居东北侧约50米)	105.813822,28.049792	泸州市	省级园区	经开区	优质白酒	酿酒产业	四川古蔺经济开发区于2011年2月经古蔺县人民政府批准成立（古府函[2011]31号），位于古蔺县二郎镇、规划面积约172.45公顷，主要依托龙头企业四川郎酒集团引领发展，着力发展白酒酿造及关联配套产业。该批准区域包含3个地块，其中：地块一129.60公顷（四至范围：东邻赤水河，南靠二郎镇鱼塘村，西接二郎镇黄金村，北依赤水河）；地块二20.90公顷（四至范围：东邻二郎镇黄金村，南靠二郎镇鱼塘村，西接二郎镇鱼塘村，北依二郎镇黄金村）:地块三21.95公顷（四至范围：东邻赤水河，南靠二郎镇黄金村，西接二郎镇黄金村，北依赤水河）o2012年6月中共泸州市委机构编制委员会同意设立古蔺经济开发区管理服务机构（泸编发[2012]40号）。2012年，我县为实现产业绿色发展，积极引导企业向园区集中发展壮大、做大做强，打造优势产业聚集区，2012年10月，经古蔺县委常委会、县政府常务会审议，原则同意古蔺经济开发区规划区域在原有（172.45公顷）基础上拓展开发区区域范围，按照“一区四园”（二郎名酒园、东城农产品加工产业园、永乐白酒园和水口酱酒园既古蔺酱酒文化产业园）的空间布局进行规划，着力打造以酱酒生产、销售为主导，生物医药、农特产业、仓储物流、电子商务同步发展的百亿特色产业园区。截止2018年底，园区聚集工业企业35户，其中规上工业企业17户，2018年园区规上工业企业工业产值135.3亿元，同比增长14.4%,营业收入164.8亿元，同比增长16%,实现利税18.16亿元，同比增长16.6%。2016年国家六部委联合启动了《中国开发区审核公告目录》修订工作，古蔺经济开发区以2011年古蔺县人民政府批准的172.45公顷范围申报纳入《中国开发区审核公告目录》，于2018年2月经国务院批准，成功纳入《中国开发区审核公告目录》（2018年版），开发区主导产业为酿酒。
102	泸州航空航天产业园区	---	四川省泸州市泸县玻璃大道与和平街交叉口东北方向40米	105.491124,29.056512	泸州市	其他重点园区	高新区	智能装备	高端装备制造、生产性服务产业	泸州航空航天产业园区位于泸州市泸县，是长江上游重要港口城市，川渝滇黔结合部区域中心城市。成立于2016年5月，规划面积80平方公里，建成区面积3.717平方公里。四至范围（具体以界址点坐标控制）：东至泸渝高速：3221257.542593、南至龙马潭公园：3201788.548389,西至原321国道：3215320.540319,北至225乡道：3212046.550054o航空园区按产城一体与城市规划建设，配套建设有110KV变电站、航天一路、航空路、G8515高速连接线、产业孵化器、人才公寓等基础设施。截止2018年底，园区聚集工业企业75户，其中规上工业企业68户，2018年园区规上工业企业工业产值166.5亿元，同比增长28.6%,营业收入185亿元，同比增长29.5%,实现利税13.8亿元，同比增长28.2%。
103	四川叙永资源综合利用经济园区	S519057	泸州市叙永县环城北路103	105.439094,28.177487	泸州市	省级园区	经开区	绿色化工	非金属矿物制品、竹木制品、农副食品产业	四川叙永资源综合利用经济园区位于泸州市叙永县，叙永县重要经济增长极，地处成都至贵阳，重庆至昆明两大轴线交汇点，与云南省威信县、镇雄县和贵州省赤水市、毕节市接壤，素有“川南门户”“鸡鸣三省”之称，自古以来就是西南出海的重要通道、川滇黔三省交通要冲和重要物资集散地，也是四川省规划“五大经济环线的川南环线、白酒金三角环线”和攀西-六盘水经济圈通道发展轴上的重要节点。成立于2011年12月，规划面积为16.87平方公里，建成面积2.57平方公里，2019年经省政府批准为省级开发区。四至范围：江门农副产品加工集中区北和东至永宁河,西至石岗村，南至竹林村和光照村；龙凤中小企业创业与服务区北至西沟头，东以川黔高速公路为界,西至水井湾、黄桷沱、湾沱、新屋基,南至孙家坝、诚马福沟；兴隆矿产品加工集中区西至纳叙铁路和南北向的产城大道（321国道），北和东侧以川黔高速公路为界，南至兴隆乡大竹村；震东建材工业集中区规划区用地涉及正东镇场镇南北端的六方沟、水井湾和灯盏坪用地，西侧紧邻纳黔高速公路，南侧紧邻叙古高速公路。按产城一体与城市规划建设，配套建设产城大道、郎玻道路、竹浆环厂公路以及2个3.5KVA变电站等基础设施。截止2018年底，园区聚集工业企业25户，其中规上工业企业16户，2018年园区规上工业企业工业产值26.4亿元,同比增长18.6%,营业收入26.1亿元，同比增长20%,实现利税1.1亿元，同比增长15%。2016年，叙永园区获批四川省特色产业基地（第一批）——“四川省特色产业（农产品加工）基地”称号。
104	泸州国家高新区江南科技产业园	---	泸州市江阳区荆山路5号	105.434346,28.84479	泸州市	其他重点园区	高新区	节能环保,软件与信息服务,医药健康	新一代信息技术、生物医药、节能环保产业	泸州国家高新区江南科技产业园位于泸州城南副中心，是泸州城南综合商业中心，地处成渝经济圈。成立于2008年3月，规划面积15.87平方公里，建成区面积7平方公里。四至范围（具体以界址点坐标控制）:东至城南路，西至机场路延伸线，南至宜泸渝高速，北抵融豪翡翠城最北端。江南科技产业园按产城融合、产城一体、二三产业联动规划建设，配套有人才公寓、创新创业中心等基础设施。截止2018年底，园区聚集工业企业148户，其中规上工业企业26户，2018年园区规上工业企业工业产值18.9亿元，同比增长97.91%,营业收入303.7亿元，同比增长49.48%,实现利税4.01亿元，同比增长11.38%。 园区先后被授予“国家火炬泸州江阳中医药特色产业基地”、“四川省小企业创业基地”、“四川省招商引资重点推荐园区”、“四川省现代服务业集聚区”、“四川省新型工业化产业示范基地”。
105	四川泸州纳溪经济开发区	S517054	泸州市纳溪区人民西路三段	105.364453,28.767979	泸州市	省级园区	经开区	新材料,农产品精深加工,精制川茶	化学制品、酿酒、饮料、非金属矿物制品产业	四川泸州纳溪经济开发区位于泸州市纳溪区，其前身为泸州化工园区，规划面积14万平方公里，建成区面积2.7平方公里，下含原泸州化工园区、石龙岩现代商贸物流产业园和泸州静脉产业园三大版块；地处成渝经济圈和成德绵高新技术产业带，2017年7月，经泸州市人民政府同意，更名为泸州纳溪经济开发区，2018年泸州纳溪经开区又成功列入《中国开发区审核公告目录》（2018版），2019年经省政府批准为省级开发区。四至范围:开发区规划总面积为1400公顷，规划建设用地面积为275.3869公顷，共涉及4个地块，东片区地块一194.7308公顷，东至永宁街道朱坪村、棉花坡镇安富村、南至永宁街道永宁路社区、朱坪村，棉花坡镇安富村，西至永宁街道人民路社区，北至泸天化股份有限公司生产厂区、永宁街道朱坪村；西片区地块二54.5066公顷，东至安富街道百梯社区、新乐镇桂花村，南至新乐镇桂花村、泸天化绿源醇库区，西至新乐镇桂花村,北至至安富街道上坝社区；西片区地块三12.7517公顷，北至安富街道百梯社区，东至安富街道炳灵村，南至四川煤气化有限责任公司生产厂区，西至新乐镇桂花村；西区地块四13.3978公顷，北至新乐镇石龙村，东至新乐镇石龙村，南至新乐镇石龙村，西至新乐镇石龙村。助力纳溪建设现代生态新城，经开区按产城一体与城市规划建设，配套建设有110KV河西变电站、220KV长安变电站各一座、1亿方化二园区西区天然气配气站一座，完善了园区路网建设,实现“八通一平“，建设人才公寓等基础设施，着力打造长江上游转型发展示范园区、长江上游现代物流产业园。截止2018年底，园区聚集工业企业80户，其中规上工业企业45户，2018年园区规上工业企业工业产值81.1亿元，同比增长10%,营业收入125.6亿元，同比增长10%,实现利税1.75亿元，同比增长10%。园区被授予国家化工新材料高新技术产业化基地、四川省新型工业化产业示范基地、四川省培育成长型特色产业园区、四川省高校毕业生创业园区、四川省科技企业孵化器、泸州市资源枯竭城市转型发展示范园区，四川省特色高新技术产业化基地。
106	四川泸县经济开发区	S517055	泸州市泸县金鹏路与康乐大道交叉路口往北约120米	105.356159,29.148731	泸州市	省级园区	经开区	绿色化工,新材料,优质白酒	食品饮料、新一代信息技术、新材料产业	四川泸县经济开发区位于泸州市泸县，地处成渝经济圈。其前身为泸县中小企业创业园，成立于2006年,2019年1月被四川省政府批复为省级经济开发区，规划面积20平方公里，建成区面积6.5平方公里：其中城西工业园规划面积10平方公里，建成区面积5.5平方公里；临港产业园规划面积10平方公里，建成区面积1平方公里。四至范围（具体以界址点坐标控制）:城西工业园东至玉蟾街道三和街、明星路，南至小鹿溪河，西至龙城大道，北至玉蟾大道；临港产业园东至太伏镇五里村干丘榜，北至太伏镇新石村尖山子，南至长江，西至长江和神仙桥码头。园区按产城一体与城市规划，建设有110KV变电站、35KV变电站、天然气配气站、污水处理厂、自来水厂、标准化厂房、人才公寓等基础配套设施。截止2018年底，园区入驻企业555家，建成运行545家，其中工业企业290户，规模以上工业企业100户。园区实现主营业务收入368亿元，增长16.68%；入库税金5.46亿元，增长18.52%；完成固定资产投资40.29亿元；解决就业20000余人，实现工资性收入8.2亿元。园区先后被授予“首批四川省小企业创业基地”、“四川省省级大学生创新创业园区”、“四川省百亿园区”、“四川省“归雁经济”示范园区”、“四川省工业强县示范县示范园区”、“四川省高校毕业生创业园区”、“四川省承接产业转移优秀园区”。
107	四川泸州白酒产业园区	S519053	泸州市江阳区通汇路	105.569892,28.881476	泸州市	省级园区	工业园区	节能环保,农产品精深加工	酿酒、印刷、包装产业	四川泸州白酒产业园区位于泸州市江阳区黄舣镇，是泸州市重要经济增长极，地处成渝经济圈和成德绵高新技术产业带。成立于2006年6月，规划面积82平方公里，建成区面积6.8085平方公里。2019年经省政府批准为省级开发区。四至范围：江阳区黄取成品基地东至黄舣镇永兴村、省道308,南至黄舣镇三潭村、龙湾村，西至黄舣镇龙头铺村、成自泸赤高速公路，北至黄舣镇界牌村、沿江公路。园区按产城一体与城市规划建设，配套建设有110KV变电站、污水处理厂、科技孵化器、人才公寓等基础设施。截止2018年底，园区聚集工业企业95户，其中规上工业企业77户，2018年园区规上工业企业工业产值365.2亿元，同比增长18.7%,营业收入710.4亿元，同比增长26.3%,实现利税112.2亿元，同比增长24.2%。园区先后被授予“国家新型工业化产业示范基地（食品、名优白酒）”、“国家中小企业公共服务示范平台”、“全国产业集群区域品牌建设白酒产业试点地区”、“浓香型白酒综合加工产业全国知名品牌创建示范区”、“四川省51025重点产业园区”、“四川省小企业创业基地”、“四川省循环经济试点园区”、“四川省文化产业示范基地”、“四川省中小企业公共服务示范平台”、“四川省生产性服务业功能示范区”、“四川省生态工业园区建设试点单位”、“四川省新型工业化产业示范基地（食品、名优白酒）”、“四川省印刷复制示范基地”、“四川省知识产权示范园区”等。
108	泸州高新技术产业开发区	G512141	四川省泸州市江阳区酒谷大道五段17号	105.531889,28.866023	泸州市	国家级园区	高新区	智能装备,新一代网络技术	装备制造、新能源、新材料、医药产业	泸州高新技术产业开发区（以下简称泸州高新区）位于泸州市江阳区，是泸州市重要经济增长极，地处长江经济带和成渝经济圈。成立于1993年,2013年经省政府认定为省级高新技术产业园区，2015年2月经国务院批复正式升级为国家高新技术产业开发区，规划面积202平方公里。高新区按照“科技引领、产城一体”理念，形成“一核、两翼、多园”的空间格局，打造集科研孵化、产业发展、生态宜居等功能于一体的现代化科技产业新城。“一核”即位于龙马潭区4.62平方公里的核心区。“两翼”即江阳片区和泸县片区两大板块。“多园”，即现代医药产业园、机械装备产业园、新能源新材料产业园、智能制造产业园、大数据产业园、江南科技园、纳溪科技园、合江生态工业园等六个特色产业园区。泸州高新区水电气等要素配套完备，建设有政务服务中心、众创中心、孵化器、人才公寓、标准化厂房等设施，为企业入驻提供优质体验，为企业发展提供优质平台。截止2018年底，园区聚集工业企业320户，其中规上工业企业280户，2018年园区规上工业企业工业产值599.3亿元，同比增长17.04%,营业收入920亿元，同比增长19.5%,实现利税53.94亿元，同比增长11.86%。泸州高新区被授予“长江经济带国家级转型升级示范区、国家火炬特色产业基地、国家高性能液压件高新技术产业化基地、国家液压产业集群示范基地、国家循环化改造示范试点园区、国家绿色园区、泛珠三角区域工业和信息化合作创新发展示范试点园区、资源枯竭城市示范园区、四川省新型工业化产业示范基地、四川省特色产业示范基地、四川省培育成长型特色产业园区、四川省知识产权试点园区”。
109	四川合江临港工业园区	S519056	四川省泸州市合江县临港工业园区(川江路北)	105.916675,28.839794	泸州市	省级园区	工业园区	智能装备,绿色化工,新材料	化工、食品饮料、新材料产业	四川合江临港工业园区位于泸州市合江县，是泸州市重要经济增长极，位于川渝黔结合部。成立于2008年4月，规划面积18.56平方公里，建成区面积8.4平方公里，2019年经省政府批准为省级开发区。四至范围（具体以界址点坐标控制）:北部片区四至范围东以产城大道（G353）为界，南至吸泥河，西至长江，北以成渝高速（G93）和合力水库下游河道为界。南部片区四至范围东以产城大道（G353）为界，南至总体规划确定的城市用地边界，西以长江为界，北部临榕山镇区。经开区按产城一体与城市规划建设，配套建设有110KV变电站、污水处理厂、科技孵化器、人才公寓等基础设施。2015-2018年成功引进中南新材料PC改性项目、有机液生产基地建设项目、油脂化学品生产项目等一批重特大项目，聚碳、金田、华艺等一批重点项目建成投产。截止2018年底，园区聚集工业企业171户，其中规上工业企业72户，2018年园区规上工业企业工业产值145亿元，同比增长11.32%,营业收入224.5亿元，同比增长11.5%,实现利税19.16亿元，同比增长11.2%。园区先后被授予“全国首批循环经济”试点园区、“1525”成长型特色产业园、“省级小企业示范基础”园区、“高校毕业生创业”园区，2018年纳入《中国开发区审核公告目录》。
110	四川青神经济开发区	S517096	四川省眉山市青神县星城街59号	103.852462,29.849043	眉山市	省级园区	经开区	绿色化工	机械、日用化工产业	四川青神经济开发区位于眉山市青神县，是眉山市重要经济增长极，地处成渝经济圈和成绵乐经济发展带，属天府新区辐射区。成立于2006年4月，于2018年2月列入《中国开发区审核公告目录》（2018年版），2019年1月由省人民政府批准设立省级开发区，规划面积6.3平方公里，建成区面积2.5平方公里。核准面积1.52平方公里，由机械产业园区、丹甫组团和立白组团构成，四至范围：机械产业园区东至机械大道，南至锦绣大道，西至青城镇游滩村，北至黑龙镇高墩村；丹甫组团东至丹黑路，南至黑龙镇鸿化村，西至旧眉青路，北至丹甫大道；立白组团东至黑龙壕，南至黑龙镇桥楼村，西至鸿化堰，北至黑龙镇龙女村。经开区按产城一体与城市规划建设，配套建设有110KV变电站两座、污水处理厂、企业孵化园、天然气配气站等基础设施。截止2018年底，园区有规上工业企业44户，2018年实现工业总产值93亿元，税收3.25亿元。园区先后被授予“四川省高新技术产业化基地”“四川省小企业创业基地”和“四川省知识产权试点园区”。
111	四川仁寿经济开发区	S517093	眉山市仁寿县迎宾大道利民公寓东南侧约40米	104.156844,29.987732	眉山市	省级园区	经开区	智能装备,新一代网络技术,软件与信息服务,集成电路与新型显示,农产品精深加工	电子信息、农副产品加工、建材产业	四川仁寿经济开发区位于眉山市仁寿县，是眉山市重要经济增长极，地处成渝经济区“两核五带”核心区，紧邻规划建设中的四川自贸区，距双流国际机场70公里，距天府国际机场30公里。成立于2006年5月，经眉山市政府确定为市级重点工业园区，规划面积25.5平方公里，建成区面积4.8平方公里。四至范围（具体以界址点坐标控制）：A区北起迎宾大道中段（国道213线城区段，下同），南至遂资眉高速及规划雅遂铁路,东起仁富路，西至迎宾大道南段；B区东至富家镇坳店村，南至石咀乡河坝村，西至宝马镇高照村，北至富家镇音唐村。园区按产城一体与城市规划建设，建成陵州大道、电商物流大道、园区南路、园区中路、园区北路、创业路、园区大道、工业大道、信利大道、文寿路、产业大道、富国路等道路并配套了雨污管道，基本形成了“四纵四横”的市政道路交通网络。电力保障能力大幅增强，建有110KV仁寿变电站和110KV红星变电站。建成日产1万方的自来水厂1座，由仁寿县张家湾水厂统一供给，可满足园区供水需求。北部枣林坝储备站为开发区提供稳定气源，配气规模为15万Nm3/d。建有两处污水处理厂，一区处理能力4.5万m3/d,三区处理能力3万m3/d。电信、联通、移动、有限电视机构齐全，通讯设施完善。截止2018年底，园区有规模以上工业企业35户，2018年实现工业总产值44.27亿，税金3.55亿。园区先后被授予“四川省小企业创业基地”、“四川省农产品加工示范基地”、“成渝经济区最具投资价值产业园区前十强”。
112	四川眉山经济开发区	S517034	四川省眉山市东坡区金象大道4号	103.80915,30.060038	眉山市	省级园区	经开区	医药健康,农产品精深加工,新材料	非金属新材料及其制品业，生物医药、机械电子、现代物流产业，泡菜食品产业	眉山经济开发区是四川省重点经济开发区，经四川省人民政府2000年4月批准成立。眉山经济开发区由西区和东区组成，位于眉山市东坡区境内，园区重点发展医药化工、机械电子、泡菜食品等产业。眉山经济开发区西区即现有的眉山经济开发区新区和眉山金象化工产业园区，其规划范围为：北至眉山经开区新区科工园北路，转沿24号路经12号路；南至金象化工园区16号路；西至工业环线，转沿眉山经开区新区1号路经4号路；东沿成乐高速，经金象北路转延成昆铁路。规划总用地面积为20.09平方公里，西区规划区涉及东坡区尚义、象耳、白马、悦兴4个乡镇。眉山经济开发区东区即现有的眉山中国泡菜城，其规划范围为：西以岷江为界，北至崇礼大道，南以规划的新省道106为界，东以岷东大道为界。规划总用地面积为13.61平方公里，东区规划区涉及东坡区崇礼、永寿2个乡镇。眉山经济开发区于2000年4月成立，成立之初规划面积仅有1.2平方公里，成立之初位于眉山西北片区（原眉山科工园），由于眉山城市发展速度超过预期、城市区域格局发生重大变化。原眉山经济开发区用地逐步更新为现代城市居住社区，因此原眉山经济开发区需迁出城区。为更好地促进工业发展，统筹基础设施建设，节约资源，推进工业向集中区聚集，加快新型工业化建设，培育城市主导产业，2016年眉山市对眉山经济开发区进行扩区调位，将四川眉山经济开发区东区（中国泡菜城）纳入为眉山经济开发区，并对其进行扩区调位。扩区调位后的眉山经济开发区由西区和东区组成，规划总面积为33.7平方公里。
113	四川彭山经济开发区	S517035	四川省眉山市彭山区青龙街道工业大道669号	103.861879,30.313756	眉山市	省级园区	经开区	智能装备,新材料	精细化工、新材料、装备制造产业	四川彭山经济开发区位于眉山市彭山县，是眉山市重要经济增长极，地处成渝经济圈和成德绵高新技术产业带。于2006年获批省级开发区，规划面积42.8平方公里，建成区面积103平方公里。四至范围（具体以界址点坐标控制）:东至双流区、牧马镇、武阳乡，南至观音镇，西至公义镇、保胜乡，北至新津县。经开区按产城一体与城市规划建设，配套建设有110KV变电站、污水处理厂、科技孵化器、人才公寓等基础设施。截止2018年底，园区有规上工业企业66户，2018年实现工业总产值201.3亿元，税收5.29亿元。园区先后被授予“1525工程”培育园区、“51025重点产业园区”、“中西部消费类电子”园区，“四川知识产权试点园区”“四川省信息安全示范园区”“四川省新型工业化产业示范基地”“四川特色产业基地”。
114	甘孜-眉山工业园区	S519092	眉山市东坡区铝硅大道中段瑞祥商厦西侧约140米	103.759338,30.000795	眉山市	省级园区	工业园区	新能源与智能汽车,新材料	有色金属、新能源、新材料产业	甘眉工业园区是甘孜州、眉山市两地人民政府合作，在原眉山铝硅产业园区的基础上，甘孜、眉山两州市认真践行“创新、协调、绿色、开放、共享”五大发展理念，深入贯彻落实省委“三大发展战略”，创新区域合作机制，共同组建的藏区“飞地”园区——甘眉工业园区，建园以来大力发展新型工业，取得了阶段性成效。《中国开发区审核公告目录》(2018年版)总规划面积38.5平方公里，已建成7平方公里。甘眉工业园区规划范围东至成乐高速，南至成昆铁路及遂资眉高速，西抵通济堰，北至白马镇郭大塘；主导产业为有色金属，新能源、新材料；甘眉工业园区南区规划范围东至成昆铁路，南至蒲井高速，西至工业大道，北至遂资眉高速；主导产业为高端装备制造业。甘眉工业园区路网完善，建有甘眉大道、康定大道、铝硅大道等“四横三纵一环线”二十余条园区公路、成昆铁路鲜滩、思蒙等2座火车站和3条铁路专线；具备48000方/日的工业供水、9000方/日的生活供水；甘眉工业园区5000方/日污水处理一期工程已建成投用，5000方/日二期工程已建设完工，目前正在调试阶段，同时配套建设处理能力10000方/日的人工湿地，经处理后尾水主要污染物指标达到《地表水环境质量标准》(GB3838-2002)中III类水的要求；甘眉工业园区南区11000方/日污水处理厂一期5000方/日工程已开工建设，2018年12月投入使用；园区紧邻500KV东坡变电站，建有220KV变电站1座，110KV变电站2座。截止2018年底，园区有规上工业企业39户，2018年实现工业总产值161亿元，同比增长47%，税收1.74亿元。四川省“51025”重点产业园区、四川省50个培育成长型特色园区之一、四川知识产权试点园区。
115	四川洪雅经济开发区	S517094	四川省眉山市洪雅县	103.401457,29.895293	眉山市	省级园区	经开区	智能装备,集成电路与新型显示,农产品精深加工	食品、机械、电子、新能源汽车和新材料产业	四川洪雅经济开发区位于眉山市洪雅县域东北部。成立于2006年,规划面积13.7平方公里,建成区面积3.5平方公里，主要有止戈、将军、金沙坝三个产业片区。四至范围：止戈片区东至乐雅高速入口，南至乐雅高速,西至遂资眉高速，北至西环线快速通道；将军片区东、南以青衣江为界，西区临近乐雅高速，北至将军街；金沙坝片区东至大唐发电有限公司尾水渠，西、北、南区域临近青衣江。洪雅县委、县政府坚定实施“工业强县”发展战略，重视园区基础设施建设，已建成配套设施有110KV变电站、35KV变电站、天然气储配站、公租房,正在建设中配套设施有工业污水处理厂、小微企业产业园、标准化厂房等基础设施。截止2018年底，园区有规上工业企业22户，2018年实现工业总产值29.8亿元,税收1.58亿元。园区先后被授予“四川省循环经济试点园区”、“四川省中小企业创业基地”、“四川省电力站园直供电试点园区”、“眉山市知识产权工作站”。
116	四川丹棱经济开发区	S517095	眉山市丹棱县机械西路一段大雅华府东侧约170米	103.532259,30.025681	眉山市	省级园区	经开区	智能装备,新材料	机械、建材、新材料产业	丹棱县位于成都平原西南边缘，北与成都市蒲江县、东与眉山市东坡区相邻，地处成都一小时经济圈，位于天府新区全域协调区、成渝经济区中心区、成绵乐发展带。丹棱工业园区创建于2003年3月，2006年被确定为市级产业园区。2018年2月26日，正式纳入《中国开发区审核公告目录》，开发区名称为“四川丹棱经济开发区”。园区规划总面积10.92平方公里，建成区面积2.2平方公里，核准面积185.42公顷，分为A、B两个区域，A区四至范围：区块一东至丹棱大道，西至兴业路，南至丹棱河，北至G351线；区块二东至兴达路，西至丹棱大道，南临丹棱河，北至G351线。B区四至范围：区块一东至B区区块2,西至大兴村5组，南至石马村6组，北至石马村7组；区块二东至丹夹路，西至B区区块1,南至丹夹路园区连接线，北至石马村7组；区块三东至丹夹路，西至大兴村5组，南至石马村5组，北至丹夹路园区连接线。园区按产城一体与城市规划建设,配套建设有110KV变电站、污水处理厂、科技孵化器、人才公寓等基础设施。截止2018年底，园区有规上工业企业34户，2018年实现工业总产值34.9亿元，税收1亿元。园区先后被授予“省级中小企业创业示范基地”、“四川省陶瓷建材产业知名品牌创建示范区”。
117	天府新区仁寿视高经济开发区	---	四川省眉山市仁寿县兰磨线视高街道	104.081849,30.248342	眉山市	其他重点园区	经开区	新一代网络技术,软件与信息服务,大数据,集成电路与新型显示,智能装备	电子信息、装备制造、机械制造产业	天府新区仁寿视高经济开发区位于眉山市仁寿县，是眉山重要经济增长极，地处成渝经济圈和成德绵高新技术产业带。成立于2006年5月，规划面积50.4平方公里，建成区面积7平方公里。四至范围（具体以界址点坐标控制）:东至樊家院子、天花板和徐家祠一线，南至老君寺、乌龟山和帽顶山一线，西至视高镇边界,北至邱家堰、陶家山和庙儿山一线。经开区按产城一体与城市规划建设，配套建设有110KV变电站、污水处理厂、科技孵化器、人才公寓等基础设施。截止2018年底，园区有规上工业企业56户，2018年实现工业总产值186.7亿元，税收6.82亿元。园区先后被授予“四川省‘51025'重点产业园区”、“省级知识产权试点园区”、“省级知名品牌示范园区和成渝经济区最具投资价值产业园区”。
118	四川梓潼经济开发区	S517067	绵阳市梓潼县文昌路南段988号	105.164062,31.625716	绵阳市	省级园区	经开区	智能装备,农产品精深加工	食品、轻纺、机械产业	四川梓潼经济开发区位于绵阳市梓潼县，是绵阳市重要经济增长极，地处成渝经济圈和成德绵高新技术产业带。成立于2002年4月，于2014年7月获批省级开发区，幅员面积10.05平方公里（现已启动扩区调位工作，调位后幅员面积能达到11.16平方公里），其中：核准区域4.17平方公里,建成区域2.75平方公里。辖2村1社区，总人口12740人。四至范围：东至潼江河、南至长交路和污水处理厂、西至长卿山和白家湾、北至白虎嘴，包括南桥村、幸福村和长卿镇石河村部分区域。经开区按产城一体与城市规划建设，配套建设有110KV变电站、污水处理厂。科技孵化器、人才公寓等基础设施。截止2018年底，园区聚集工业企业90户，其中规上工业企业41户，2018年园区规上工业企业工业产值72.8亿元,同比增长18.37%，营业收入68.99亿元，同比增长10.03%，实现利润1.23亿元，同比增长9.17%。2016年3月被省台办批准设立“绵阳台商产业园”；2016年9月被市委、市政府命名为“绵阳生物医药产业园”。先后荣获"全国食品工业强县”“全国生态食品县”“全国农村中医药工作先进单位”“全国农产品加工创业基地”“四川省农产品加工示范基地”等荣誉。
119	四川北川经济开发区	S517068	绵阳市北川羌族自治县望崇街北川羌族自治县永昌中学东侧约290米	104.480863,31.609825	绵阳市	省级园区	高新区	新材料,软件与信息服务	电子、新材料、食品产业	四川北川经济开发区位于绵阳市北川羌族自治县永昌镇，于2012年6月获批省级开发区，规划面积12.87平方公里，建成区面积1.2平方公里。四至范围：东临永昌镇东鱼村蒋家河，西临安昌镇宝林村核桃树梁子，南临永昌镇常乐村三组五仙庙，北临安昌镇双龙村。截止2018年底，园区聚集工业企业61户，其中规上工业企业24户，2018年园区规上工业企业工业产值15.89亿元，同比增长26.61%，营业收入15.4亿元，同比增长21.55%，实现利润0.64亿元，同比增长8.47%。2016年8月被国际通用航空协会（中国区）授予国际通用航空协会（中国区）常务理事单位;2017年7月被国家体育总局，国家发展和改革委员会，中国民用航空局，国家旅游局授予国家航空飞行营地示范单位。
120	四川盐亭经济开发区	S517066	绵阳市盐亭县盐蓬路	105.419689,31.195765	绵阳市	省级园区	经开区	智能装备,医药健康	医药、建材、机电产业	四川盐亭经济开发区位于盐亭县东南方向，与县城新区毗邻,地势开阔平坦，梓江纵贯园区，嫘祖大道、西陵大道贯通全境，成德南高速公路跨穿园区，距成都约1小时、西安3小时车程，交通便利，区位优势明显。幅员面积21.95平方公里，控制性详细规划面积14.36平方公里，规划区四至范围为东至黄甸镇，南至天水村，西至巨龙镇，北至云溪镇。已建成经开区4.5公里生态河堤、25公里截污干管及汇入支管工程，经开区核心区留有成德南高速公路出口，主干道嫘祖大道、西陵大道及9条区间道路纵横交错形成约25公里路网体系，日处理5000吨污水工业污水处理厂已经建成并投运。截止2018年底，园区聚集工业企业51户，其中规上工业企业23户，2018年园区规上工业企业工业产值14亿元，同比增长24.88%，营业收入13.9亿元，同比增长37.38%，实现利润0.75亿元，同比增长124.14%。绵阳市经信委授予“绵阳（盐亭）生物技术特色产业园”，产业园现已入住新华康、美迪康、迪澳制药、天鸿生物科技等生物技术企业6户，医药产业集聚效应日益凸显。该特色产业园现已建成亚洲最大规模的柑橘类提取及衍生物研发、生产、出口基地，企业产品远销欧美。
121	四川三台工业园区	S519018	四川省绵阳市三台县樟树路北坝镇政府(彩虹城西)	105.105587,31.09911	绵阳市	省级园区	工业园区	智能装备,清洁能源,新材料,农产品精深加工,医药健康	服装、能源化工、食品产业	四川三台工业园区位于绵阳市三台县，是绵阳市重要经济增长极，地处成渝经济圏和成德绵高新技术产业带。1993年12月经原省计委批准为三台工业经济开发区，2006年4月经国家发改委批准更名为四川三台工业园区，2014年7月经省政府批准扩区调位，核准面积10.92平方公里，管辖面积47.67平方公里，建成区面积12.2平方公里，形成了梓州产城新区纺织服装和高端装备制造产业、芦溪工业区大健康食品医药产业、刘营工业区绿色装配式建材产业的集聚。四至范围（具体以界址点坐标控制）：扩区调位区域东至三射路、南起黄家坝凯江河，西起潼川镇长新村，北至潼川镇龙青村和盐井村；东至花园镇法源寺村、营城村，南起花园镇涪江河，西起花园镇涪江河，北至花园镇琴山村、涪江村。园区按产城一体与城市规划建设，配套建设有110KV变电站、污水处理厂、供气调压站、标准厂房、创新创业孵化园等基础设施。截止2018年底，园区聚集工业企业132户，其中规上工业企业71户，2018年园区规上工业企业工业产值88.8亿元，同比增长20.25%，营业收入88.99亿元，同比增长24.85%，实现利润9.15亿元，同比增长29.77%。园区被授予“国家农业科技园区（三台）麦冬大健康产业园”、“全国纺织产业转移试点园区”、“绵阳健康食品产业园”、“绵阳高端纺织服装产业园”。
122	四川绵阳工业园区	S519016	绵阳市安州区文胜路西段帝豪金城西北侧约50米	104.560744,31.536499	绵阳市	省级园区	工业园区	智能装备,软件与信息服务	电子信息、装备制造产业	四川绵阳工业园区位于绵阳市区西北部，紧临中国工程物理研究院、中国空气动力研究与发展中心，幅员面积12.89平方公里，界限范围：东起一环路涪江二桥段，西至绵广高速绵阳出口，南到高新区，北达主城区，是绵阳科技城创新驱动的引擎，军民融合的窗口，有着“创新高地智慧之芯”的美誉。园区作为全国唯一的国家级军转民科技园、四川省绵阳工业园区、国家级科技企业孵化器、国家科技创新创业基地、四川省电子商务示范基地、四川省科技服务集聚区，绵阳科创区立足城市核心区定位，坚持“科教并举、军地互动、产城相融，打造科技城中央创新产业园区”发展思路，走出一条新兴产业化与新型城市化互动的特色发展道路。截止2018年底，园区聚集工业企业100余户，其中规上工业企业15户，2018年园区规上工业企业工业产值31.7亿元，同比增长12.1%,营业收入56.5亿元，同比增长9.7%。2013年12月被国家科技部认定为国家级科技企业孵化器；2014年4月被四川省商务厅授予四川省电子商务示范基地；2015年4月被四川省商务厅授予四川省现代服务业科技服务集聚区；2016年12月被国家人力资源和社会保障部授予全国创业孵化示范基地。
123	四川绵阳安州工业园区	---	绵阳市安州区商贸路西段安州区界牌小学西南侧约210米	104.595284,31.502843	绵阳市	省级园区	工业园区	新能源与智能汽车,集成电路与新型显示,医药健康	精细化工、医药、汽车及零部件产业	四川绵阳安州工业园区位于绵阳市安州区，是绵阳市重要经济增长极，地处成渝经济圈和成德绵高新技术产业带。成立于2007年10月，于2010年7月获批省级开发区，近期规划面积8平方公里，建成区面积5.64平方公里，远期控制规划15平方公里（绵阳汽车产业园规划范围总面积约52.76平方公里）o近期规划四至范围：北至花荄镇雍歭村与黄土镇长征村交界，南至界牌镇石安村与永兴双土地交界，东至辽宁大道，西至雍歭、前进、西岩、永丰、金凤、竹林、石安山脚路，辖雍歭、前进、西岩、永丰、金凤、竹林、石站个村。四川绵阳安州工业园区按产城一体与城市规划建设，配套建设有110KV变电站2座，具备日供电288万干瓦时、日供水量1.4万吨、日供气10万立方米的保障能力。规划建设了汽车配件产业园中小企业创业园，现已建成7万平方米不同规格的标准化工业厂房。已建成配套公寓7万平方米，为企业高级管理人才提供办公、生活等综合配套服务。建成了3.5万平方米创业服务中心，为科技型小微企业提供孵化平台。截止2018年底，园区聚集工业企业249户，其中规上工业企业122户，2018年园区规上工业企业工业产值247.2亿元，同比增长23.22%，营业收入225.63亿元，同比增长24.18%，实现利润11.39亿元，同比增长13.13%。
124	中国（绵阳）科技城金家林总部经济试验区	---	绵阳市涪城区裕都大道绵阳二中金家林校区东南侧约90米	104.655723,31.520933	绵阳市	其他重点园区	经开区	智能装备,新一代网络技术	电子信息、高端装备制造产业	科技城金家林总部经济试验区（以下简称“园区”）成立于2010年4月，规划面积24.5平方公里。园区区位优势明显，位于绵阳市主城区中部偏西，与高新区、安州区交汇，是绵阳承载成德绵一体化发展的重要区域。（四至范围：东临科创园区，北接职教园区，南临安昌河并与高新区隔河相望，西侧邻近涪城区行政界线。）根据绵阳城市建设发展规划和科技城集中发展区规划，园区全域纳入科技城集中发展区，位于绵阳城市规划建设的新中心范围内，园区已按照高起点规划、高标准建设、高质量发展的新要求，全面拉开新一轮大开发。根据科技城建设的产业定位，园区正加快集聚发展现代金融、总部经济、信息安全、科技服务、军民融合、高端商住为主导的产业集群，将园区建设成为城市新中心、产城融合示范区。目前，园区的建成面积约5平方公里。截止2018年底，园区聚集工业企业44户，其中规上工业企业13户，2018年园区规上工业企业工业产值29.46亿元，同比增长23.6%，营业收入56.16亿元，同比增长16.4%，实现利润2.8亿元，同比增长16%。园区先后被授予"国家级科技企业孵化器”、“省级科技企业孵化器”、“省级大学生创新创业园区”、“四川省信息安全产业示范园区”、“省级版权示范园区”。
125	绵阳经济技术开发区	G511192	四川省绵阳市涪城区文武西路498号	104.775956,31.400981	绵阳市	国家级园区	经开区	软件与信息服务,新材料,农产品精深加工,优质白酒,精制川茶,医药健康,智能装备	电子信息、化工环保、生物医药产业	绵阳经济技术开发区是绵阳建设中国科技城和西部现代化强市,构建“一核两翼、三区协同”发展格局中“一核”的重要组成部分，为绵阳南主城区。成立于2000年8月，于2012年10月获批国家级开发区，规划面积10.47平方公里，管辖面积70平方公里，建成区面积21.5平方公里。四至范围（具体以界址点坐标控制）:片区东至小枧沟镇、南至塘汛镇桃源村、友谊村，西至绵阳南郊机场，北至绵阳安昌江。经开区按产城一体与城市规划建设，配套建设有110KV变电站、污水处理厂、科技孵化器、人才公寓等基础设施。截止2018年底，园区聚集工业企业641户，其中规上工业企业77户，2018年园区规上工业企业工业产值114.95亿元，同比增长18.7%,营业收入109.97亿元，同比增长15.1%,实现利润13.25亿元，同比增长17.1%。园区先后被授予四川省优秀工业园区、四川省新型工业化示范基地、四川省“51025”重点产业园区、四川省生态工业园区建设试点园区，是正在加快打造的“西部先进制造业示范区”。
126	中国（绵阳）科技城临港经济发展区	---	绵阳市涪城区九洲大道与裕都大道交叉路口往西南约70米	104.67363,31.50824	绵阳市	其他重点园区	经开区	智能装备,新一代网络技术,软件与信息服务	新一代信息技术、高端装备制造产业	中国（绵阳）科技城临港经济发展区位于绵阳市涪城区，是绵阳市产业南进的主要载体。临港经济发展区规划面积约22平方公里，主要范围包含吴家镇、石塘镇、新皂镇部分区域，含高端装备制造产业园、商贸服务产业园、科技物流产业园三大园区。用地范围东起南湖六一堂路，南至西绵绕城高速，西起新皂成绵乐城际铁路，北至石塘毅德街，工业用地面积6.22平方公里，仓储用地面积0.93平方公里，商业用地2.74平方公里，居住及配套设施用地1.79平方公里，公共管理与公共服务设施用地1.15平方公里，公共剛、绿地广场、道路交通设施用地5.57平方公里，其他用地3.6平方公里。主要依托火车货港和机场空港，以及二环路、绕城高速、绵中路等重要交通枢纽。2018年7月，临港经济发展区经绵阳市人民政府正式批准成为市级园区。截止2018年底，园区聚集工业企业213户，其中规上工业企业34户。
127	游仙高新技术产业园区	S517064	绵阳市游仙区凯越路与绵盐路交叉路口往东南约80米	104.829122,31.405838	绵阳市	省级园区	高新区	节能环保,新材料,新一代网络技术	节能环保、新材料、通信产业	游仙高新技术产业园区位于中国科技城核心区-绵阳市游仙区，地处成渝经济圈和成德绵高新技术产业带。园区核心区域面积为5.47平方公里，近期规划面积为36.88平方公里，远期规划面积为50平方公里。园区按照“产城一体”规划建设，形成了南、北、东（三区）组团式发展格局，经过近几年的快速发展，园区格局鲜明、规划清晰，特色突出、潜力巨大。2018年，实现主营业收入650亿元，同比增长22.6%；规上企业达到110户，规模工业总产值334亿元，同比增长20.7%。园区力争到2020年建成干亿级产业园区。园区于2010年5月经绵阳市人民政府批准成立；2013年4月被省政府批复为省级经济开发区；2018年3月被省政府认定为省级高新技术产业园区。园区是四川省“51025”重点产业园区，市政府“园区干百亿工程”重点园区，先后被评为国家循环经济教育示范园区、省级循环经济示范园区、四川最具投资价值产业园区、省级知识产权试点园区，四川省模范劳动关系和谐工业园区。
128	江油高新技术产业园区	S519017	四川省绵阳市江油市大鹏路东段	104.762239,31.744484	绵阳市	省级园区	高新区	智能装备,新材料,医药健康	装备制造、电子、新材料产业	江油高新技术产业园区位于江油市城区东南面，是1992年经四川省委、省政府批准成立的省级工业开发区。2001年被省政府确定为省级重点开发区，2006年2月经国家发改委审核认定，省政府批复，更名为四川江油工业园区。2018年3月，园区被四川省人民政府（川府函[2018]53号）认定为省级高新技术产业园区。园区规划总面积28.02平方公里，建成区面积15平方公里。四至范围：原规划区东至宝成铁路、西至让水河、南至大鹏路、北至太平干道；扩区启动区（东区）东至东山路、西至涪江河、南至彰明镇金林村、明月村、北至喻家观村。远景规划区西至太平镇普照村、双胜村、南至太平镇桥楼村、古柏村、北至太平合江村、竹林村；高新区按产城一体与城市规划建设，配套建设有220KV变电站2座、110KV变电站4座、110KV开闭所1座、污水处理厂2个、科技孵化器5236m2、创业服务中心48000m2,人才公寓等基础设施。截止2018年底，园区聚集工业企业490户，其中规上工业企业162户，2018年园区规上工业企业实现产值370.87亿元，同比增长17.8%；实现主营业务收入364.51亿元，同比增长18.9%；实现利润16.84亿元，同比增长31.3%；完成固定资产投资51.71亿元，其中：工业投资34.31亿元，技改投资28.69亿元。园区先后被四川省政府、省开发区协会授予省级先进开发区、优秀开发区、招商引资先进单位，四川省承接产业转移优秀园区和承接产业转移重点推荐特色园区等称号。先后被省政府列为四川省“1525工程”成长型重点培育园区、四川省新型工业化重点培育基地、四川省“51025”重点培育产业园区、四川省新型工业化产业示范基地、四川省知识产权试点园区、四川省“园保贷”试点园区。
129	河北-平武工业园区	---	四川省绵阳市涪城区永兴镇	104.596843,31.458275	绵阳市	其他重点园区	工业园区	新能源与智能汽车,新材料,新一代网络技术	电子信息、汽车、新材料产业	河北-平武工业园区是“5.12”地震后，河北省对口援建平武县时建设的“飞地”工业园区，园区地处绵阳高新区西南，位于磨家镇、河边镇的交界处。是绵阳国家级高新技术产业开发区的“园中园”，是平武县重要经济增长极，地处成德绵高新技术产业带。成立于2009年12月，于2010年10月获批，规划面积3.47平方公里，建成区面积1.5平方公里。其中1.43平方公里被纳入绵阳科技城集中发展区核心启动区建设范围。四至范围（规划区范围：北与河边镇刘家大堰塘接壤，南邻磨家镇南部自然山体，东抵草溪河，西至河边场镇）。截止2018年底，园区聚集工业企业48户，其中规上工业企业12户，2018年园区规上工业企业工业产值9.74亿元，同比增长58.12%，营业收入8.81亿元，同比增长37.87%，实现利润0.9639亿元，同比增长47.61%。
130	南充市嘉陵区工业集中区	---	南充市嘉陵区万福路与春江路交叉口北100米	106.049688,30.75081	南充市	其他重点园区	工业园区	新能源与智能汽车,新材料,农产品精深加工	新能源汽车、丝纺服装、农产品加工产业	南充市嘉陵区工业集中区位于城市西南方，紧邻嘉陵江，处于城市下风下水，是发展工业的最佳沃土。工业集中区批准成立于2012年5月7日（南委编发[2012]62号），为县级工业园区，园区远期规划面积40平方公里，2018年控规审定面积21.38平方公里，目前建成面积11平方公里，四至范围（具体以界址点坐标控制）:东至头洞桥成南高速，南至物流园，西至花园水库，北至刺芭茅隧道。集中区按产城一体与城市规划建设，配套建设有110KV变电站、污水处理厂、创业小镇、创客公寓、科技孵化器等基础设施。截止2018年底，园区聚集工业企业218户，其中规上工业企业86户，2018年园区规上工业企业工业产值417.37亿元，同比增长16.4%，营业收入416.64亿元，同比增长17.5%，实现利润29.02亿元，同比增长24.7%。园区先后被授予四川省科技创业孵化器、四川省基层统战工作示范创建单位、创客大学（蕊片设计与运用创客大学生）、南充海外人才创新创业基地、南充市新社会阶层人士创新创业示范基地、南充市青年创新创业基地、川北医学院大学生创新创业基地、南充市大学生创新创业产业园、川北医学院中西医临床学院创新创业基地、川北医学院生物学院创新创业基地。
131	四川南充经济开发区	S517027	南充市嘉陵区南充市嘉陵区文峰镇第二小学文峰二小西北侧约90米	106.114999,30.7159	南充市	省级园区	经开区	绿色化工	石化、生物新能源、化工产业	四川南充经济开发区是1993年5月经四川省政府批准成立的省级开发区，南充唯一由市委、市人民政府兴办的对外开放窗口和深化改革示范区，四川省规划建设的三大石化基地之一。园区位于远高南充主城区的河西半岛，规划面积31.96平方公里，是成渝地区少有的符合长江经济带发展政策要求的化工园区。园区对标上海化工园进行规划和设计，并围绕建设专业化学工业园建成铁路专用线、专用码头、大件码头、骨架路网等“四大基础工程”，公共管廊、配气站、热电中心、污水处理厂、净水厂和变电站等“六大公辅配套设施”，是川东北首个具备“公铁水”多式联运条件的口岸园区。截止2018年底，园区已建成面积近3平方公里，现已入驻四川能投、联成化学、中航工业、上海环境、石达化工、康弘药业、禾本科技等10余家知名企业，其中规上企业7户，2018年实现产值27.77亿元，同比增长22.99%,营业收入33.84亿元。 园区先后被授予四川省“51025”计划重点建设的千亿产业园区、四川省首批循环经济示范园区。
132	四川南充潆华高新技术产业园区	S518085	南充市顺庆区华荣路二段107号	106.082191,30.851046	南充市	省级园区	高新区	新材料	装备制造、新材料、电子信息产业	南充高新技术产业园区筹建于2007年，前身为南充市潆华工业集中区，2012年更名为南充市顺庆区工业集中区。2013年，被市政府确定为南充市创新驱动发展试验区，2018年，进入中国开发区审核公告目录，同年11月，省政府同意将南充市顺庆区工业集中区认定为省级高新技术产业园区，名称为四川南充潆华高新技术产业园区，南充成为川东北首家成功创建省级高新技术产业园区的市州。园区位于南充市北部新城，是南充北部新城重要经济増长极，地处成渝经济圈和成南达高新技术产业带。目前，核心区四至范围为南起西华路，北至闹溪河，西抵青龙山，东接国道212线，规划面积12平方公里，现已建成区面积约8.5平方公里。园区按产城一体与城市规划建设，配套建设有110KV变电站2个、污水处理厂1个、孵化器7个、人才公寓等基础设施。截止2018年底，园区聚集工业企业143户，其中规上工业企业78户，2018年园区规上工业企业工业产值228亿元，同比增长13.4%，营业收入262亿元，同比増长16.5%，实现利润13.5亿元，同比增长26.9%。  园区先后被授予“成渝经济区最具投资价值百强产业园区”、“四川省知识产权试点园区”、“四川省特色产业基地•新材料”。按照建设国家级高新区的规划，南充高新区将以南充顺庆工业集中区为核心区，按“一核三园”的空间布局建设，集全市之力加快创建国家高新区。
133	四川营山经济开发区	S517088	四川省南充市营山县一环路电子信息产业园6栋	106.600007,31.075375	南充市	省级园区	经开区	智能装备,新材料	机械、农产品加工、建材产业	四川营山经济开发区位于县城东南部，紧邻营山火车站、汽车客运站。西进南充达成都，东进达州至武昌，南下广安到重庆，北上陇巴望秦川，是川东北重要的工业品生产基地和集散地。始建于2001年，规划用地总面积约8.7平方公里，建成面积已达4.5平方公里，“七通一平”和“三化”建设正同步推进，50米大道、30米北干道、24米南干道等10余条道路建成并投入使用，110KV三星变电站、压缩天然气供气站建成投入营运，全面建成近3万平方米标准化厂房、10.2万平方米保障性住房，污水处理厂加快建设，港内基础设施和配套功能日趋完善。工业港以融入重庆为前提、合作为基础、产业为抓手、共赢为目标，大力建设重庆配套产业园，规划建设机械配套产业园、电子信息产业园、食品产业园、新兴产业园四大产业园以及与之配套的现代物流园，工业新城框架基本形成。港内已入驻五四机械、奥龙铸造、恒阳牛业、精丰机械、明辉机电等工业企业75户，规上工业企业43户，被省经信委评为“农产品加工示范基地”、“省级小企业创业示范基地”。2019年1月，营山经济开发区经省政府批准，已成功升级为省级经济开发区。
134	四川蓬安工业园区	S519028	四川省南充市蓬安县安汉大道北段65号	106.431555,31.01404	南充市	省级园区	高新区	农产品精深加工	机械、生物科技、农产品加工产业	四川蓬安工业园区位于南充市蓬安县,是蓬安县重要经济增长极,距南充主城区和高坪机场仅30分钟车程,距成都230公里、重庆200公里，紧密融入成渝“两小时经济圈”和南充“半小时经济圈”。四川蓬安工业园区是经国家发改委审批成立的省级工业园区，是四川省“51025”重点培育产业园区。规划面积20平方公里，建成区面积8平方公里，范围涉及蓬安县相如镇、河舒镇。按园区规划和产业布局，工业园区配套建设有110KV、220KV两座变电站、污水处理厂、小微企业孵化园、产业工人公租房等基础设施。截止2018年底，园区聚集工业企业131户，其中规上工业企业80户，2018年园区规上工业企业工业产值287.7亿元，同比增长17.53%，营业收入285.97亿元，同比增长17.75%。园区被授予“51025重点产业园区”、“省级工业园区”。
135	四川仪陇经济开发区	S517089	南充市仪陇县鸿运大道河西工业区	106.287339,31.250286	南充市	省级园区	经开区	农产品精深加工	农副产品加工、鞋帽、电子产业	四川仪陇经济开发区位于南充市仪陇县，地处成渝经济圈中间地带，成立于2006年10月，于2019年1月获批省级开发区，规划面积12平方公里，四至范围（具体以界址点坐标控制）：区块一东至嘉陵江，南至嘉陵江，西至光华乡界，北至新政镇嘉陵村五组；区块二东至光华乡西阳坝村三组，南至光华乡明德庵村二组,西至光华乡鱼箭滩村一组，北至潆新路；区块三东至光华村西阳坝村六组，南至漾新路，西至光华乡渔箭滩村一组,北至光华乡鱼箭滩村五组。经开区按产城一体与城市规划建设,配套建设有110KV变电站、污水处理厂、学校、小企业创业孵化园、公租房等基础设施。截止2018年底，园区聚集工业企业93户，其中规上工业企业46户，2018年园区规上工业企业工业产值114.4亿元，同比增长10%，营业收入120.6亿元，同比增长12%，实现利润2.05亿元，同比增长9%。园区先后被授予“全省小企业创业示范基地”、“全省第二批农产品加工示范基地”、“四川特色产业基地”。
136	四川阆中经济开发区	S517091	南充市阆中市迎宾路与七里大道交叉路口北侧(中华人民共和国农业农村部定点农产品批发市场西侧约100米)	106.018409,31.539724	南充市	省级园区	经开区	节能环保,新材料,农产品精深加工	食品、新材料、新能源产业	四川阆中经济开发区现规划总面积达30平方公里，分布于七里、江南、河溪三个街道办事处辖区范围，主要包括七江食品工业园、航空港高新技术产业园、江南火车站现代物流园。2016年1月经省发改委、省国土厅、省环保厅、省住建厅等部门初步审批同意，拟在原七江工业园的发展基础上升级设立省级经济开发区——四川阆中经济开发区。2016年5月17日,省政府正式印发设立批复文件，正式设立省级经开区。开发区规划控制面积9.83平方公里，本次设立审核面积4.39平方公里，东起淳风大道，西至长盛大道，南临梧桐路，北达长公大道。截至2018年底，园区聚集工业企业122户，其中规上企业68户，2018年园区规上工业企业工业产值170.3亿元，同比增长14.3%，营业收入170.1亿元，同比增长13.8%，实现利润9.2亿元，同比增长19.5%。园区先后被授予“四川省食品加工业基地”园区、“四川省知识产权试点”园区。
137	四川南部经济开发区	S517087	南充市南部县S101南部县中小微企业孵化园北侧约130米	106.09949,31.373803	南充市	省级园区	高新区	新材料	机械、建材、食品、医药产业	四川南部经济开发区地处“一带一路”和长江经济带上的重要节点，位于成渝经济区的三角中心地带南部县，是南充市重要经济增长极。园区成立于2003年，规划面积26平方公里，建成区面积10.9平方公里，初步形成“一区三园”新格局。配套2座110KV变电站、污水映厂、科技孵化器、人才公寓等。截止2018年底，园区集聚工业企业115户，其中规上企业69户，2018年园区规上工业企业总产值396亿元，同比增长16.2%，营业收入386亿元，同比增长14.2亿元，实现利润41亿元，同比增长19.8%。2009列入四川省成长型特色产业园区，2012年跻身全省首批新型工业化重点培育基地，2014年获批“51025”重点产业园区，2019年1月确定为省级经济开发区。四川南部经济开发区深入贯彻四川省“一干多支、五区协同、四向拓展、全域开放”，南充市“155”、“5+5”现代产业体系題战略。坚持高质量发展、转型发展、绿色发展的理念。按照产城人融合发展的思路规划开放型园区；坚持高速度、高质量推进产业聚集，抢抓东部产业转移的发展机遇、工信部定点帮扶工业园的政策红利、东西部帮贫协作的发展动力，创新驱动，加快转型发展和动能转换，全面提升发展质量和区域竞争力。
138	四川西充经济开发区	S517090	南充市西充县御景街四川省张澜职业技术学校东南侧约290米	105.989523,30.967346	南充市	省级园区	经开区	智能装备,农产品精深加工	机械、生物科技、农产品加工产业	四川西充经济开发区位于南充市西充县，是南充市重要经济增长极，地处成都、重庆、西安三角经济要冲，是成渝经济区的重要节点。成立于2009年12月，系南充市创新驱动发展试验区北区（西充园区）,于2018年2月纳入《国家开发区审核公告目录》（2018年版），规划面积14平方公里，建成区面积358.43公顷。其中，常林园区31.46公顷，多扶园区326.97公顷。四至范围（具体以界址点坐标控制）:多扶产业园东至多扶镇任家沟村，南至多扶镇创业池村，西至多扶镇五庙山村，北至多扶镇银家沟村；常林产业园东至西充县谯周大道，南至西充县污水处理厂，西至常林乡瓶子垭村，北至常林乡灵芝桥村。经开区按产城一体与城市规划建设，建成有35KV变电站、日处理1万吨污水处理厂、科技孵化器、人才公寓、三星级酒店、职业技术学院、医院等配套设施。截止2018年底，园区聚集工业企业93户，其中规上企业57户，2018年园区规上工业企业工业总产值236.56亿元，同比增长10.9%，营业收入206.63亿元，同比增长12.3%，实现利润9.46亿元，同比增长8.2%。园区先后被授予“四川最具投资产业园区”、“四川省新型工业化产业示范基地”、“四川省生态环保和循环经济调研示范基地”。
139	四川南充航空港经济开发区	S517086	南充市高坪区东顺路三段与机场路交叉路口往东北约80米	106.167311,30.778766	南充市	省级园区	经开区	新能源与智能汽车,集成电路与新型显示,农产品精深加工	电子、服装、建材产业	四川南充航空港经济开发区位于南充市高坪区，是南充市重要经济增长极，地处成渝经济圈和成德绵高新技术产业带。成立于2007年7月，于2018年7月获批省级新型工业化产业示范基地，规划面积11.66平方公里，设立省级开发区时核准面积为7.8347平方公里，建成区面积6.8平方公里。由两个区块构成：航空港工业园四至范围是：东至绕城高速公路内侧，南至成南高速内侧，西至高坪中心城区，北至南充机场；都京工业园四至范围：东起罗家山西侧，南至嘉陵江东岸，西至都京货运港码头，北至元宝山南侧。经开区按产城一体与城市规划建设，配套建设有110KV变电站、污水处理厂、科技孵化器、人才公寓等基础设施。截止2018年底，园区聚集工业企业222户，其中规上工业企业67户，2018年园区规上工业企业工业产值301.05亿元，同比增长15.93%，营业收入302.45亿元，同比增长16.23%，实现利润12.60亿元，同比增长10.52%。园区先后被授予为中国石油和石油化工设备工业协会团体会员单位、四川省中小企业创业园区、四川省“51025”发展园区、四川省知识产权试点园区、四川省生产性服务业示范功能区、四川省小企业创业示范基地（第三批）、四川省和谐劳动关系园区、四川省集体协商工作示范园区、四川省新型工业化产业示范基地；都京工业园所在地都京镇被授予“中国绸都•丝绸第一镇”称号。
140	四川内江东兴经济开发区	S517079	四川省内江市东兴区椑南乡321国道椑南小学西400米	105.113651,29.475718	内江市	省级园区	经开区	智能装备,新材料	资源综合利用、精细化工、食品产业	内江市西南循环经济产业园区位于内江市东兴区，内江市主城区东南，距主城区约8公里，位于椑木镇、椑南乡、中山乡交界处，是内江市重点推进的工业园区。园区成立于2010年4月，2018年2月26日成功纳入《中国开发区审核公告目录》省级综合类经济开发区范畴，名称为四川内江东兴经济开发区。2019年1月25日,园区升级为省级经济开发区。规划面积11.33平方公里，建成区面积1.102平方公里。四至范围（具体以界址点坐标控制）：东面和北面至321国道为界，南临椑南乡岔冲村区域即规划外迁的成渝铁路内，西至中山乡东风村。园区坚持投资基础设施建设，不断完善公共服务配套体系，提升基础设施保障能力，配套建设有35KV变电站等基础设施。截止2018年底，园区聚集规上工业企业9户。2018年，园区规上工业企业工业产值20.19亿元，同比增长23.7%；实现利润总额1.97亿元，同比增长13.7%。园区是全国首批（全国7个）、西部第1个“城市矿产”试点示范基地、四川省首批新型工业化产业示范基地（全省16个）、四川省资源综合利用及绿色循环产业示范基地，是全国循环经济工作先进单位、四川省首批省级生态工业园区建设试点单位（全省10家），四川省循环经济协会副会长单位。
141	四川威远经济开发区	S517080	内江市威远县威连路铺子湾中心学校南侧约230米	104.653533,29.555729	内江市	省级园区	经开区	节能环保,新材料	钒钛钢铁、节能环保、新材料产业	四川威远经济开发区位于内江市威远县连界镇。2008年9月，威远县设立威远县连界工业园区，规划面积11.23平方公里。2019年1月，经四川省人民政府《关于设立四川蒲江经济开发区等64家省级开发区的批复》（川府函［2019］20号）批复同意，园区升格为省级开发区，开发区规划面积为3.02平方公里。区块1四至范围为：东至宝溪河，南至土河沟村、双桥村，西至建强村、连界村，北至高屋村。区块2四至范围：东至反帝村，南至双桥村、土河沟村，西至宝溪河，北至宝溪河、先锋村。截止2018年底，园区聚集规上工业企业3户，2018年，园区规上工业企业工业产值492.17亿元，同比增长20.9%；实现利润总额27.96亿元，同比增长1280.9%。威远县连界工业园是四川省首批新型工业化产业示范基地（钒钛钢铁产业）、全省首批知识产权试点园区、全省“51025工程”重点培育的10个1000亿园区之一、全省“7+3”产业规划重点规划园区。
142	四川资中经济开发区	S517022	内江市资中县资州大道家和新居	104.866797,29.763387	内江市	省级园区	经开区	新材料,集成电路与新型显示,农产品精深加工	食品、农副食品加工、机械产业	四川资中经济开发区位于内江市资中县，是资中县重要经济增长极。成立于1992年6月，于2006年2月获批省级开发区，核准面积4.16平方公里，核准四至范围（具体以界址点坐标控制）：东至资威铁路平交口；西至瓦窑坝；北至成渝铁路；南至成渝高速公路。经开区总体规划面积30.99平方公里，建成区面积11.36平方公里。经开区按产城一体与城市规划建设，配套建设有110KV变电站、污水处理厂、科技孵化器、人才公寓等基础设施。截止2018年底，园区聚集规上工业企业25户，2018年，园区规上工业企业工业产值52.37亿元，同比增长18%；实现利润总额4.48亿元，同比增长223.6%。
143	威远县严陵工业园区	---	内江市威远县建业大道威玻怡景苑西南侧约240米	104.663632,29.514068	内江市	其他重点园区	工业园区	智能装备,新材料,集成电路与新型显示	新材料、高端设备、绿色化工产业	威远县严陵工业园区是内江市级重点工业园区，是培育中的省级开发区，园区位于内江市威远县严陵镇，距重庆市180公里，距成都市130公里，距内江40公里，距自贡市30公里，处成渝经济区的几何中心。园区成立于2008年8月，规划总面积10.78平方公里，四至范围北起建安东路一建安西路，南至成自泸高速公路收费站，西起规划中的永福路，东以清溪河沿岸的园区道路为界。园区定位为：外引内联，延链发展，打造全国页岩气综合开发利用示范区、四川省新型工业化低碳循环产业示范基地，全国玻纤新材料产业核心基地、西部高端陶瓷产业基地。园区配套设施完善，已形成建业大道、凤凰大道、永兴路、110KV变电站、配气站、污水处理设施等基础设施，建有省级科技企业孵化器、省级大学生创业园区、农民工返乡创业园等公共服务平台。截止2018年底，园区已建成4平方公里，聚集各类企业100余户，其中规上工业企业9户，2018年，园区规上工业企业工业产值41.44亿元，同比增长28.9%；实现利润总额1.8亿元，同比增长1221%，园区已成为全国第四大玻纤生产基地，西南最大的煤化工生产基地，是内江经济发展的重要增长极。
144	内江市市中区工业经济开发区	---	内江市市中区内椑路乐贤中心校西侧约70米	105.096097,29.549593	内江市	其他重点园区	经开区	智能装备,新能源与智能汽车,节能环保	机械制造、网络服务产业	内江市市中区工业经济开发区位于内江市市中区乐贤镇，园区成立于2006年5月，是内江市着力打造的7个重点工业园区之一，规划面积3平方公里，建成区面积1.17平方公里。园区位于内江市旧城片区南面的乐贤镇中部，园区三面环水，北接内江旧城，西北面以塔山公园为界，北面与新江片区，南面与椑木片区隔江相望。涉及乐贤镇乐贤村一社、二社、三社和丁和村九社部分。内江市中区区委、区政府以内市区委发【2006】28号文《中共内江市市中区委内江市市中区人民政府关于加快工业集中区发展的意见》(2006.4.7)批准建设内江市市中区工业集中区。截止2018年底，园区聚集规上工业企业11户，2018年，园区规上工业企业工业产值9.64亿元，同比增长18.4%；实现利润总额0.27亿元，同比增长-21.1%。
145	内江高新技术产业开发区	G512143	四川省内江市隆昌市环城东路	105.313866,29.350774	内江市	国家级园区	高新区	智能装备,医药健康,新材料	医药、装备制造、新材料产业	内江高新技术产业开发区位于内江市隆昌市，是隆昌市重要经济增长极，地处成渝经济圈和成德绵高新技术产业带。成立于1992年08月，于2006年2月获批省级开发区，规划面积5.578平方公里，建成区面积7.80平方公里。四至范围（具体以界址点坐标控制，园区总规范围）：东片区（三道桥、黄土坡、云峰园区）东至：隆昌市金鹅街道办事处光星村、光复村、光胜村，山川光华村；南至：隆昌市金鹅街道办事处光丰村、新华街，山川镇光华村；西至：成渝铁路，隆昌市金鹅街道办事处新华街、隆昌河；北至：成渝高速公路。仓储物流园区：东至：隆昌河；南至：成渝铁路；西至：隆昌市金鹅街道办事处罗星村；北至：成渝高速公路。西区（商住区）东至：至飞泉村、文星街、隆昌河；南至：至工农村、飞泉村；西至：至望城村、建设村；北至：至建设村、春光村。红光园区东至：隆纳高速公路；南至：圣灯镇牯牛村，云顶镇大坳村，山川镇和平村，云顶镇加速村；西至：圣灯镇牯牛村、大桥村，山川镇曙光村，隆昌河；北至：山川镇新民村。配套建设有变电站、污水处理厂、科技孵化器等基础设施。截止2018年底，园区聚集规上工业企业64户。2018年园区规上工业企业工业产值140.65亿元，同比增长17.6%；实现利润总额5.02亿元。园区是四川省“51025发展计划”500亿元培育园区、四川省“十二五”第一批省级循环经济示范园区、四川省信息化建设标准示范园区、四川省小企业创业示范基地。
146	内江经济技术开发区	G511195	四川省内江市市中区内江经济技术开发区管理委员会	105.02465,29.589895	内江市	国家级园区	经开区	新能源与智能汽车,软件与信息服务,医药健康	机械汽配、电子信息、生物医药产业	内江经济技术开发区位于内江市主城区西缘，是1992年批准成立的首批省级开发区之一，2013年11月升级为国家级经开区。规划建设面积32.56平方公里，建成区面积13.5平方公里，东起沱江，西至内遂高速公路片区，南至内宜高速公路，北至汉安大道西延线。内江经开区按产城一体与城市规划建设，配套建设有110KV、220KV变电站各1座，日处理3.8万吨的污水处理厂，10万平方米省级科技企业孵化器、1万平方米的信息安全产业园孵化器、2万平方米电子商务专业孵化器、4000平方米大学生创新创业孵化器各1个。截止2018年底，园区聚集规上工业企业42户。2018年，园区规上工业企业工业产值123.83亿元，同比增长19.6%；实现利润总额5.18亿元，同比增长35.2%。园区先后获得“中国汽车（摩托车）零部件制造基地”“成渝经济区电子信息产业配套基地”“四川省‘51025'重点产业园区”“四川省特色高新技术产业化基地”“四川省信息安全产业示范园”“四川省台商工业园”“四川省科技企业孵化器”“四川省电子商务聚集区”“四川省新型工业化示范基地”“四川省‘园保贷'试点园区”等称号。
147	四川米易白马工业园区	---	攀枝花市米易县攀莲镇同和路12号	102.120577,26.903066	攀枝花市	其他重点园区	工业园区	绿色化工	钒钛磁铁矿采选及加工产业、钛材及钛化工、含钒钛机械制造产业	四川米易白马工业园区位于攀枝花市米易县，地处攀西经济区的腹心地带，是攀枝花市重要经济增长极。园区于2005年6月经攀枝花市人民政府批准设立。2008年3月四川省发改委对《园区发展规划》给予了批复，2009年5月被四川省人民政府批准列为省级培育成长型特色产业园区，2010年1月被全域纳入首批国家新型工业化产业示范基地&#8212;&#8220；钢铁（钒钛）&#183;四川省攀枝花市&#8221;,2011年11月被纳入拟新增省级开发区培育发展地，2012年2月被攀枝花市人民政府授予&#8220;工业产值首次达到100亿元园区&#8221;,2014年1月被攀枝花市科学技术和知识产权局授予&#8220;知识产权试点单位&#8221;,2018年8月获批&#8220;四川省特色产业基地.新能源储能材料&#8221;„按照&#8220;—园多区、产业集聚、主业突出&#8221;的构架，园区分设白马、长坡和一枝山三个功能区块。园区规划（管控）总面积6824公顷，其中采矿区面积3718公顷，工业加工区建设面积3106公顷。白马功能区重点发展钒钛磁铁矿采选加工、综合利用及配套产业；长坡功能区重点发展特色石材（新型建材）加工及配套产业；一枝山功能区重点发展钒钛化工及新材料产业。截止2018年底，园区聚集工业企业84户，其中规上工业企业37户，实现产值213.77亿元，实现营业收入203.03亿元，实现利润20.11亿元，实现税收8.35亿元。
148	盐边钒钛产业开发区	---	攀枝花市盐边县中环北路盐边县桐子林镇中心学校东侧约160米	101.860182,26.685688	攀枝花市	其他重点园区	高新区	绿色化工	钒钛磁铁矿采选及加工产业、钛材及钛化工、含钒钛机械制造产业	盐边钢钛产业开发区原名盐边工业集中发展区（以下简称园区），位于攀枝花市盐边县，包括新九工矿区和安宁工业园区。市政府分别于2010年6月批准设立新九工矿区（攀府函【2010】99号）、2011年1月批准设立安宁工业园区（攀府函【2011】51号）。2013年2月，经盐边县政府批准，将新九工矿区、安宁工业园区合为盐边工业集中发展区（盐边府函【2013]160号），按“一区二园”组团式的格局发展。2015年12月，经盐边县政府批准，盐边工业集中发展区更名为盐边钢钛产业开发区（盐边府函【2015】203号）。园区坐标实测面积及管辖总面积为32.74平方公里（不含采矿区、排土场和尾矿库），其中安宁工业园区22.75平方公里，新九工矿区9.99平方公里。四至范围为安宁工业园东至回龙村、南至红格大道，西至炭山坡,北至安宁村干沟社；新九工矿园东至平谷村野猪社，南至回腊亮，西至平谷村蚂蝗社，北至平谷村湾板社。目前,园区已建成面积10.81平方公里。园区管理机构为盐边县工业区开发建设管理委员会，管理机构类型为政府派出机构。目前，园区水、电、路、通讯等基础设施配套逐步完善。其中，已建成硬化道路约30.5公里，建成35KV变电站5座、110KV变电站2座、220KV变电站1座，供电总容量达到84.5万KVA,已建成日供水量1.2万吨/日水厂1座。截止2018年底，园区聚集工业企业61户，其中规上工业企业23户，2018年园区规上工业企业工业产值94.5亿元，营业收入87.96亿元，实现利润17.39亿元。
149	四川攀枝花格里坪特色产业园区	S519052	攀枝花市西区肉联厂路	101.565875,26.5997	攀枝花市	省级园区	工业园区	绿色化工,新材料	煤化工、电力、机械、建材产业	四川攀枝花格里坪特色产业园区始建于2006年，园区位于攀枝花市西区格里坪镇，东与格里坪城区相接、南至金沙江、西至龙洞矿区、北至省道310线北侧，《攀枝花市城市总体（2011-2030）》（2017版）中规划范围总用地1824.34公顷，规划建设用地676.92公顷。园区交通网络发达，成昆铁路支线直通格里坪，省道310线绕园而过，丽攀高速依园而建，园区内部道路建设布局合理，物流大道、污水处理厂、水厂3个项目正加快推进。园区供水体系完善，供水能力为1万吨/日。马上坪220干伏变电站、龙洞110干伏变电站和格里坪110千伏变电站形成环线电网。园区内华益能源加气站供气量达1800立方米/小时，资源配置和使用更具科学化和合理化，为可持续发展创造了条件。截止2018年底，园区聚集工业企业45户，其中规上工业企业33户，2018年园区规上工业企业工业产值184.3亿元，同比增长0.4%,营业收入172.6亿元，同比增长0.6%,实现利润3.6亿元，同比增长17.9%。园区先后被授予四川省首批个体私营经济试验区、省首批中小企业创业基地、省成长型特色产业园区（“1525工程”）、省循环经济示范园区、川商产业园区、四川康复康养器具产业园等称号，2018年2月成功纳入《中国开发区审核公告目录》（2018年版）。
150	攀枝花钒钛高新技术产业开发区	G512140	攀枝花市仁和区彩虹路附近	101.858981,26.537312	攀枝花市	国家级园区	高新区	新材料,智能装备	钒钛钢铁、化工、有色金属加工产业	攀枝花钢钛高新技术产业开发区成立于2001年，位于攀枝花市仁和区，是攀西战略资源开发试验区主战场，是攀枝花市重要经济增长极，于2015年9月被国务院批准为国内首个以金属材料产业开发为主要依托的国家级高新区，规划面积3.1平方公里，四至范围（具体以界址坐标控制）北为大桥沟，东为金沙江，南为迤资火车站，西为罗家梁子。行政管辖区97.97平方公里，工业区控制性详细规划范围33.96平方公里，已建成团山、马店河两个组团，面积15.5平方公里。配套建设有铁路专用货场、自来水厂、500干伏变电站1座、220干伏及以下变电站28座，2.5wt/d工业污水处理厂一座，4000万立方米固废处置中心1个，拥有1个国家级钒钛科技孵化器。截止2018年底，园区聚集工业企业110户，其中规上工业企业67户，2018年园区规上工业企业工业产值273.3亿元，同比增长9%,营业收入196.5亿元，同比增长60.3%,实现利润6.4亿元，同比增长190%。钒钛高新区先后荣膺国家外贸转型升级专业型示范基地、四川省新型工业化示范基地、四川省循环经济试点园区、四川省知识产权试点园区、四川省生产性服务业示范基地、四川省省级出口钒钛质量安全示范区等称号。
151	攀枝花市仁和区南山循环经济发展区	---	攀枝花市仁和区迤沙拉大道攀枝花南山映象大酒店	101.717943,26.532255	攀枝花市	其他重点园区	经开区	绿色化工	煤及煤化工、钒钛机械制造、建材产业	攀枝花市仁和区南山循环经济发展区总规划面积23.37km2,下辖五个工业片区，其中，橄榄坪片区5.38km2,迤资片区7.63km2,巴斯箸片区6.86km2,布德片区1km2,灰老沟片2.5km2。十二五期间，园区已累计完成基础设施投入4.8亿元。投入供水设施建设资金约7000万元，建成加压泵站高位水池5座，铺设供水管网18km；投入供电设施建设资金约2.2亿元，建成220KV变电站两座、110KV变电站一座，架设供电专线25km,及其它配电设施；投入道路建设资金约1.7亿元，修筑道路18km；投入防洪及排污设施建设资金约2000万元，修建排洪沟4200m,基本能够满足需要。园区开发建设以来，实施非均衡发展战略，集中财力重点开发建设橄榄坪园区、迤资园区。现已开发建设面积4700亩，其中工业用地面积4400亩。截止2018年底，园区聚集工业企业91户，其中规上工业企业23户，2018年园区规上工业企业工业产值108.95亿元，同比下降6.94%,营业收入100.79亿元，同比下降5.34%,实现利润2.23亿元，同比下降4.61%。园区先后被规划为省级循环经济发展区、四川攀枝花南山经济开发区，授予四川省小企业创业基地、循环经济示范试点园区（第二批）、市级重点推进建设产业园区称号。
152	遂宁经济技术开发区	G511194	遂宁市船山区Y005与玉龙路交叉路口东侧	105.525359,30.534826	遂宁市	国家级园区	经开区	软件与信息服务,智能装备,农产品精深加工,优质白酒,精制川茶,医药健康	电子信息、食品、轻纺、机械产业	遂宁经济技术开发区位于遂宁市船山区，是遂宁市重要经济增长极，地处成渝经济圈。园区成立于1992年6月，2012年7月经国务院批准为“国家级经济技术开发区”。园区规划面积138平方公里，分为城北、城西'城南三个片区，建成区面积36平方公里，辖一乡一镇六处二办，常驻人口33万。经开区按产城一体与城市规划建设，配套建设有110KV变电站、城南第一、第二、富禹、台商工业污水处理厂4座、科技孵化器等基础设施。截止2018年底，园区聚集工业企业805户，其中规上工业企业170户。2018年园区营业收入1168亿元、同比增长17.6%，规上工业产值536.6亿元、同比增长13.2%，规上工业实现利润38.2亿元、同比增长32.6%。2013年7月被省政府纳入“51025”产业园区发展计划的“千亿园区”重点培育。已建成为国家新型工业化产业示范基地、中国光电产业基地，获得四川省重点外向型产业园区、四川省电子信息产业配套基地等20余项国省荣誉。
153	四川蓬溪经济开发区	S517076	遂宁市蓬溪县沪聂线与福来路交叉路口往东约190米	105.704723,30.742226	遂宁市	省级园区	经开区	智能装备,新材料,农产品精深加工	家具、服装、食品饮料产业	四川蓬溪经开区成立于2006年，2019年1月省政府批准为省级经济开发区，下辖上游工业园和金桥新区两个园区，规划规面积19.4平方公里（其中上游工业园12平方公里，金桥新区7.4平方公里）,其中上游工业园东邻赤城镇打铁垭村，南邻赤城镇任家桥村，西邻赤城镇任家桥村、梨园村，北邻赤城镇普安村；金桥新区北至金桥镇蛇亭咀村、金黄村相连，南临涪江，东与高坪镇吉福村相连，西至涪江河提沿岸。园区主要发展智能家居产业、绿色食品饮料、先进材料等产业。截止2018年底，园区聚集工业企业165户，其中规上工业企业62户。2018年园区营业收入135亿元、同比增长21.3%，规上工业产值100.7亿元、同比增长27.9%，规上工业实现利润7.3亿元、同比增长18.9%。园区先后被授予“中国西部门都”“中国西部防火门生产基地”“四川省中小企业创业基地”“四川省门产业知名品牌创建示范区”称号。
154	四川射洪经济开发区	S517077	遂宁市射洪市河东大道中段绿然国际大酒店东北侧约130米	105.423599,30.835962	遂宁市	省级园区	经开区	新材料	新材料、机电、精细化工产业	四川射洪经济开发区位于遂宁市射洪县，是遂宁市重要经济增长极，地处成渝经济圈腹地。成立于2012年5月，2019年1月省政府批准为省级开发区。园区规划面积7.19平方公里，建成区面积6.05平方公里，四至范围（具体以界址点坐标控制）：区块一东至涪江，西至佛南社区曾家湾，北至滨涪路，南至佛南社区邓家岩；区块二东至涪江，西至G247国道，北至佛南社区邓家岩，南至虹桥汽车城，区块三东至G93成渝环线，西至涪江，北至星光社区谢家院子，南至五家桥村；区块四东至鼓山大道，西至涪江，北至打鼓山，南至河东大道；区块五东至射蓬路，西至桃花山，北至绿然国际大酒店，南至南二路；区块六东至迎宾大道，西至打鼓山，北至大桥村，南至郭家坝。经开区按产城一体与城市规划建设，配套建设有110KV变电站、污水处理厂、科技孵化器、人才公寓等基础设施。截止2018年底，园区聚集工业企业114户,其中规上工业企业95户。2018年园区营业收入504亿元、同比增长12.1%，规上工业产值287.9亿元、同比增长17.7%，规上工业实现利润42.5亿元、同比增长53.6%。园区先后被授予全省“51025”重点产业园区、“四川省级新型工业化产业示范基地”“省知识产权保护试点园区”“四川省特色产业基地”“省级小企业创业示范基地”“四川省生产性服务业功能示范区”等多项荣誉。
155	遂宁高新技术产业园区（中国西部现代物流港）	---	遂宁市船山区玫瑰大道与裕业路交叉路口往西北约90米	105.577176,30.470272	遂宁市	其他重点园区	高新区	智能装备,集成电路与新型显示	高端装备制造、电子信息、生产性服务产业	遂宁高新技术产业园区（中国西部现代物流港）（以下简称“物流港”）位于四川省遂宁市主城区西南方向,园区坚持实施“物流+高新”双核驱动战略，以"国际物流港,现代产业城”为发展目标，打造现代物流业、商贸服务业、高端装备制造业联动发展的现代产业园区。园区成立于2007年3月，规划面积61.66平方公里，其中核心区面积18.66平方公里，拓展区面积43平方公里,建成面积20平方公里。园区四至范围：东至S205,南至复桥镇，西至安居区，北至西宁大道及遂资眉高速公路。按照功能划分为物流核心区、商流核心区、商贸市场区、北部产业功能区、南部产业功能区、物流拓展区、生活服务区七大板块。物流港坚持“产城融合”发展,规划建设“三园三镇一基地”，其中包含了“生物健康产业园“、“电子信息产业园”、“机械装备产业园”以及“创客小镇”、“金融小镇”、“人才小镇”和“现代物流基地”，并配套建设有医院、学校、污水处理厂、人才公寓等基础设施。园区于2018年3月获批为省级高新区。截止2018年底，园区聚集工业企业37户，其中规上工业企业24户。2018年园区营业收入628亿元、同比增长14.2%，规上工业产值25.7亿元、同比增长24.2%，规上工业实现利润1.1亿元、同比增长38.7%。成功创建国家级示范物流园区、全国流通领域现代物流示范城市、国家现代服务业物流产业化基地、中国物流示范基地、全国优秀物流园区、全国智慧物流配送示范基地在内的6张国家级名片和四川省“51025”重点产业园区、四川省生产性服务业功能示范区、四川省新型工业化产业化示范基地、四川省电子商务示范基地、四川省开发区“十二五”规划培育发展地等省级品牌。
156	四川遂宁安居经济开发区	S517075	四川省遂宁市安居区安东大道	105.507025,30.343146	遂宁市	省级园区	经开区	智能装备,绿色化工,新材料,农产品精深加工	机械、天然气化工产业	四川遂宁安居经济开发区位于遂宁市安居区，是遂宁市重要经济增长极，地处成渝经济圈。2007年3月设立，2019年1月省政府批准为省级经济开发区。规划面积22.76平方公里，建成面积约6平方公里，四至范围：区块一东至玉丰镇新园村、胡琴村，南至安居镇五垭子村，西至凤凰街道梧桐社区，北至玉丰镇双桂村；区块二东至安居镇五垭子村，南至安居镇五垭子村，西至安居镇五垭子村，北至安居镇五垭子村；区块三东至玉丰镇新园村，南至凤凰街道解元社区，西至聚贤乡群力村，北至聚贤乡群福村，区块四东至凤凰街道梧桐社区、解元社区，南至凤凰街道梧桐社区、西至凤凰街道苹果社区，北至凤凰街道解元社区；区块五东至凤凰街道梧桐社区，南至凤凰街道陷马堰社区，西至凤凰街道苹果社区，北至凤凰街道梧桐社区；区块六东至凤凰街道陷马堰社区，南至柔刚街道顺安社区，西至凤凰街道苹果社区，北至凤凰街道梧桐社区。经开区按产城一体与城市规划建设，配套建设有10kV乌木厅变电站、110kV三合碑变电站、日供气量100万立方米的配气站和日供水能力2万吨自来水厂，东城工业园公租房工程、现代物流园工程、梧桐路小学等基础设施。截止2018年底，园区聚集工业企业96户，其中规上工业企业42户。2018年园区营业收入140亿元、同比增长21.3%，规上工业产值72.6亿元、同比增长25.8%，规上工业实现利润13.9亿元、同比增长23.8%。园区先后被评为“全国农产品加工创业基地”、“省级小企业创业基地”“省级汽摩产业及零部件特色产业基地”，“四川省新型工业化产业示范基地”。
157	四川大英经济开发区	S517078	遂宁市大英县滨江路与郪江东路交叉路口往东约100米	105.269872,30.591626	遂宁市	省级园区	经开区	清洁能源,绿色化工,新材料,新能源与智能汽车	石化、纺织、机电产业	四川大英经济开发区位于遂宁市大英县，是遂宁市重要经济增长极，地处成渝经济圈和成都平原经济区。成立于2001年12月，2019年1月省政府批准为省级经济开发区，规划面积13.1平方公里，建成区面积3.71平方公里。四至范围为：区块一东至聂家坝村，南至聂家坝村、景家坝村，西至景家坝村、北斗村，北至聂家坝成南高速公路、北斗村成南高速公路；区块二东至景家坝村，南至景家坝村，西至景家坝村，北至北斗村、景家坝村；区块三东至席家沟村，南至席家沟村，西至席家沟村，北至席家沟村；区块四东至席家沟村、宝石岩村，南至红花坝村、宝石岩村，西至郪江支流古柏溪，北至席家沟村郪江；区块五东至郪江，南至郪江，西至滨江北路以西200米、郪江，北至余粮村；区块六东至郪江支流古柏溪，南至凉湾村、达成铁路、梨子坝村,西至蓬莱山水东门，北至郪江。园区按产城一体和城市规划建设，配套建设有110KV变电站、年供气2亿方配气站、企业铁路专线、专用消防队、污水处理厂、科技孵化器、公租房等基础设施。截止2018年底，园区聚集工业企业143户，其中规上工业企业80户。2018年园区营业收入130亿元、同比增长10.5%，规上工业产值133亿元、同比增长23.2%，规上工业实现利润11.7亿元、同比增长8.3%。园区先后被授予“1525工程”培育园区、四川省承接产业转移重点推荐特色产业工业园、四川省招商引资承接产业转移优秀园区、四川省知识产权试点园区、四川省小企业创业基地、四川省模范劳动关系和谐工业园区、四川省“51025”重点产业园区、四川省新型工业化产业示范基地。
158	四川雅安经济开发区	S517030	四川省雅安市名山区新兴路东150米	103.112145,30.062678	雅安市	省级园区	经开区	新能源与智能汽车,新材料,大数据,医药健康	新材料、机械产业	四川雅安经济开发区位于雅安东部，雨城、名山境内，是东融成渝，西连康藏，南接攀西，北达甘青的重要枢纽，也是成渝经济区、攀西战略资源创新试验开发区、川西北生态示范区三重覆盖的区域中心。四川雅安经济开发区前身为雅安市生态科技工业园区，成立于2002年，2006年升级为省级园区，更名为四川雅安工业园区，核准面积1.148平方公里。2013年7月经省政府批准，扩区更名为四川雅安经济开发区，批准面积22.13平方公里，是四川省重点培育的“51025工程”园区，目前正在积极争创国家级经济技术开发区。“4.20”芦山强烈地震后，根据国务院灾后重建总规和四川省重建专规要求，依托雅安经济开发区设立了第一个以国家文件命名的芦天宝飞地产业园区,规划建设面积39.94平方公里,建成区面积10.5平方公里。四至范围（具体以界址点坐标控制）:北至蒙山路、成雅高速连线，南达雨城区草坝镇，东接川藏铁路成都至康定（新都桥）段前进货运站，西临乐雅高速。配套设施有220千伏变电站2座、110千伏变电站4座、污水处理厂2个、天然气配气站2个、物流园区、科技孵化器等基础设施。截至2018年底，园区聚集工业企业260户，其中：规上工业企业44户，2018年园区工业总产值261.8亿元，同比增长5.6%，营业收入360亿元，同比增长20%。园区先后被授予四川省“51025”重点产业园区、四川省新型工业化产业示范基地、四川省民营经济示范园区、四川省第一批工业循环经济试点单位、四川省首批“生态科技工业生态园区”、四川小企业创业基地等。
159	四川天全经济开发区	S517120	雅安市天全县广建北路庆丰苑北侧约200米	102.774837,30.06481	雅安市	省级园区	经开区	智能装备,新材料	电冶、建材、新材料产业	四川天全经济开发区位于雅安市天全县，成立于2008年9月，于2018年3月获批省级开发区，规划面积15.25平方公里，建成区面积4.54平方公里。始阳片区四至范围：东至始阳镇场口，南至天全河，西至三一公司，北至大坪乡毛山村；小河片区四至范围为：东至白沙河，南至小河乡秋丰村，西至白沙河公路，北至白沙河；思经片区四至范围为：东至思经小学，南至思马河，西至思经乡大河村，北至思经河。配套设施有110KV变电站、污水处理厂、科技孵化器、人才公寓等基础设施。截至2018年底，园区聚集工业企业55户，其中规上工业企业34户，2018年园区工业总产值65.4亿元，同比增长18.4%，营业收入61.07亿元，同比增长5.0%。
160	四川汉源工业园区	S519118	雅安市汉源县S306	102.726947,29.346569	雅安市	省级园区	工业园区	新材料,农产品精深加工	有色金属冶炼、化工、食品产业	四川汉源工业园区位于雅安市汉源县，是雅安市重要经济增长极，地处成都平原经济区、攀西经济区、川西北生态经济区交汇处。成立于2006年，于2012年获批省级开发区，规划面积14平方公里，建成区面积3.85平方公里。四至范围（具体以界址点坐标控制）：其中：万里工业园片区，东临万里乡里坪村，西临安乐乡洪福村，南临安乐乡安乐村，北临富泉乡（原白岩乡）虫林村；甘溪坝工业园片区，东临唐家镇（原富春乡）黎家村，西临河西乡香林村，南临富泉镇（原富泉乡）大农村，北临九襄镇大庄村。完成1座220KV变电站、3座110KV变电站，各等级输电线路75千米；23公里道路、9公里防洪堤、2座水厂、1座甘溪坝工业品专业市场以及迁建企业自建供水工程、园区污水处理厂、园区物流中心、园区固体废弃物堆放场建设。截至2018年底，园区聚集工业企业37户，其中规上工业企业26户，2018年园区工业总产值70亿元，同比增长24.5%，营业收入80亿元，同比增长32.2%。园区2012年获批省级开发区。
161	成都-雅安工业园区	S519116	雅安市名山区	103.285597,30.172791	雅安市	省级园区	工业园区	智能装备	新材料、机械产业	四川成雅工业园区位于雅安市名山区，是雅安市重要经济增长极，地处成都一小时经济圈内。成立于2013年1月，于2018年2月纳入《中国开发区审核公告目录》（2018年版），规划（一期）面积10.03平方公里,建成区面积0.37平方公里。2019年〔月，升级成为省级工业园区。四至范围（具体以界址点坐标控制）：园区东至规划纵二路，南至成雅高速路，西至百丈镇的百马路，北至108国道。配套设施有110KV变电站1座；天然气、供排水设施、通讯设施，安置区、污水处理厂（在建）等基础设施。截至2018年底，园区聚集工业企业15户，其中规上工业企业10户，2018年园区工业总产值8.77亿元，同比增长40.3%，营业收入8.1亿元，同比增长30.6%。
162	四川石棉工业园区	S519119	雅安市石棉县滨河路四段石棉容大医院南侧约30米	102.375296,29.225919	雅安市	省级园区	高新区	绿色化工,新材料	冶金、磷化工、新材料产业	四川石棉工业园区位于雅安市石棉县,是雅安市重要经济增长极，地处攀西经济圈和成渝经济圈，成立于2006年3月，于2012年12月获批省级开发区，规划面积10.74平方公里，建成区面积3.18平方公里。四至范围（具体以界址点坐标控制）:北为现有自然村（叶坪村），东为竹马河，南为至甘洛垭口，西为山体。形成了以500干伏输变电站（1个）为中心，220千伏（3个）、110千伏（9个）线路为骨干，35干伏线路为配套的电力通道。另有污水处理厂、人才公寓、供水厂、综合服务中心、核心区广场等基础设施。截至2018年底，园区聚集工业企业52户，其中规上工业企业31户，2018年园区工业总产值145.3亿元，同比增长26.5%，营业收入145亿元，同比增长18.9%。2008年11月被四川省中心企业局授予“四川省小企业创业基地”称号，2012年11月，创建为省级循环经济示范园区，2013年纳入攀西战略资源创新开发试验区，石棉碲铋产业基地和石棉工业园区成为试验区“三大基地、六大园区”之一。
163	四川芦山经济开发区	S517121	四川省雅安市芦山县环保局	102.948092,30.172087	雅安市	省级园区	经开区	新材料,农产品精深加工	纺织、根雕产品、新材料产业	四川芦山经济开发区位于雅安市芦山县，是雅安市重要经济增长极，地处长江经济产业带（有则写，无则不写）。成立于2006年11月，2013年10月正式更名为芦山县产业集中区，规划面积7.51平方公里，建成区面积5平方公里。四至范围（具体以界址点坐标控制）:飞仙小区南至埝坎村永新铁合金厂，西抵芦山河，北达禾茂村禾茂坝，东至省道210线；产业集中区东、西区：东至芦山河，南至东风路，西至西川河一向阳路一城北路，北至仁嘉村和五星村高车组。配套设施有10KV、35KV变电站、污水处理厂、中小企业孵化基地、人才公寓等基础设施。截至2018年底，园区聚集二业企业60户,其中规上工业企业50户，2018年园区工业总产值70.76亿元，同比增长17.7%，营业收入65.31亿元，同比增长6.4%。园区2016年被授予“四川省特色产业基地”。
164	草坝工业集中发展区	---	雅安市雨城区G351草坝中心客运站西侧约40米	103.126811,29.958562	雅安市	其他重点园区	工业园区	新材料,农产品精深加工	机械制造、新材料、农产品加工产业	草坝工业集中发展区位于雅安市雨城区草坝镇。成立于2006年9月，规划面积6.68平方公里，建成区面积4.03平方公里。四至范围（具体以界址点坐标控制）：以金石公司草坝分公司为起点，向草坝场镇方向延伸,南抵青衣江，北达雅乐高速公路，东临羊老坪，西接老场镇入口处。配套设施有220KV变电站、污水处理厂、天然气配气站、垃圾焚烧站等基础设施。截至2018年底，园区聚集工业企业46户，其中规上工业企业13户，2018年园区工业总产值19.14亿元，营业收入18.75亿元。
165	四川荥经经济开发区	S517117	雅安市荥经县荥兴路东三段小叶景华庭南侧约30米	102.858846,29.802021	雅安市	省级园区	高新区	新材料	合金、建材、宝石加工产业	四川荥经经济开发区位于雅安市荥经县，是雅安市重要经济增长极，地处成都1个半小时经济圈。成立于2007年3月，于2018年2月获批省级开发区，规划面积13.2平方公里，建成区面积5.5平方公里。四至范围：区块一东至荥河，南至荥河，西至堡子村堡子组、顺山组，北至东升村红岩、齐心组；区块二东至星星村3组,南至国道108线，西至水池村下社，北至荥河；区块三东至水池村下社，南至富林村4、5组，西至相岭河，北至荥河；区块四东至荥经河，南至荥经河，西至荥天路，北至上坝村2组；区块五东至荥经河，南至新文村7、8组，西至荥天路，北至荥经河。配套设施有110KV变电站、污水处理厂、天然气、供排水设施、通讯设施、安置区等基础设施。截至2018年底，园区聚集工业企业48户，其中规上工业企业28户，2018年园区工业总产值68.02亿元，同比增长13.4%，营业收入85.06亿元，同比增长5.5%。园区先后被授予省级循环经济示范园区，四川省第一批特色产业基地等。
166	四川宝兴汉白玉特色产业园区	S519122	雅安市宝兴县S210	102.823945,30.277453	雅安市	省级园区	工业园区	清洁能源,新材料	石材、电力产业	四川宝兴汉白玉特色产业园区位于雅安市宝兴县，是雅安市重要经济增长极。成立于2007年1月，2018年2月国家发改委关于开发区公告，宝兴县灵关工业集中区纳入省级开发区公告目录，更名为“四川宝兴汉白玉特色产业园区”。园区于2018年6月完成省级园区申报资料上报，2018年8月完成资料审核，2018年9月公示，规划面积1.31平方公里，建成区面积1.31平方公里。四至范围(具体以界址点坐标控制):区块一东至省道210,南至灵关河,西至灵关河，北至省道210；区块二东至灵关河，南至新场村，西至山体，北至灵关河；区块三东至山体，南至灵关社区，西至山体，北至大渔村。配套设施有4座变电站，容量25.9万KVA变电站、中小学、幼儿园共6所，医院卫生院3所等基础设施。截至2018年底，园区聚集工业企业173户，其中规上工业企业38户，2018年园区工业总产值53.5亿元，同比增长15.3%，营业收入61.9亿元，同比增长20.7%。园区先后被省经信委评为省级“中小企业创业示范基地”、“四川宝兴汉白玉特色产业基地”，被省商务厅评为“省级外向型石材产业园区”。
167	四川长江工业园区	---	宜宾市翠屏区西丘路与宜长路交叉路口往东南约160米	104.83183,28.736951	宜宾市	其他重点园区	高新区	智能装备,节能环保,集成电路与新型显示	节能环保产业、高端成长型产业的配套产业	四川长江工业园区位于“万里长江第一城”宜宾，地处三江交汇核心地带,是长心济带重要区域，“五纵七横”交通规划中南北干线与长江黄金水道交汇点，是宜宾市中心城区承载产业的重要平台，于2007年经宜宾市政府批准成立，经过发展，截止2018年10月，区工业园区含象鼻产业园、长江工业园、惊雷科技园、双谊工业园，形成“一区四园”发展布局，总规划面积60.8平方公里，建成区面积约5.5平方公里。四至范围为：象鼻产业园东至观斗山，南至大麦村，西至象鼻杨柳村，北至象鼻华家村，规划面积532平方公里；长江工业园东至宋家镇石坪村，南至宜长路，西至宋家镇洋坪村，北至长江，规划面积36平方公里；惊雷科技园位于孔滩镇镇区东侧，东以白节子河为界，南抵杨桥村生基坡；西以内昆铁路为界；北至镇区文化街，规划面积1298平方公里。园区基础设施配套完善，已完成了道路、供水、排水、电力、燃气、通讯、通邮、有线电视等建设。园区先后投入资金28.4亿元，建成骨干路网23公里，道路形成环状，满足运输及消防要求；园区管线均以埋地为主；建成供水厂3座，供水管网约47公里，采用分流制排水，雨水直接排向市政雨水管网，生产和生活污水经工业园区污水处理厂处理后排放；象鼻35千伏变电站、孔滩110千伏变电站、宋家35千伏变电站及10千伏专线建设已投入使用，铺设天然气管网约34公里，在建10公里。园区宽带、广电形千已完成布局铺设颈设的分支点，可完全保障入驻企业要求。园区内企业、商户等已100%实现了通讯畅通。截止2018年底，园区聚集工业企业85户，其中规上工业企业34户。2018年，园区实现规模以上工业总产值260.2亿元，同比增长39.3%；实现总营业收入300.6亿元，同比增长34.8%；实现利润66亿元，同比增长35%。园区大力发展临港经济和通道经济，发展“3+2”产业，构建沿江特色经济带，是四川省重要的生物质纤维研发生产基地，先后获得“四川省新型工业化产蚯范基地”、“四川省循环经济示范园区”、“中国循环经济推广先进园区”等荣誉称号。园区纳入四川省《产业园区创新改革发展规划(2016-2020)》,列为节能环保装备产业、高端装备制造产业重点园区。
168	四川筠连经济开发区	S517103	宜宾市筠连县筠州北路一街三里坎菜市场北侧约130米	104.516464,28.171157	宜宾市	省级园区	经开区	医药健康	生物医疗产业	四川筠连经济开发区位于宜宾市南部筠连县，是《宜宾市产业园区发展总体规划》确定的“两点一走廊”经济园区发展格局中重要组成部分。园区始建于2007年，2013年由宜宾市政府批准同意设立筠连县工业园区。于2018年9月获批省级经济开发区，核准面积227.05公顷，建成面积2.27平方公里。筠连县工业园区目前的规划面积为1333.91公顷。按照建设一园多区的模式，整合筠连县的资源和要素，把园区分为海瀛、巡司和镇舟三个功能区，将其建设成为发展优势特色产业集中区、吸引投资的集聚区、创新发展的先导区和循环经济示范区。筠连工业园区总体规划为：“一轴、一心、两廊、三片区”。一轴依托筠巡快速路打造的产业发展主轴；一心打造筠巡一体化的中心城区；两廊依托宜昭高速公路、筠盐铁路和金筠铁路形成的主要交通廊道;三片区：海瀛生物医药和特色农产品精深加工工业片区、巡司新型建材与特色农产品加工片区和镇舟生物医药工业片区。海瀛生物医药和特色农产品精深加工工业片区位于筠连县北大门，距筠连镇约3公里。规划范围东至青龙村，西至冷水洞，南至金凤小学、陈家沟、村子上、国漆文化公园，北临青龙山山脚老熊湾、筠连县新世纪绿色食品有限公司，规划面积为413.48公顷。巡司新型建材与特色农产品加工片区位于筠连县巡司镇，规划范围东至鲁班山南矿、小河村砖厂，西至巡司场镇城郊公园、以巡司河、筠民路及规划绕城环路为界，南至土房村、德面村，以规划绕城环路为界，北至干法水泥厂，北矿生活区北侧，规划面积为787.4公顷。镇舟生物医药工业片区位于筠连县镇舟镇，距县城筠连镇约42公里。规划范围东至巷子坡，西至龙洞沟桥、石子坡，西南至石板湾、田坝，南至后湾、罗家崖，北至镇舟大桥、景阳村文化室、石岗小学，规划范围面积为133.03公顷。截止2018年底，园区聚集工业企业65户，其中规上企业有20户。2018年园区规上工业企业工业产值28.82亿元，同比增长0.74%，实现利润3.59亿元，同比增长1.63%。
169	四川江安经济开发区	S517099	宜宾市江安县滥坝乡	105.129462,28.713718	宜宾市	省级园区	经开区	清洁能源,新材料	循环化工产业	四川江安经济开发区位于四川省宜宾市江安县，地处长江北岸，与江安县城一桥相连。园区位于国家“五纵七横”南北干线与长江“黄金水道“结合部，宜宾、泸州两大机场50公里辐射圈交叠于此，是长江经济带、成渝经济区、川南城市群核心辐射区，发展开放性、创新性经济潜力巨大，是四川省“51025”发展计划重点培育的500亿产业园区，也是宜宾市重点培育的5个1000亿产业园区之一。园区始建于2005年底，于2007年9月经江安县人民政府批准设立，原名为江安县阳春工业园区，2014年2月更名为江安县工业园区，并以四川江安经济开发区名称列入《中国开发区审核公告目录（2018年版）》,园区总体规划面积30平方公里，其中建成区8平方公里；规划新材料、新能源14平方公里，竹加工、绿色食品加工8平方公里。园区公共基础配套设施完善，已达到“七通一平五配套”标准，高标准建成了园区道路57公里，供水量1.5万吨/日的自来水厂，18.5平方公里给水管网，61公里雨污水管网，处理量1万吨/日的阳春、康家坝污水处理厂各一座及配套61公里的雨污水管网，阳春园区110KV变电站3座，康家坝园区35KV变电站1座，有川港、巨峰2个天然气配气站，安置房53万余平方米，园区蒸汽管网、弱电管线贯通，基本实现全覆盖。截止2018年底，园区聚集工业企业95户，其中规上工业企业61户，2018年园区规上工业企业工业产值124.42亿元，同比增长22.3%，营业收入118.9亿元，同比增长37.61%，实现利润8.6亿元，同比增长11.06%。园区先后荣获四川省“51025”发展计划重点建设的500亿园区、首批四川省循环经济试点园区、首批四川省招商引资承接产业转移优秀园区、首批四川省知识产权试点园区和省级小企业创业示范基地等荣誉称号。
170	四川宜宾南溪经济开发区	S517097	宜宾市南溪区成渝环线高速	104.895892,28.812341	宜宾市	省级园区	经开区	农产品精深加工,医药健康	生物医药及医疗器械、造纸及纺织产业	四川宜宾南溪经济开发区位于宜宾市南溪区，是宜宾市重要经济增长极，地处国家“五纵七横”交通规划中南北干线与长江“黄金水道”的交汇点。园区成立于2007年8月，园区累计投入财政资金40多亿元，撬动社会投资400多亿元，省级经开区申报工作已进入省政府常务会审批阶段。开发区基础配套设施完善，企业入驻承载有力，创造了一个个“南溪速度、南溪模式、南溪精品”,建成标准厂房6万平方米，“八通一平”建设已完成，建成总长20多公里的高标准市政道路，有日供水能力2万吨的自来水厂2个，日污水处理量1万吨/天的工业污水处理厂2个；110KV变电站2座；日供气10万立方米和5万立方米的天然气配气站各1座，雨污管网、标准厂房和市政配套设施齐全，水、电、气、通讯、有线电视实现全覆盖，拥有1个省级孵化器，1个星创天地，2个省级重点工程实验室，9个省级企业技术中心。开发区总规面积28.1平方公里，建成面积10平方公里。罗龙片区总体规划范围西至拱背桥，南至长江沿岸起，东至凤凰村，北至金竹岩，规划面积15.4平方公里。控制性详细规划：西至拱背桥，南至长江沿岸起，东至规划的泸宜高速公路，北至金竹岩，约10.1平方公里。食品园区控制性详细规划：控详规划范围南至长江边，北临规划宜泸快速通道，东至麻柳村,西至九龙村三社，规划面积2.8平方公里。轻工业园区控制性详细规划：东至麻柳村，南至长江，西至食品园区，北至南阳快速通道，规划面积5.3平方公里。截止2018年底，开发区聚集工业企业230户，其中规上工业企业88户，2018年开发区规上工业企业产值214亿元，同比增长16.3%，开发区营业收入302亿元，同比增长31.3%，实现利润15亿元，同比增长18%。园区先后被评为国家级服务业标准化示范试点园区、中国特色食品工业基地、西部优秀工业园区、省知识产权试点园区、省级中小企业科技孵化器、省级小企业创业示范基地、四川省生产性服务业功能示范区、四川省首批新型工业化产业示范基地、四川省首批特色产业基地，是四川省“51025”工程重点培育的产业园区。
171	四川宜宾县高新技术产业园区	S518098	宜宾市叙州区G353	104.455226,28.783203	宜宾市	省级园区	高新区	智能装备,新材料	装备制造、军民融合、智能终端、白酒产业	四川宜宾县高新技术产业园区位于宜宾市，地处川滇黔交带，是长江经济带与丝绸之路经济带汇合区域,交通区位优势明显。宜宾高新区于2007年提出，2009年开始建设，2012年成功升格为市级工业园区，2019年1月经四川省人民政府批准升级为省级高新技术产业园区。高新区采用“一主一核两园”模式，由双城、宜宾高新区，长江工业园、五粮液体产业园球高新区先后被授予“省级高新技术产业园区”“四川省新型工业化示范基地”和“四川省特色产业基地”以及入选《中国开发区审核公告目录（2018版）》。宜宾高新技术产业园区核心区配套建设有省级孵化器一个、人才公寓、公租房和配套日处理能力2万吨、1万吨、1500、800吨污水处理厂各一座。建成供水厂3座，变电站共10座，其中110kv变电站两座，10KV、35KV、110KV、220KV各层次电网覆盖，满足企业及群众不同用电需求。同时园区通讯由三大通讯运管商随园区道路辐射，4G网络覆盖率100%。建成通讯基站16座，宽带和有线电视网络已覆盖整个园区。截止2018年底，宜宾高新技术产业园区核心区聚集大小各类企业七百多户，其中“四上企业”91户，规模以上工业65户，资质以上建筑业11户，限额以上批零住餐业7户，规模以上服务业8户。高新技术骨干企业15户，拥有国家级研发机构2个，技术服务平台2个，省级研发机构4个，市级技术服务平台6个，实现全园区（含盐坪坝）营业收入约535亿，同比增长约21%；工业总产值约450亿，同比增长约16%；完成全社会固定资产投资约103亿。
172	四川兴文经济开发区	S517104	宜宾市兴文县江兴路	105.268761,28.368916	宜宾市	省级园区	经开区	智能装备,新材料,农产品精深加工	生物医药及医疗器械产业	四川兴文苗族工业园区位于宜宾市兴文县，地处四川省、重庆市、贵州省、云南省四省市交界，是全省唯一的苗族工业园区，是宜宾乃至四川通江达海、南向全域开放门户。四川兴文苗族工业园区建立于2010年3月,2019年1月经省政府批准设立为“四川兴文经济开发区”，规划面积4.78平方公里，建成区面积2.32平方公里，四至范围（具体以界址点坐标控制）：东至现状变电站西侧350米，南至太平河，西至县道X098线，北至雷打山。工业园区按产城一体与城市规划建设，投入基础设施建设资金10亿元，配套建设5条主干道路、110kv变电站、污水处理厂、科技孵化器、企业服务中心等基础设施。规划布局富硒绿色生态食品精深加工、生物医药及医疗器械、竹产业精深加工、旅游产品综合开发、页岩气等综合能源、仓储物流、生活配套服务六大功能区和园区综合管理中心。截止2018年12月底，经开区累计签约落地企业70户，规模以上企业19户,招商引资到位资金68.85亿元、固定资产投资40.3亿元、实现工业总产值175.02亿元。其中，2018年园区规上工业企业工业产值18.07亿元，同比增长22.67%；营业收入16.84亿元，同比增长21.16%，实现利润1.74亿元，同比增长29%。2015年7月获得“省级小企业创业示范基地”称号。
173	四川长宁经济开发区	S517100	四川省宜宾市长宁县S308	104.938983,28.612597	宜宾市	省级园区	经开区	新材料,农产品精深加工	竹木制品深度开发产业	四川长宁经济开发区位于宜宾市长宁县，地处成渝经济圈和川滇黔结合部。园区成立于2008年6月，总规划面积31.79平方公里。分为下长功能区：规划面积3.82平方公里，紧邻宜泸渝高速下长出口和长江黄金水道,建有千吨级件杂及液货码头，依托港口优势，打造以现代仓储物流产业为主的配套功能区。古河-开佛-宋家坝功能区：规划面积26.95平方公里，紧邻成贵高铁长宁综合站，打造以古河“竹•盐”特色食品园中园、开佛酒类绿色食品加工园、宋家坝竹木精深加工研发转化、新能源研发为一体，结合已有的醋酸纤维等新材料、富源发电等装备制造为辅的综合功能区。双河竹类绿色食品功能区：规划面积1.02平方公里，紧邻“宜叙”高速双河出口,依托交通和资源优势，打造绿色竹类食品加工专业园区，形成集竹食品精深加工、竹食品技术研发、竹食品交易、竹观光旅游为一体的综合功能区。目前，园区基础设施建设较为完善，实施了天能燃气站及天然气主管网、两个110KV变电站、年吞吐量60万吨香炉滩码头、园区干道、日处理120吨的固废渣场、日处理10000吨的污水处理厂、科技研发与投资服务中心等基础设施建设项目。截止2018年底，园区入驻工业企业68家，其中规上企业42家，实现工业总产值121亿元。园区是四川省“十二五”新增20家省级开发区培育发展地之一、省级新型工业化产业示范基地之一，是省级循环经济示范园区，是宜宾市重点推进产业园区、宜宾市“两化”互动示范园区。
174	宜宾临港经济技术开发区	G511196	宜宾市翠屏区黄桷坪路宜宾爱康医院西南侧约40米	104.672558,28.789167	宜宾市	国家级园区	高新区	航空与燃机,优质白酒	高端成长型产业、现代服务业、科教孵化产业	宜宾临港经济技术开发区位于长江航道零公里处，宜宾市中心城区核心区域，于2009年12月18日正式成立，2013年1月经国务院批准升级成为国家级经济技术开发区，新区核心管辖区168km2，统一规划区达到283km2，覆盖宜宾市沿江工业集中区和港口群，下辖四个街道（乡、镇）。临港经开区成立以来，在省委、省政府和市委、市政府的坚强领导下，较好地完成了强基攻坚目标任务，正全面迈入腾飞发展的初期阶段,累计开发面积30.65平方公里,配套建设有变电站、白沙湾污水处理厂和杨湾污水处理厂、西南互联网产业基地、智能终端产业示范园、中小企业科技创新孵化园、人才公寓等基础设施。截止2018年底，园区聚集工业企业174户，其中规上工业企业56户，2018年园区规上工业企业工业产值133.87亿元，同比增长249.62%，营业收入110.66亿元，同比增长269.5%，实现利润18.44亿元，同比增长1149.6%。园区被授予“长江经济带转型升级示范区”、“中国产学研合作创新示范基地”、“51025重点产业园区”、“四川省级小企业创业示范基地”、“四川特色产业基地”、“四川省科技成果转移转化示范区”。
175	四川珙县经济开发区	S517102	宜宾市珙县G246余家社区村委会西南侧约80米	104.748926,28.503209	宜宾市	省级园区	经开区	清洁能源,绿色化工,新材料	绿色建材产业	四川珙县经济开发区位于宜宾市珙县，成立于2007年12月，2009年启动建设。2018年列入四川省“绿色建材”特色产业基地，2019年1月升级为省级经济开发区。经开区核准面积210.66公顷，建成面积208.94公顷，近期2020年规划面积295.02公顷，远期2035年拟拓展至677.5公顷。四至范围：区块一东至珙县与长宁县的行政边界，南至余家村鱼池湾、箐林村边界，西至宜珙公路，北至宜珙公路；区块二东至宜珙公路，南至宜珙公路，西至宜珙铁路，北至珙县与高县的行政边界；区块三东至珙县与高县的行政边界，南至宜珙公路，西至河流，北至珙县与高县的行政边界；区块四东至任家沟，南至宜威公路，西至宜威公路，北至中坝六队；区块五东至宜威公路，南至宜珙铁路，西至巡场河，北至宜威公路；区块六东至宜威公路，南至巡场河，西至武家岩，北至宜威公路。经开区配套建有辐射周边七县的宜宾南部区域电网枢纽220KV中心变电站，供电电压380V/10KV/35KV,2000m3/d生活用水厂及5000m3/d工业用水供水系统，日供320万m3及30万m3天然气配气站两座，主干道路5.25公里，倒班房5.8万平方米，标准化厂房1万平方米，中国移动、电信、联通等运营网络全覆盖。四川珙县经济开发区依托资源禀赋优势，突出优势资源就地转化的发展战略，着力打造国家级新能源（页岩气）综合开发基地、川滇黔结合部绿色建材基地、四川省玄武岩新材料制造基地、宜宾市高端成长型产业功能配套基地，重点发展页岩气上下游产业，玻璃、中高端陶瓷、玄武岩纤维及制品、硅、钙、新型墙体材料、装配式建筑、表面处理等产业。2018年，经开区入驻企业86户，已投产企业72户，规模以上企业42户，完成工业总产值65.52亿元，同比增长7.82%，完成营业收入64.31亿元，同比增长6.95%，规模以上工业总产值61.52亿元，同比增长5.56%，实现利税11.30亿元，同比增长7.31%。
176	四川高县经济开发区	S517101	宜宾市高县宜威路延长壳牌加油站西北侧约220米	104.696192,28.679737	宜宾市	省级园区	经开区	清洁能源,绿色化工,新材料,农产品精深加工	综合能源、精细化工产业	四川高县经济开发区位于宜宾市高县，是四川省重点培育的500亿元工业经济开发区，是川南产业承接基地，能源转化基地，也是宜宾市工业发展核心区域之一。经济开发区始建于2007年，2014年9月由宜宾市人民政府批准同意设立高县工业园区，2018年中国开发区审核公告目录（2018年版）将其纳入省级开发区，2019年1月省政府正式批准为省级经济开发区。经开区总规面积23.07平方公里，建成区面积3.33平方公里。包含庆符功能区、贾村功能区和福溪功能区，形成了“一园三区”的发展布局。四至范围：庆符功能区规划范围东至凯华路、南至绕城路、西至绕城路、北至迎宾路，规划面积3.83平方公里；贾村功能区规划范围东北至S206省道、东南至乌蒙山脉、南至瓦窑坪、西至点灯坡、西北至牛尾坝，规划面积3.07平方公里；福溪功能区包括磨顶、还阳、石桥、新韩四个组团，磨顶组团东北至火车站，西至宜琪铁路支线，南至宜宾绕城高速，西北至成贵高铁，规划面积6.34平方公里；石桥组团东以南广河为界，北至成贵高铁𡎚西至堰沟,南至偏岩沟，规划面积2.53平方公里；还阳组团西至南广河，南至成贵高铁，北至小岩口，西至大田湾，规划面积2.53平方公里；新韩组团东北至宜珙铁路支线，西至胡村，南至赵家湾，东南至桐子塝，规划面积5.56平方公里。经开区基础设施配套完善，已达到“八通一平”标准，建成标准厂房2万平方米，建有10KV、35KV、110KV变电站满足各类企业用户需求，建有污水处理厂2座，供水厂2座。截至2018年底经开区集聚工业企业达到65家，其中规上工业企业32家，规上工业总产值128.8亿元，营业收入127.9亿元，实现利润4.42亿元，预计2019年底，经开区集聚工业企业达到76家，其中规上工业企业40家，规上工业总产值160亿元，同比增长24%，营业收入170亿元，同比增长32%，实现利润6亿元，同比增长35%。2011年9月被农业部认定为全国第一批76家国家农业产业化示范基地之一，2018年10月被确定为全国50个（四川省4个）资源循环利用产业基地，2019年1月《高县工业园区福溪功能区热电联产规划（2017-2030年）》获四川省能源局批准实施。
177	四川屏山经济开发区	S517105	四川省宜宾市屏山县屏山镇王场工业园区企业服务综合体	104.340172,28.866438	宜宾市	省级园区	经开区	智能装备,新材料,农产品精深加工	纺织，高载能、无污染、高技术产业	四川屏山经济开发区位于宜宾市屏山县，是宜宾市重要经济增长极，地处成渝经济圈和长江经济带。成立于2007年10月，于2018年5月获批省级开发区。工业园区规划面积13.7平方公里，由宋家坝产业区、石盘产业区、王场产业区和中太产业区（A、B、C功能区）构成，其中建成区面积3平方公里。石盘产业区北至石盘村何家组，东到高场镇丰收村金家，西靠凤凰山，南抵屏山镇蒋坝村冲口组。宋家坝产业区北至大桥村竹园组，东到新龙村解放组，西达红坪村桂花组，南抵大桥村大桥组。王场产业区东接江北片区凉坝组团，西接永康村，北至规划成贵铁路客运专线，南至江北大道。中太A功能片区北至中都镇2012版控规边界线，东沿现状村庄道路，西沿中都河，南抵白塔村七组；中太B功能片区北至太平乡集镇，东到前哨村二组，西达中都大堰，南抵通林村一组；中太C功能片区北临西宁河，东到火山崖，西达椒园村田垣边，南抵椒园村四组。屏山县工业园区按产城一体规划建设，配套建设有110KV变电站1座、35KV变电站2座、正在建设的污水处理厂2个、标准厂房、人才公寓等基础设施。截止2018年底，园区聚集工业企业65户，其中规上工业企业42户，2018年园区规上工业企业工业产值45.15亿元，同比增长29.1%，营业收入35.04亿元，同比增长31.3%，实现利润0.54亿元，同比增长-1.6%。园区先后被授予“2016年度中国纺织服装行业十大产业园区”、“全国纺织产业转移示范园区”、“四川省生物基纺织产业特色基地”。
178	宜宾市五粮液产业园区	---	四川省宜宾市翠屏区五粮液路红丰西路交叉口	104.602278,28.799173	宜宾市	其他重点园区	工业园区	优质白酒	酿酒及其相关配套产业	宜宾市五粮液产业园区位于宜宾市翠屏区，是宜宾市重要经济增长极，是四川打造长江上游名酒经济带及“中国白酒金三角”的核心区域。园区成立于2009年5月，现拥有全国最大的纯粮固态发酵白酒生产基地，具有白酒生产能力20万吨/年，年产4万吨级的世界最大酿酒车间及36万吨的原酒储存能力；有窖池3.2万余口，最老的明代古窖池从1368年连续生产至今，已达651年。园区规划面积18平方公里，建成区面积6.68平方公里。四至范围：东起红坝大道-古塔路，西至宗场乡龙洞村，南起岷江，北至孜岩山。园区按城市规划建设，配套有变电站、污水处理站、人才公寓等基础设施。截止2018年底，园区聚集企业16户，其中规上工业企业9户，2018年实现工业产值557.9亿元，同比增长8.2%，营业收入931.1亿元，同比增长16.0%，利润201.2亿元，同比增长40.9%。园区先后被授予“1525工程”重点培育园区、“51025工程”重点打造的千亿产业园区、国家新型工业化产业示范基地、四川省新型工业化产业示范基地、国家4A级旅游景区。
179	四川安岳经济开发区	S517124	资阳市安岳县双龙路与维纳斯路交汇处西南200米	105.37885,30.114487	资阳市	省级园区	经开区	新材料,农产品精深加工,医药健康	农副产品加工、医药、建材产业	四川安岳经济开发区位于革命老区资阳市安岳县，地处成渝经济区腹心。前身是资阳市人民政府2001年10月批准成立的资阳经济技术开发区安岳工业园。2010年4月，经资阳市委常委会议研究决定，在资阳经济技术开发区安岳工业园的基础上，成立安岳县龙台发展区（安岳工业集中发展区）。2018年2月，安岳县龙台发展区纳入《中国开发区审核公告目录（2018年版）》，更名为四川安岳经济开发区（以下简称安岳经开区）,规划面积8.4平方公里，建成区面积5.1平方公里。四至范围为：东至东环线，南至国道319南侧，西至黄桷堰河，北至富康路。经开区按照“以园促产、以产立城、产城一体”发展思路，现已建成路网干道11.18公里,水电气讯设备齐全，新南山医院、九韶外国语学校、职业技术教育中心、大学生创业基地等服务机构建成运营,法庭、消防、派出所等部门入驻园区，6路、7路公交车、工商银行ATM自助银行站相继开通，中小企业孵化园、研发中心、商务宾馆、工业污水处理厂、北坝变电站及配套管网工程建成投用，产城相融、宜业宜居格局基本形成。截止2018年底，园区聚集工业企业149户，实现产值305.7亿元，主营业务301.3亿元；其中规上工业企业30户，2018年园区规上工业企业工业实现产值57.7亿元，同比增长16.8%，营业收入55.9亿元，同比增长17.7%，实现利润5.7亿元，同比增长11.8%。园区先后评列为2006年省政府表彰的全省唯一的优秀县级工业园区、省“51025”重点产业园区、四川省信息工业化（农副产品加工业）产业示范基地、省循环经济试点园区、省优秀农副产品加工示范园区、省中小企业创业示范基地。
180	雁江工业集中发展区	---	资阳市雁江区百威英博大道喜悦江南花都西侧约40米	104.646911,30.10795	资阳市	其他重点园区	工业园区	集成电路与新型显示,农产品精深加工,医药健康	医药健康、食品制造、电子机械产业	2013年雁江区委、区政府将侯家坪工业园区、城东医药食品产业园、城东物流园、中和工业园四个园区一并纳入雁江工业集中发展区，并成立雁江工业集中发展区管理委员会，统一对集中发展区内四个园区进行建设、服务和管理。雁江工业集中发展区辖侯家坪工业园区、城东医药食品产业园、城东物流园、中和工业园四个园区，规划用地总控制面积9.2平方公里，园区建成区面积6.6平方公里。截止2018年底，园区聚集工业企业84户，其中规上工业企业34户，2018年园区规上工业企业工业产值61.8亿元，同比增长9.2%，营业收入66.1亿元，同比增长16.4%，实现利润5.7亿元，同比增长35.7%。
181	四川乐至经济开发区	S517125	资阳市乐至县顺达路天池龙庭苑北侧约130米	105.019834,30.297403	资阳市	省级园区	经开区	新能源与智能汽车	食品、纺织、汽车及零部件产业	四川乐至经济开发区位于资阳市乐至县，成立于2010年7月，涵盖童家、天池、中天三个乡镇，规划面积12.1平方公里，建成区面积3.2平方公里。四至范围（具体以界址点坐标控制）:西郊园区东至乐至县城区至058县道，南至川鄂路，西至鄢家河，北至西郊园区外环路（规划）；文峰园区东至文峰大道，南至318国道，西至文峰大道一路（规划）北至文峰园区外环路（规划）。童家发展区按产城一体与城市规划建设,框架基本成型，水电气邮视讯等配套设施同步跟进，建成骨干路网30余公里、110KV和220KV输变电站各1座，污水处理厂（站）4处，配套污水管网26KM及1座配气总站。乐至县高级职业中学、乐至县中医医院等综合配套项目建成投用，万贯鞋材市场等商贸流通项目加快推进，园区综合服务功能、产业承载能力不断提升，产城相融、宜业宜居格局基本形成。截止2018年底，园区聚集工业企业121户，其中规上工业企业48户，2018年园区规上工业企业工业产值157.5亿元，同比增长13.3%，营业收入149.5亿元，同比增长13.4%，实现利润12.4亿元，同比增长6.9%。园区先后被授予“51025重点产业园区”、“四川省特色产业基地（纺织鞋业）”。2018年2月，成功纳入国家开发区目录，2018年8月通过省发改委省级开发区设立审核，待批准后正式升格为省级开发区。
182	四川资阳高新技术产业园区	S518036	四川省资阳市雁江区现代大道2号	104.62537,30.08769	资阳市	省级园区	高新区	智能装备,轨道交通,软件与信息服务,医药健康	汽车、食品饮料、电子产业	四川资阳高新技术产业园区位于资阳市雁江区，地处成渝经济区、成都平原经济区、环成都经济圈。成立于1992年7月，于2017年4月获批省级高新区，规划面积61.7平方公里，建成区面积22.2平方公里。四至范围为东至沱江河，南至高岩村十一社马劲子，西至成渝高速公路槐树村、红岩村，北至321国道、周祠村十八社二运站、十四社潮土湾。高新区按产城一体与城市规划建设，配套建设有2座110kV变电站，1座污水处理厂及8.5公里的城南供水主管，1座配气总站、3个孵化器、4栋人才公寓等基础设施。截止2018年底，园区聚集工业企业149户，其中规上工业企业59户，2018年园区规上工业企业工业产值239.3亿元,同比增长14.7%，营业收入241.6亿元，同比增长13.4%,利润-3.2亿元，减亏。园区先后被授予《成渝城市群规划》干亿级园区、国家级长江经济带转型升级示范开发区、“51025重点产业园区”、四川省新型工业化（汽车机车）产业示范基地、四川省十大重点培育外向型产业园区、四川省特色产业（口腔）基地、中韩创新创业园（资阳基地）。
183	四川荣县经济开发区	S517049	自贡市荣县学府苑东南侧约40米	104.420116,29.441661	自贡市	省级园区	经开区	智能装备,新材料	农副产品加工产业	四川荣县经济开发区位于自贡市荣县，是自贡市重要经济增长极，地处成渝经济圈。成立于2009年，园区规划面积8.20平方公里，建成区面积5平方公里。四至范围为：东至学堂路，南至绕城南路，西至宝塔路，北至旭水河。园区按产城一体与城市规划建设，配套建设有11KV变电站、污水处理厂等基础设施。截止2018年底，园区聚集工业企业69户，其中规上工业企业50户，2018年园区规上工业企业工业产值100.81亿元，同比增长21.54%,营业收入96.75亿元，同比增长20.90%,实现利润3.89亿元，同比增长24.28%。2011年10月被列为四川省省级开发区培育发展基地，2015年农副产品加工区被确定为国家级农产品产业化示范基地，2016年8月荣县工业园区被确定为“四川省新型工业化产业示范基地（第三批）,2018年2月纳入《国家开发区审核公告目录》（2018年版），2019年1月25日省人民政府已正式批准设立四川荣县经济开发区。
184	大安工业园区	---	自贡市大安区大安街262号	104.794391,29.378689	自贡市	其他重点园区	工业园区	智能装备	通用设备制造产业	自贡市大安工业园区由大塘山锅炉产业园、张家坝老工业基地转型升级示范区、牛佛临港经济开发区重装产业园(规划中)，拟规划面积35.82平方公里，其中工业用地15.78平方公里，可用工业地13.63平方公里。自贡市大塘山锅炉产业园位于自贡市北面，在东锅厂的北部和北环路以南区域，北临北环路，西至自贡市旧城中心，区域内有联通北环路的东锅、川玻连接大道，有铁路专用支线，交通便利、地理位置优越。园区规划用地面积2.22平方公里,规划建设用地面积为1.77平方公里，其中工业用地面积1.46平方公里。区域内建筑物少、空间开阔，易于工业布局，地势南高北低，临威远河而居，园区目前配有工业级自来水、400KV配电站和天然气管网及通讯网络相连，园区建设有雨污水管网及配套基础设施，为园区提供更为优质的服务和条件，进一步促进园区企业的发展壮大。园区现有厂房及配套办公用房面积约20万平米，水、电、气、网全通，为园区持续健康发提供强有力的服务保障。牛佛临港重装产业园为融入“一带一路”战略和区域整体发展，完善区域水运交通，抓住东部产业梯度西移的趋势，而编制了牛佛临港经济发展总体规划(2017-2030),规划面积31平方公里，其中工业园区总建设用地约10.09平方公里，其中城镇新区1.25平方公里，起步区3.18平方公里，南部拓展区5.66平方公里，该区域以二类、三类工业用地为主，其中三类工业的布局应不对环境产生影响，但该规划涉及大量的基本农田和村庄，也不符合当前牛佛镇土地规划和自贡市国土规划，尚未取得市上批复，现正积极组织调规，征集区级部门意见，完成规划文本编制。截止2018年底，园区聚集工业企业31户，其中规上工业企业21户，2018年园区规上工业企业工业产值131.21亿元，同比增长18.4%,营业收入126.33亿元，同比增长14.81%,实现利润7.21亿元，同比增长8.9%。
185	沿滩高新技术产业园区	---	自贡市沿滩区科创二路一段	104.807413,29.330819	自贡市	其他重点园区	高新区	智能装备,新材料,农产品精深加工	高端装备制造、农产品加工业、新材料产业	沿滩高新技术产业园区（以下简称“高新区”）位于自贡市工业经济带沿S305线梯次布局的中部，处在沿滩区”“一线经济带”腹地，拥有独特的区域布局和便利的交通网络。成立于2009年，于2018年3月被省政府正式批复认定为“省级高新技术产业园区”，名称为沿滩高新技术产业园区。高新区总规划面积20平方公里，其中控规面积13.5平方公里，拓展区6.5平方公里。经过9年的发展，高新区完成政府性投资38亿元,已建成承载能力达7.5平方公里，“两横四纵”12公里道路，12万平方米公共绿化美化，具备有科技企业孵化器、污水处理厂、110KV变电站等基础配套设施完善、产业布局合理的百亿级工业园区。截止2018年底，园区聚集工业企业93户，其中规上工业企业59户，2018年园区规上工业企业工业产值219亿元，同比增长15%,营业收入238亿元，同比增长8%,实现利润41亿元，同比增长20%。高新区先后获准成为第一批省级循环经济示范园区、省级开发区培育地、全省“51025”重点发展产业园区、第二批省级特色高新技术产业化基地、园区节能环保装备产业园入选“四川省特色产业基地（第一批）”名单。
186	四川富顺晨光经济开发区	S517050	自贡市富顺县釜江大道西段附近	104.954936,29.183153	自贡市	省级园区	经开区	新能源与智能汽车,新材料	化工、新材料、汽车零部件产业	四川富顺晨光经济开发区（以下简称“晨光园区”）位于四川省富顺县，是富顺县重要经济增长极，地处成渝经济圈和成德绵高新技术产业带。成立于2003年9月，规划面积32.3平方公里，包括城区片区（晨光科技园区）和代寺片区（富顺纺织服装产业园区），建成区面积7.1平方公里。规划控制区四址范围为：城区片区为东至西苑路、金城路、邓隆路、回澜大桥与城区相接，南至镇溪河、沱江沿线，西至釜溪河、沱江河，北至沿省道305线自镇溪河至西苑路；代寺片区ZD-1为东至代寺镇丰光村十四组，南至丰光村一组，西至锦绣路，北至省道305线；代寺片区ZD-2为东至志远大道，南至福代路，西至代寺镇二七村三组、十六组，北至省道305线。晨光园区按产城一体与城市规划建设，配套建设有110KV变电站、配气站、工业供水厂、污水处理厂、公租房等基础设施。截止2018年底，园区聚集工业企业137户，其中规上工业企业68户，2018年园区规上工业企业工业产值269.05亿元，同比增长18.9%,营业收入314亿元，同比增长18.2%,实现利润19.22亿元，同比增长21.72%。园区先后获批全省首批“51025重点产业园区”、四川省首批特色高新技术产业园区、省知识产权试点园区、省循环经济示范园区、省新型工业化产业示范基地，2018年2月26日,被国家发展改革委、科技部等六部委正式纳入国家开发区审核公告目录。2019年1月25日被四川省人民政府批准为省级经济开发区“四川富顺晨光经济开发区”。
187	自贡高新技术产业开发区	G512139	自贡市沿滩区科创二路一段	104.807413,29.330819	自贡市	国家级园区	高新区	航空与燃机	节能环保、装备制造、新材料产业	自贡高新技术产业开发区（以下简称“自贡高新区”或“高新区”）位于自贡市中心城区南侧，横跨自流井区和沿滩区，是自贡市重要经济增长极，地处成渝经济带和全省第二大经济区川南城市群的几何中心。于1992年5月经四川省人民政府批准成立。2006年1月，国家发改委公告确认自贡高新区为省级开发区，更名为四川自贡高新技术产业园区。2011年6月，国务院批复自贡高新区升级为国家高新技术产业开发区，是全省第三个国家级高新技术产业开发区。规划面积100平方公里，托管面积64平方公里，建成区面积35平方公里，其中工业园区面积13平方公里。四至范围：隔釜溪河与老城区相望，东南与沿滩区，东北、西南与自流井区，西与大安区相邻。高新区按产城一体与城市规划建设，配套建设有110KV变电站、污水处理厂、科技孵化器、技术转移中心、创新中心、人才公寓等基础设施。截止2018年底，园区聚集工业企业170余户，其中规上工业企业72户，2018年园区规上工业企业工业产值150.78亿元，同比增长17.6%,营业收入141.5亿元，同比增长20%,实现利润7.89亿元，同比增长24.5%。园区先后被授予“国家级新材料高新技术产业化基地、科技兴贸创新基地”、“国家级装备制造（节能环保装备）新型工业化产业示范基地”、“国家知识产权试点园区”、“国家知识产权示范园区”、“大学生科技创业见习基地”、“全省“51025”千亿产业园区”、“四川省中小企业创业示范基地”、“全省园保贷第一批试点园区”。
188	四川自贡航空产业园	S519048	四川省自贡市贡井区	104.630547,29.384843	自贡市	省级园区	经开区	航空与燃机,节能环保,新材料	通用航空、装备制造、航空新材料产业	四川自贡航空产业园位于自贡市贡井区，地处成渝经济圈和长江经济带，全省“一干多支、五区协同”重要支点，是自贡市老工业城市产业转型升级战略抓手和重要经济增长极。园区成立于2015年7月，2018年2月纳入《国家开发区审核公告目录》（2018版），2019年1月获批省级经济开发区。园区总体规划面积66.6平方公里，核准面积2.99平方公里（四至范围为：东至成纳输气管线，南至规划双溪水库引水渠，西至南段为S305（隆雅路）、北段为现成佳社区西侧边界）。园区建设有A1类通用机场（已投入使用）、综合服务中心、川南（自贡）飞行服务站、创新创业孵化中心、污水处理厂、安置房等配套基础设施。截止2018年底，园区集聚工业企业165户，其中，规上工业企业52户，全年规上工业企业工业产值232.76亿元，同比增长19.63%；营业收入236.25亿元，同比增长19.51%,实现利润4.3亿元。
189	自流井工业园区	---	自贡市自流井区王贡路	104.748613,29.285295	自贡市	其他重点园区	工业园区	智能装备,农产品精深加工	生产性服务业、装备制造、农副食品加工产业	自流井工业园区位于自贡市自流井区。园区于2006年启动开发建设，规划面积22.96平方公里，建成区面积6平方公里。四至范围：西起旭水河，北临金鱼河，东界高峰山西侧山脚，南至规划外南环路和乐自高速。园区经过高强度投入、高速发展，配套建设有英祥钢材市场、普润生产资料交易中心等大型综合专业市场，污水处理厂等基础设施。园区充分发挥处于川南城市群几何中心的区位优势和大交通枢纽作用，以自贡南铁路物流基地为界定，以东是产城，以西是新城，着力将园区转型为产城一体、业态互联、集聚辐射能力强大的现代综合物流园区。截止2018年底，园区聚集工业企业35户，其中规上工业企业18户，2018年园区规上工业企业工业产值118.9亿元，营业收入110.7亿元，实现利润2亿元。
190	成都锦江工业园区	S519002	四川省成都市锦江区墨香路87号	104.091337,30.592921	成都市	省级园区	工业园区	农产品精深加工,优质白酒,精制川茶,医药健康	食品、印刷、医药	成都锦江工业开发区为四川省省级开发区(川计综合[2000]965号)，规划面积5.6平方公里，2006年，根据国土资源部符合“两个规划”要求，重新勘界，核定面积5.467平方公里；其中，三环路以南、石胜路以北、锦江以东、成仁路以西约1.29平方公里为开发区实际开发面积。锦江工业开发区现入驻企事业单位22家共计27个项目，已建成15个项目。形成以印务、生物制药、总部经济为三大支柱的产业园区。园区建筑总面积为880636.64m2（含在建项目），抓好企业存量土地资源的整合和利用。对于尚未动工建设的土地，要求其按照新的产业定位：发展总部经济+都市工业的要求重新规划。2007年将积极推进四家大企业的总部大厦建设，建成后将有总面积约37万平方米的高层工业楼宇，除企业自用约30%-50%外，可提供约22万平方米的工业楼宇用于引进新的总部企业。锦江创意产业商务区为锦江区五个功能片区之一，是按照锦江区总体发展战略、“1+6”的模式，即一个总部经济,6个重点产业：现代商贸、专业服务、金融文化创意、旅游、信息服务而设置的创意产业功能片区。总面积为10.16平方公里，四主界线为：锦江区锦绣大道以南，锦阳大道以西，外环路以北，府河以东区域（不含该区域的“198”范围），涉及锦江区柳江街道办事处、成龙路街道办事处部分区域及锦江工业开发区全部区域，其核心区为锦江工业开展区（后更名为锦江工业总部基地），其职能职责划分按照各自“三定”方案相关规定履行职能职责。在安全生产工作中，管委会按照“一岗双责”要求，负行业主管部门监管职责；街道办事处负辖区属地管理责任；管委会负责区域发展战略、发展规划的制定和实施，负责产业发展协调服务及产业结构调整工作，负责项目建设的协调和服务；街道办事处负责区域社会管理和公共服务。
191	成都青羊工业集中发展区	S519039	成都市青羊区文家路与盐井三路交叉路口往东南约120米	103.94923,30.698076	成都市	省级园区	工业园区	航空与燃机	航空航天器、饮料、金属制品	青羊工业集中发展区（简称：青羊工业园）位于成温公路以北，温江机场两侧，三环路与外环路之间。规划面积5.565平方公里。发展区控制性详细规划以于2006年2月全部完成。发展区以温江机场为界分为东区和西区。发展区以航空产业为主导，重点发展精密电子、总部基地、模具产业。截止2006年底，发展区已引进企业204家，规模以上企业44家。成都青羊发展工业区实行管理、投资、经营的三个主体的分离。在管理上，由发展区管委会作为行政管理主体，对发展工业区的统一规划进行指导，制定统一的管理规则，对入驻企业的经营行为进行规范和约束；同时，发展区管委会也为入驻企业提供各种服务，并协调政府有关部门为入园企业提供配套的各项政策服务。成都青羊发展有限公司和成都青羊工业投资有限公司，作为投资及经营主体，负责发展区厂房和基础设施的建设。在管理与经营主体适度分离基础上，通过分工协作与职能互补，实现产权结构和管理线条的清晰化。
192	成都金牛高新技术产业园区	S518004	四川省成都市金牛区蜀西路与金周路交叉口东北80米	103.992152,30.723843	成都市	省级园区	工业园区	集成电路与新型显示,医药健康	医药、饮料、食品、电子设备	成都金牛高新技术产业园区分为西区和北区起步园。西区位于羊西线和成灌路之间，规划面积2.69平方公里，为省级高新技术产业园区及全市“转型发展试点园区”；北区起步园紧邻川陕路，规划面积2.1平方公里，为市级工业集中发展区。产业园西区借助80余万平方米楼宇资源大力发展“工业总部经济聚集区”，北区起步园利用约1500亩未出让土地打造“人工智能产业园”，以“总部+都市工业”现代产业体系为支撑着力打造“千亿级都市工业产业园区”，努力将园区建成集生产、研发、居住、消费、服务、生态多种功能于一体的新型城市社区。截止2018年底，园区入驻企业2802家，其中，规模以上企业103家；规模以上工业企业31家；国家高新技术企业45家。2018年，园区规上企业实现营业收入283.02亿元，同比增长15%。规上工业企业实现主营业务收入69.4亿元，同比增长2.9%；实现工业总产值70.87亿元，同比增长9.6%。完成固定资产投资20.04亿元，同比增长10.9%；技改投资17.1亿元，同比增长190.9%；工业投资额7.65亿元，同比增长44.4%。实现全口径税收16.18亿元，同比增长25%。
193	成都武侯工业园区	S519005	成都市武侯区武科东二路数码科技广场东北侧约50米	103.991758,30.633857	成都市	省级园区	工业园区	集成电路与新型显示,医药健康	电子信息、医药、机电	武侯工业园区是经省政府批准、由国家发改委审核通过的省级开发区，由原武侯科技园与中国女鞋之都工业园整合而成。经过多年的发展，武侯工业园已取得了显著的成绩。被国家劳动和社会保障部授予“全国模范劳动关系和谐工业园区”称号，被中国轻工业联合会和中国皮革协会授予“中国女鞋之都”区域品牌，四川省委、省政府授予“四川省优秀工业园区”，并获得了“成都市科技园区建设标兵”、“成都市模范单位”、“成都市环境管理模范组织”、“四川省工业生态园区”等荣誉称号。所属的武侯创业中心成为西部地区首家通过科技部评审的国家级高新技术创业服务中心。 园区规划面积8.6平方公里，产业定位为以轻工设计及软件开发为主的工业总部。在推动传统产业建设方面，园区按照建设成都市“一都两园”产业格局和园区“一基地五中心”发展规划的要求，建成了在全国乃至全世界具有较大影响力的鞋业生产基地。在推动高科技产业建设方面，一批世界五百强企业艾默生、杜邦、SBX、台湾联强及在国内有重要影响的川大智胜、神州数码等已在园区安家落户。 截止2008年10月，园区已累计引进企业328家，其中鞋业企业25家，电子信息类企业103家，机电一体化企业42家，生物工程及制药企业40家，环保新材料企业17家，投资及其它企业101家。其中入园建设产业化生产基地90家，已建成投产企业57家。建园以来，园区累计创造产值246.2亿元，实现税收15.33亿元，实现就业近4万人，园区的社会效益和经济效益明显体现。
194	成都青白江经济开发区	S517041	四川省成都市青白江区	104.275642,30.862641	成都市	省级园区	经开区	智能装备,新材料	装备制造、建材	成都先进材料产业功能区位于成都市青白江区，是成都市66个产业功能区之一，规划面积40.02平方公里，已开发面积31.06平方公里。功能区是国家“一五”时期规划建设的西南地区第一个工业区，发展工业已近60年，工业基础雄厚，先后获批国家新型工业化示范基地、国家循环经济试点示范园区、国家绿色建材高新技术产业化基地、四川省特色产业示范基地、中国开发区协会会员单位。2019年1月成功获批省级经济开发区。功能区按照城市“形态、生态、业态、文态”四态合一和产城融合的思路，大力推进老工业区转型升级。推进攀成钢和川化上下游41家企业调迁，累计去化工产能150万吨，钢铁产能350万吨。功能区牢固树立公园城市理念，以“功能复合、职住平衡、服务完善、宜业宜居”为导向，进一步优化空间结构，实施了青白江建区以来最大规模的棚户区和城中村改造，7300亩土地完成拆迁和功能留白。高标准规划建设3.5平方公里中央商务区、3.8平方公里三星湖公园和工业遗址公园，布局高性能纤维等5个产业社区。总投资52亿元的万达综合体开工建设，花样年、越秀等项目相继落户功能区。21万平方米人才公寓正抓紧主体施工。生态安全、环境优美、生活便利、文化繁荣的产业新城正在加快崛起。功能区秉持产业生态圈发展理念，加快打造校院企地创新共同体，建成5个院士工作站、23个技术创新平台。成都先进金属材料研究院建成4个重点实验室，育成项目16个，授权专利申请261项。四川高分子材料研究中心“新型阻燃材料关键技术”荣获国家科技发明二等奖。联合中国科学院、工程院材料领军团队，成功举办第二届成都先进材料产业技术成果交易会，完成产业供需匹配83项。124家主导产业规上企业年主营业务收入达286亿元，占全市新材料收入25%。功能区拥有中国建材、中国重汽、巨石集团、台嘉电子、天马轴承等各类企业1700余家，其中世界500强企业7家，中国500强企业8家，行业龙头企业30家，上市公司17家。
195	成都温江高新技术产业园区	S519003	成都市温江区春江路万春镇政府	103.836485,30.738872	成都市	省级园区	高新区	医药健康,农产品精深加工,优质白酒,精制川茶,集成电路与新型显示	生物医药、食品饮料、电子信息	四川省人民政府批复认定成都台商投资工业园区为省级高新技术产业园区，名称为成都温江高新技术产业园区。至此，四川国家、省级高新技术产业开发(园)区达26家。成都温江高新技术产业园区位于四川省成都市温江区，1992年经四川省委、省政府正式批准建立，2018年纳入《中国开发区审核公告目录(2018年版)》。经过多年的发展，园区基本形成了以生物医药、食品饮料、电子信息为主导的高新技术产业体系。在2019年，成都温江高新技术产业园区实现营业收入超500亿元，其中，高新技术产业营业收入约占园区营业总收入的54%。目前园区配套建有一批科技企业孵化器等省、市级研发机构和服务平台，吸引了千余家企业入驻，其中规上企业176家，高新技术企业96家。
196	成都现代工业港	S519042	四川省成都市郫都区港北三路与港通北三路交叉口西150米	103.936095,30.808427	成都市	省级园区	工业园区	新一代网络技术,软件与信息服务,大数据,集成电路与新型显示	电子信息	成都现代工业港建立于2004年11月，2018 年2月获批省级开发区，规划总面积14.1平方公里，包括A区、B区、C区，已建成10.26平方公里工业新城。       成都现代工业港产业功能区（含成都电子信息产业功能区（郫都区））功能区空间范围总面积88平方公里：其中成都现代工业港功能区占地66.8平方公里；成都电子信息产业功能区（郫都区）占地21.2平方公里，涵盖德源街道全域，属电子信息产业生态圈。功能区围绕“集成电路、新型显示、5G通讯、氢能装备和电子信息配套装备”等主导产业，加快聚合产业链、提升创新链、完善服务链，着力打造具有全球竞争力的“数字经济创新发展试验区”、“产业型公园城市示范区”。园区先后荣获：全国巾帼文明岗、全国绿化模范单位、“四川省‘51025’培育工程500亿园区”、“中国光电产业最具投资潜力园区”、“四川省特色高新技术产业化基地”、“四川省知识产权示范园区”、“四川省最具投资价值产业园区”等殊荣。
197	成都—阿坝工业园区	S519043	成都市金堂县安徽路与节能大道交叉路口东侧	104.57483,30.70296	成都市	省级园区	工业园区	节能环保,农产品精深加工,优质白酒,精制川茶,医药健康	节能环保、食品、医药	成都·阿坝工业集中发展区是在党中央、国务院和省委、省政府的指导下，在广东省、江西省、湖南省、吉林等六省的大力支持下，为了恢复四川阿坝州5.12灾后产业重建而确立的工业集中发展区。成阿工业集中发展区是成都市人民政府和阿坝州人民政府两地合力打造的灾后重建项目，也是全国唯一的地震灾后产业重建园区。该园区落地成都金堂县，占地面积达15平方公里，已批准为省级开发区，并列入四川省培育成长型特色产业园区（“1525工程”）名单。园区将成为承接东部广东省、江西省、湖南省、吉林等六省市产业转移对口援建工业项目、同时工业园还要承接阿坝州的水电资源、铝业资源和锂电池资源的深加工，及其配套成都大工业的产业布局。成阿工也园区还将成为阿坝州未来灾后重建、经济发展、企业升级、品牌展示、政府税收的重要产业基地。成都-阿坝共建工业集中发展区选址成都市金堂县淮口镇、白果镇 高板镇,达成铁路以南，成南高速以北，与亚洲最大铁路集装箱编组站、成都第二机场、成南高速、沪汉蓉快速铁路(达成铁路)紧邻。园区区位优势较为突出。成都·阿坝工业集中发展区地处成遂渝交通主轴带，距离金堂县城21公里，距成都市区45公里。园区北临成达铁路复线，南靠成南高速，毗邻即将新建的成都第二机场，距亚洲最大的铁路集装箱编组站仅26公里。
198	四川金堂工业园区	S519008	成都市金堂县迎宾大道一段金水苑东北侧约250米	104.417066,30.86511	成都市	省级园区	工业园区	航空与燃机,节能环保	节能环保、电力、食品	金堂工业区始建于1994年，是四川省第二批通过国家审批的省级工业开发区，先后经历印染纺织、制衣制鞋、机械制造、节能环保等产业调整升级，目前重点发展节能环保、通用航空、应急装备三大主导产业。园区现已建成9平方公里（其中：位于赵镇的产业园2.8平方公里、位于淮口镇的产业园6.2平方公里）、在建11.4平方公里，先后被评为“中国环保装备（成都）制造基地、四川省环保产业示范园区、四川省新型工业化产业示范基地、国家级节能环保新型工业化产业示范基地”。按照市委“东进”战略、县委“加快构建‘淮州为核、三区联动’城市发展新格局，奋力建设成都东北部区域中心城市”等重要部署，金堂工业区依托淮州新城规划建设，水、电、气、视、讯等要素保障完善，公路、铁路、航空、高速公路等交通设施齐全，力争到2020年实现工业总产值400亿元，并成为“全国一流、西部第一”的节能环保产业技术研发、装备制造及综合配套服务产业基地。2018年，园区企业总数206户，从业人员11882人，累计完成工业投资60.7亿元，101户规上企业累计实现工业总产值113.3亿元，年入库税金5.5亿元。
199	四川蒲江经济开发区	S517045	成都市蒲江区新蒲路与歧元路交叉口东北100米	103.690418,30.300731	成都市	省级园区	经开区	医药健康,农产品精深加工,优质白酒,精制川茶	食品、医药、印刷、包装	2019年1月25日，四川省人民政府以《关于设立四川蒲江经济开发区等64家省级开发区的批复（川府函〔2019〕20号）》批复同意设立四川蒲江经济开发区。 四川蒲江经济开发区设立地点在蒲江县，核准面积为523.14公顷。四至范围为区块一东至工业四路，南至工业南路，西至清江大道，北至蒲江河；区块二东至工业四路，南至京昆高速，西至清江大道，北至工业大道上段；区块三东至利民路，南至京昆高速，西至新蒲路，北至吕石桥村；区块四东至利民南路南段，南至京昆高速，西至新蒲路，北至剑桥小镇；区块五东至蒲江河，南至兄弟彩钢加工机械，西至陈百路，北至蒲江河；区块六东至利民南路南段，南至七星村，西至蒲江河，北至利民南路南段。四川蒲江经济开发区以食品、医药、印刷、包装为主导产业。
200	四川新津工业园区	S519009	成都市新津区金华镇清云北路2号	103.81327,30.436856	成都市	省级园区	工业园区	轨道交通,农产品精深加工,优质白酒,精制川茶,新材料	轨道交通设备、食品、新材料	四川新津工业园区前身是1993年设立的希望城开发区；2002年经批准设立“川浙合作工业园区”；2006年4月经四川省人民政府批准，国家发改委审核定名为“四川新津工业园区”；先后被评为“四川省中小企业创业基地”、“四川省循环经济示范点园区”，“四川省知识产权试点园区”，2009年进入全省“1525”产业园区培育名单，并获得“和谐中国·最佳投资环境开发区”和“四川省和谐工业园区”称号；2013年获批“四川省新型工业化示范基地”，进入四川省10个千亿园区培育名单，在四川省产业园区竞争力评价中跻身“十强”，位列第9位。
201	四川简阳经济开发区	S517037	成都市简阳市X08780	104.495422,30.500676	成都市	省级园区	经开区	航空与燃机,智能装备	航空与燃机,智能装备	四川简阳经济开发区位于简阳市石盘镇，1993年3月由四川省计划委员会批复设立，批准文号为川计[1993]计综309号；开发区管理机构为四川简阳经济开发区管理委员会，是政府派出机构。2006年5月通过国家发展改革委审核公告（2006年第66号），成为第八批通过审核公告的省级开发区，核准面积为352.04公顷，主导产业为机械、食品、农副产品深加工；核准四至范围为东至银定桥村、花红村团柏山，象鼻村瓦匠湾，南至白落村白塔、石包村、成渝高速公路银定桥村段，西至茶店镇界、四十里村，北至卫星村、龙泉湖。2018年开发区实测面积为176.59公顷。根据简委〔2014〕44号文件，四川简阳经济开发区管理委员会与简阳工业集中发展区管理委员会合署办公，设立中共四川简阳经济开发区（简阳工业集中发展区）工作委员会，实行党工委领导下的管委会主任负责制和“两块牌子、一套班子”的管理体制，管辖成都空天产业功能区。成都空天产业功能区是成都市66个产业功能区之一，主导产业为航天装备、智能制造装备，总面积51平方公里。新规划建设面积29.8平方公里，定位为打造国内重要的高端装备制造基地、国际化生态智慧新城。2018年1月以来，功能区担当建设“东进区域智能制造基地”新使命，遵循“人城产”发展逻辑，按照“核心在产业、关键在功能、支撑在园区、机制是保障”总体要求，努力建设高端装备产业基地和智能制造引领示范区。功能区启动建设以来，始终把基础设施和公共服务设施建设作为先导工程，大力实施投资促建。已筹集20亿元资金开展6.8平方公里的征地拆迁工作，正全力推进创业大道等7条市政道路、100万平米标准厂房、50万平米安置还房、9万平米创业中心、14万平米孵化器、18万平米人才公寓及配套住房、仙女滩湿地公园等项目建设，着力打造“功能复合、职住平衡、服务完善、生态宜居”的新型城市社区。已引进长江汽车、星空年代两个投资百亿元的项目入驻、四川能投建工集团对功能区进行整体开发建设运营，与中科院自动化研究所共建智能制造和机器人研究院。功能区先后被授予“四川省小微企业创业基地”、“四川省新型工业化（机电产业）示范基地”、“四川省高新技术产业化基地”、“四川省生产性服务业（机电加工）功能示范区”，是四川省“51025”重点发展园区。
202	成都高新西园综合保税区	---	成都市郫都区滨河路与天全路交叉路口西南侧	103.902528,30.760684	成都市	国家级园区	海关特殊监管区	---		成都高新综合保税区于2010年10月18日经国务院批准设立，是西部地区正式验收的综合保税区。成都高新综合保税区由现有四川成都出口加工区、成都保税物流中心进行整合扩展而成，规划面积4.68平方公里，位于成都高新区西部园区，集保税出口、保税物流、口岸功能于一身，是目前国内功能较全、政策较优的海关特殊监管区域。
203	成都国际铁路港综合保税区	---	四川省成都市青白江区香岛大道1533号	104.299985,30.849329	成都市	国家级园区	海关特殊监管区	---		成都国际铁路港综合保税区位于成都市青白江区，规划面积1.03平方公里，北至香岛大道、西至青白江大道、东至规划九路、南至规划八路。成都国际铁路港综合保税区将重点发展智能家电、物流智能装备、电脑外设保税加工等先进制造业，配套发展以跨境电商及适欧适铁大宗商品为重点的国际贸易，以平行车及汽车零配件等为重点的保税物流业，以机电检测维修、艺术品保税展示、国际结算为重点的保税服务业，打造面向亚欧大陆桥和国际陆海贸易新通道开放需求的“一带一路”外向型产业聚集区。2019年12月，国务院正式发文批复四川省人民政府、海关总署，同意设立成都国际铁路港综合保税区
204	成都国际铁路港经济开发区	---	成都市青白江区香岛大道8号	104.306972,30.847575	成都市	省级园区	经开区	新材料	临港制造、先进材料、国际商贸物流	2020年8月25日，四川省人民政府关于设立成都国际铁路港经济开发区的批复（川府函〔2020〕164号）：设立成都国际铁路港经济开发区。开发区以临港制造、先进材料、国际商贸物流为主导产业。开发区设立地点在成都市青白江区和金堂县，核准面积为1224.4995公顷，其中与成都青白江经济开发区重叠的125.03公顷，从成都青白江经济开发区原核准面积中核减。
205	广安高新技术产业园区	S518109	广安市邻水县同兴路学府雅园西南侧约40米	106.936025,30.325936	广安市	省级园区	高新区	航空与燃机,智能装备,轨道交通,新能源与智能汽车,新一代网络技术,软件与信息服务,大数据,集成电路与新型显示,节能环保	高端装备制造、电子信息、节能环保	2019年,省人民政府正式批复了广安市人民政府《关于将邻水经济开发区认定为省级高新技术产业园区的请示》(广安府〔2018〕20号)。省人民政府同意将邻水经济开发区认定为省级高新技术产业园区,命名为广安高新技术产业园区,以高端装备制造、电子信息、节能环保为主导产业,这是我市首个创建成功的省级高新技术产业园区。我市将切实按照省人民政府要求,突出高新技术特色,着力自主创新,集聚创新资源和人才,在体制机制、人才激励、知识产权、成果转化等方面积极探索、先行先试,大力推进园区转型升级发展,努力把广安高新技术产业园区建设成全省工业高质量发展的先行区、创新驱动发展的示范区。
206	四川广安川渝合作高滩园区	---	广安市邻水县G210与平安路交叉路口往西北约240米	106.745345,30.04295	广安市	省级园区	工业园区	智能装备,新能源与智能汽车,新材料	装备制造、汽车、新材料	根据《国务院关于成渝经济区区域规划的批复》（国函〔2011〕48号）、《国务院关于成渝城市群发展规划的批复》（国函〔2016〕68号）精神，为支持川渝合作示范区（广安片区）建设、推进成渝城市群一体化发展，拟设立四川广安川渝合作高滩园区。四川广安川渝合作高滩园区主导产业为装备制造、汽车、新材料。园区设立地点在邻水县。园区设立核准面积为217.7959公顷。区块范围：区块一东至平安寨村、乐游庙村，南至乐游庙村，西至平安寨村、乐游庙村，北至平安寨村；区块二东至平安寨村、乐游庙村，南至乐游庙村、重庆市，西至高明村、乐游庙村，北至倒碑村、高明村、平安寨村；区块三东至乐游庙村，南至乐游庙村，西至高明村、乐游庙村，北至高明村、乐游庙村。
207	泸州综合保税区	---	四川省泸州市龙马潭区罗汉街道临港大道二段2号	105.516973,28.906896	泸州市	国家级园区	海关特殊监管区	---		2019年12月，国务院正式批复设立泸州综合保税区。泸州综合保税区规划面积1.002平方公里，东临龙溪河西岸，南至成自泸赤高速公路泸州港收费站连接线，西接泸州港进港铁路线，北到泸州长江二桥延长线。综合保税区是经国务院批准，设立在内陆地区的具有保税港区功能的海关特殊监管区域，执行保税港区的税收和外汇政策，集保税区、出口加工区、保税物流区、港口的功能于一体，可以发展国际中转、配送、采购、转口贸易和出口加工等业务，是中国目前开放层次最高、优惠政策最多、功能最齐全、手续最简化的海关特殊监管区域。
208	绵阳高新技术产业开发区	G512046	四川省绵阳市涪城区绵兴东路173号附近	104.670267,31.47236	绵阳市	国家级园区	高新区	新一代网络技术,软件与信息服务,大数据,集成电路与新型显示,新能源与智能汽车,新材料	电子信息、汽车及零部件、新材料	绵阳高新技术产业开发区是四川省绵阳市的一个县级行政管理区，通常简称高新区，非民政部确立的县级行政区，其行政区域仍属县级涪城区，由地级绵阳市直接管辖，其行政机关称绵阳高新技术产业开发区管理委员会，是绵阳市人民政府的派出机关而非独立一级政府。绵阳高新技术产业开发区是1992年经国务院批准成立的国家高新技术产业开发区，位于绵阳市城区西部，下辖永兴镇和普明街道办事处，总面积105平方公里，距成都仅96公里，距绵阳机场8公里，常住人口30万人。绵阳高新区是四川省重点培育的5个2000亿园区之一，是国家知识产权试点园区、全国科技服务体系25个试点园区之一，在全国115家国家级高新区最新综合排名中位列第46位，可持续发展能力排名第12位。2015年，绵阳高新区实现地区生产总值（GDP）256.5亿元，实现工业总产值1073.5亿元，完成固定资产投资完成97.97亿元。
209	四川绵阳出口加工区	G513120	飞云大道东段261号	104.693432,31.455011	绵阳市	国家级园区	海关特殊监管区	---	电子元器件	绵阳综合保税区是由现有国家级绵阳出口加工区进行整合扩展组建，绵阳出口加工区于2005年6月3日经国务院批准设立，拥有完备的海关、检验检疫机构，建有二类铁路口岸、公共保税仓库、集装箱货栈和西部地级市中唯一出口加工区，正在按程序报批国家综合保税区。绵阳出口加工区于2005年6月3日经国务院批准设立，1月20日下午，绵阳市城乡规划局组织召开绵阳市综合保税区选址专家论证会，规划专家及与会部门认真听取了选址论证报告，并推荐两个备选方案。综合保税区是经国家批准并对在其内的特定企业的仓储、加工、转口贸易等活动实行海关保税制度的特定地区，我市综合保税区的申报工作是今年市委市政府的主要工作之一，尽快落实规划选址方案有利于综合保税区申报工作的推进，按照与会专家及部门意见修改完善后，将尽快报送市政府审批。市口岸办、市商务局、市人行、市交通运输局、市环保局、绵阳海关、出口加工区、市国税局、市发改委、市财政局、市国土资源局、市投资促进局、市工商局、市住建局、市检验检疫局、涪城区政府、科发集团等市级部门参加会议。　　2012年2月23日，四川省与海关总署签署合作备忘录。根据备忘录，海关总署将支持绵阳出口加工区设立综合保税区。
210	四川安县工业园区	S519065	业路与文胜路西段交叉口西150米	104.556377,31.534433	绵阳市	省级园区	工业园区	新能源与智能汽车	汽车零部件	四川安县工业园区是2010年经四川省委、省人民政府批准成立的省级工业开发区（川府函[2010]149号）。“大园区”包含安县国家级中小企业工业园；安县花荄工业园区（辽安工业园、界牌工业园）；银河科技产业园；雎水干河子化工工业园。园区地处中国（绵阳）科技城西北角的安县新县城花荄镇，距离市中心区13公里、绵阳机场26公里、成（都）绵（阳）和成（都）广（元）高速9公里、绵阳火车站和皂角铺货站13公里。花荄新县城建设起点高、理念新，区位优势十分突出，是绵阳科技城的卫星城、后花园和城市功能重要的吸纳区。
211	攀枝花东区高新技术产业园区	S518051	金沙江大道东段1223号	101.785065,26.597352	攀枝花市	省级园区	高新区	新材料,智能装备	新材料、智能装备	攀枝花创新开发产业园区成立于2000年7月（设立名称为攀枝花髙新技术产业园区），是攀枝花首个市级工业园区，园区于2006年被列为四川省中小企业局首批小企业创业基地，2008年被纳入全省经济开发区规划总盘子，2011年6月被省政府纳入成长型特色产业园区（“1525工程”）重点培育，2013年被列为攀西战略资源创新开发试验区重点建设园区。2015年12月，市政府第63次常务会议审议通过了《攀枝花高新技术产业园区扩区调位发展规划》,扩区后园区面积约3600公顷，由弄弄坪片区、攀密片区、高梁坪一五道河片区和流沙坡片区四大片区组成。主导产业为机钛及铜钛高端产业、钢铁及钢铁高端加工制造产业、循环经济产业，先导产业为粉末冶金和石墨产业等。2016年5月6日，经市政府批复同意，更名为攀枝花创新开发产业园区，2018年2月26日，经国务院批准，园区纳入了《中国开发区审核公告目录（2018年版）》，公告名称为"四川攀枝花东区高新技术产业园区”，核准面积1896.79公顷。截止2018年底，园区聚集工业企业105户，其中规上工业企业61户，2018年园区规上工业企业工业产值605亿元，营业收入81［亿元，实现税收22亿元（含扩区调位数据，待批准）。
212	遂宁船山高新技术产业园区	---	四川省遂宁市船山区明星大道	105.626971,30.450963	遂宁市	省级园区	高新区	---		船山园区是遂宁高新技术产业园区“一区多园”的重要组成部分，是遂宁联动成渝拓展东南的重要开放平台，园区位于遂宁城市南端，规划面积约113平方公里，其中核心区约60平方公里，城镇建设用地约25平方公里，范围北至中环线、南至老池镇与重庆边界、西至龙凤镇与安居边界、东至涪江。船山区委、区政府将大力建设遂宁高新区船山园区作为“一号工程”，聚焦“现代产业园区、生态公园新城”发展定位，围绕“一年起步、两年成形、三年见成效、五年上台阶”总体目标，按照“一区五园”（文旅文创产业园、高新工业产业园、老池临港产业园、循环经济产业园、现代农业产业园）空间布局，大力推进规划编制、基础设施建设、产业项目落地等六项重点工作，努力将遂宁高新区船山园区建设成为“川渝合作示范区、遂宁高新增长极”。目前，园区正积极推进遂绵高速公路龙凤互通式立交工程、田家渡渡改桥、通港大道等重要基础设施建设。2019年园区开工项目27个，总投资约108亿元。
213	宜宾综合保税区	---	宜宾市翠屏区久安二路与宜宾港路北段交叉路口东南侧	104.763122,28.79961	宜宾市	国家级园区	海关特殊监管区	新一代网络技术,软件与信息服务,大数据,集成电路与新型显示,新材料,清洁能源,航空与燃机,智能装备,轨道交通,新能源与智能汽车	电子信息、新材料、装备制造、新能源	宜宾综合保税区，选址于宜宾临港经济技术开发区内、宜宾港后方陆域保税物流中心向东延展，总面积约0.89平方公里。宜宾综合保税区将整合现有的海关特殊监管区域的功能政策，具有保税物流、保税仓储、保税加工、商品展览展示、检验检测、口岸物流等功能，对提升属地现有的对外开放平台功能发挥重大作用。在规划建设方面，宜宾综合保税区先后编制完成综保区总体规划、概念性规划、开发实施方案及产业规划，明确了综保区战略定位、产业定位、功能分区及开发建设时序。区内规划面积0.89平方公里，主要发展保税加工、物流和服务三大业态，构建电子信息、新材料、装备制造、新能源“1+3”产业体系。区外规划商务和生活配套区约1平方公里、拓展区和产业配套区1.6平方公里。已完成了4.6万平方米保税仓和11.7万平方米标准厂房及基础和监管设施建设，累计投资6.7亿元。按照市委五届十次全会和市委经济工作会议部署，深入实施“双轮驱动”战略，以招大引强、招新引优为重点，力争2021年新增入区企业10户以上，实现外贸进出口总值10亿美元。